{
"type": "FeatureCollection",
"name": "cleaned_rent_places",
"crs": { "type": "name", "properties": { "name": "urn:ogc:def:crs:OGC:1.3:CRS84" } },
"features": [
{ "type": "Feature", "properties": { "ID": 1001, "Address": "улица имени В.М. Бехтерева, 2Ак1", "lat": 45.15891, "long": 38.964398, "square": 45, "rent_price": 35000, "population": 0.0, "poi_count": 0 }, "geometry": { "type": "Point", "coordinates": [ 38.964398, 45.15891 ] } },
{ "type": "Feature", "properties": { "ID": 1002, "Address": "улица Археолога Анфимова, 39", "lat": 45.15633, "long": 38.959566, "square": 100, "rent_price": 50000, "population": 0.0, "poi_count": 0 }, "geometry": { "type": "Point", "coordinates": [ 38.959566, 45.15633 ] } },
{ "type": "Feature", "properties": { "ID": 1003, "Address": "Екатерининская улица, 1к1", "lat": 45.16238, "long": 39.012378, "square": 37, "rent_price": 40000, "population": 0.0, "poi_count": 0 }, "geometry": { "type": "Point", "coordinates": [ 39.012378, 45.16238 ] } },
{ "type": "Feature", "properties": { "ID": 1004, "Address": "Северная улица, 12А", "lat": 45.157436, "long": 39.007077, "square": 120, "rent_price": 96000, "population": 0.0, "poi_count": 0 }, "geometry": { "type": "Point", "coordinates": [ 39.007077, 45.157436 ] } },
{ "type": "Feature", "properties": { "ID": 1005, "Address": "Советская улица, 2/1", "lat": 45.151512, "long": 39.004302, "square": 50, "rent_price": 40000, "population": 12000.0, "poi_count": 0 }, "geometry": { "type": "Point", "coordinates": [ 39.004302, 45.151512 ] } },
{ "type": "Feature", "properties": { "ID": 1006, "Address": "Линейная улица, 57", "lat": 45.14539, "long": 39.004742, "square": 71, "rent_price": 70000, "population": 12000.0, "poi_count": 0 }, "geometry": { "type": "Point", "coordinates": [ 39.004742, 45.14539 ] } },
{ "type": "Feature", "properties": { "ID": 1007, "Address": "Веронская улица, 20", "lat": 45.122837, "long": 38.91924, "square": 96, "rent_price": 100000, "population": 4400.0, "poi_count": 1 }, "geometry": { "type": "Point", "coordinates": [ 38.91924, 45.122837 ] } },
{ "type": "Feature", "properties": { "ID": 1008, "Address": "Сенная улица, 1/4", "lat": 45.126926, "long": 38.946405, "square": 48, "rent_price": 40800, "population": 5000.0, "poi_count": 0 }, "geometry": { "type": "Point", "coordinates": [ 38.946405, 45.126926 ] } },
{ "type": "Feature", "properties": { "ID": 1009, "Address": "Пригородная улица, 1", "lat": 45.127365, "long": 38.949253, "square": 74, "rent_price": 80000, "population": 5000.0, "poi_count": 3 }, "geometry": { "type": "Point", "coordinates": [ 38.949253, 45.127365 ] } },
{ "type": "Feature", "properties": { "ID": 1010, "Address": "Пригородная улица, 65", "lat": 45.125845, "long": 38.962773, "square": 75, "rent_price": 60000, "population": 5000.0, "poi_count": 4 }, "geometry": { "type": "Point", "coordinates": [ 38.962773, 45.125845 ] } },
{ "type": "Feature", "properties": { "ID": 1011, "Address": "Большевистская улица, 286/1", "lat": 45.125858, "long": 38.99345, "square": 100, "rent_price": 100000, "population": 7000.0, "poi_count": 11 }, "geometry": { "type": "Point", "coordinates": [ 38.99345, 45.125858 ] } },
{ "type": "Feature", "properties": { "ID": 1012, "Address": "3-я Трудовая улица, 104/2", "lat": 45.125756, "long": 39.004652, "square": 115, "rent_price": 178000, "population": 7000.0, "poi_count": 6 }, "geometry": { "type": "Point", "coordinates": [ 39.004652, 45.125756 ] } },
{ "type": "Feature", "properties": { "ID": 1013, "Address": "улица имени В.М. Комарова, 90", "lat": 45.115866, "long": 39.042022, "square": 70, "rent_price": 63000, "population": 7000.0, "poi_count": 6 }, "geometry": { "type": "Point", "coordinates": [ 39.042022, 45.115866 ] } },
{ "type": "Feature", "properties": { "ID": 1014, "Address": "улица Академика Королёва, 22", "lat": 45.115994, "long": 39.040845, "square": 70, "rent_price": 40000, "population": 7000.0, "poi_count": 2 }, "geometry": { "type": "Point", "coordinates": [ 39.040845, 45.115994 ] } },
{ "type": "Feature", "properties": { "ID": 1015, "Address": "улица Академика Королёва, 26", "lat": 45.116604, "long": 39.041591, "square": 135, "rent_price": 150000, "population": 7000.0, "poi_count": 2 }, "geometry": { "type": "Point", "coordinates": [ 39.041591, 45.116604 ] } },
{ "type": "Feature", "properties": { "ID": 1016, "Address": "Островная улица, 14", "lat": 45.11233, "long": 38.997798, "square": 80, "rent_price": 75000, "population": 38000.0, "poi_count": 3 }, "geometry": { "type": "Point", "coordinates": [ 38.997798, 45.11233 ] } },
{ "type": "Feature", "properties": { "ID": 1017, "Address": "улица Степана Неустроева, 32/8", "lat": 45.107966, "long": 38.990459, "square": 180, "rent_price": 170000, "population": 38000.0, "poi_count": 0 }, "geometry": { "type": "Point", "coordinates": [ 38.990459, 45.107966 ] } },
{ "type": "Feature", "properties": { "ID": 1018, "Address": "улица им. Мурата Ахеджака, 20", "lat": 45.111592, "long": 38.969231, "square": 56, "rent_price": 197400, "population": 26000.0, "poi_count": 0 }, "geometry": { "type": "Point", "coordinates": [ 38.969231, 45.111592 ] } },
{ "type": "Feature", "properties": { "ID": 1019, "Address": "улица им. Мурата Ахеджака, 12к10", "lat": 45.112438, "long": 38.966114, "square": 120, "rent_price": 180000, "population": 26000.0, "poi_count": 2 }, "geometry": { "type": "Point", "coordinates": [ 38.966114, 45.112438 ] } },
{ "type": "Feature", "properties": { "ID": 1020, "Address": "улица Александра Покрышкина, 3", "lat": 45.107686, "long": 38.949262, "square": 46, "rent_price": 140000, "population": 13000.0, "poi_count": 6 }, "geometry": { "type": "Point", "coordinates": [ 38.949262, 45.107686 ] } },
{ "type": "Feature", "properties": { "ID": 1021, "Address": "Средняя улица, 32/17", "lat": 45.114537, "long": 38.937853, "square": 125, "rent_price": 99990, "population": 13000.0, "poi_count": 1 }, "geometry": { "type": "Point", "coordinates": [ 38.937853, 45.114537 ] } },
{ "type": "Feature", "properties": { "ID": 1022, "Address": "Веронская улица, 20", "lat": 45.122837, "long": 38.91924, "square": 96, "rent_price": 100000, "population": 4400.0, "poi_count": 1 }, "geometry": { "type": "Point", "coordinates": [ 38.91924, 45.122837 ] } },
{ "type": "Feature", "properties": { "ID": 1023, "Address": "улица Западный Обход, 29", "lat": 45.080485, "long": 38.893809, "square": 81, "rent_price": 110000, "population": 30000.0, "poi_count": 18 }, "geometry": { "type": "Point", "coordinates": [ 38.893809, 45.080485 ] } },
{ "type": "Feature", "properties": { "ID": 1024, "Address": "улица имени Генерала Корнилова, 9А", "lat": 45.09451, "long": 38.914632, "square": 139, "rent_price": 167500, "population": 26000.0, "poi_count": 1 }, "geometry": { "type": "Point", "coordinates": [ 38.914632, 45.09451 ] } },
{ "type": "Feature", "properties": { "ID": 1025, "Address": "улица имени Генерала Корнилова, 9А", "lat": 45.09451, "long": 38.914632, "square": 125, "rent_price": 152000, "population": 26000.0, "poi_count": 1 }, "geometry": { "type": "Point", "coordinates": [ 38.914632, 45.09451 ] } },
{ "type": "Feature", "properties": { "ID": 1026, "Address": "улица Западный Обход, 48", "lat": 45.09661, "long": 38.912386, "square": 56, "rent_price": 140500, "population": 26000.0, "poi_count": 11 }, "geometry": { "type": "Point", "coordinates": [ 38.912386, 45.09661 ] } },
{ "type": "Feature", "properties": { "ID": 1027, "Address": "улица Западный Обход, 48", "lat": 45.09661, "long": 38.912386, "square": 120, "rent_price": 216900, "population": 26000.0, "poi_count": 11 }, "geometry": { "type": "Point", "coordinates": [ 38.912386, 45.09661 ] } },
{ "type": "Feature", "properties": { "ID": 1028, "Address": "улица Константина Гондаря, 98", "lat": 45.102183, "long": 38.910796, "square": 83, "rent_price": 166000, "population": 26000.0, "poi_count": 8 }, "geometry": { "type": "Point", "coordinates": [ 38.910796, 45.102183 ] } },
{ "type": "Feature", "properties": { "ID": 1029, "Address": "улица Западный Обход, 65/1", "lat": 45.10268, "long": 38.913707, "square": 83, "rent_price": 141000, "population": 26000.0, "poi_count": 5 }, "geometry": { "type": "Point", "coordinates": [ 38.913707, 45.10268 ] } },
{ "type": "Feature", "properties": { "ID": 1030, "Address": "улица имени Генерала Корнилова, 24", "lat": 45.101344, "long": 38.91792, "square": 50, "rent_price": 65000, "population": 26000.0, "poi_count": 5 }, "geometry": { "type": "Point", "coordinates": [ 38.91792, 45.101344 ] } },
{ "type": "Feature", "properties": { "ID": 1031, "Address": "Клеверная улица, 2/4", "lat": 45.103284, "long": 38.917336, "square": 215, "rent_price": 322500, "population": 26000.0, "poi_count": 6 }, "geometry": { "type": "Point", "coordinates": [ 38.917336, 45.103284 ] } },
{ "type": "Feature", "properties": { "ID": 1032, "Address": "Персиковая улица, 208", "lat": 45.101636, "long": 38.941411, "square": 105, "rent_price": 100000, "population": 11000.0, "poi_count": 2 }, "geometry": { "type": "Point", "coordinates": [ 38.941411, 45.101636 ] } },
{ "type": "Feature", "properties": { "ID": 1033, "Address": "Грушевая улица, 365", "lat": 45.101897, "long": 38.940198, "square": 200, "rent_price": 260000, "population": 11000.0, "poi_count": 2 }, "geometry": { "type": "Point", "coordinates": [ 38.940198, 45.101897 ] } },
{ "type": "Feature", "properties": { "ID": 1034, "Address": "садовое товарищество Животновод, 362", "lat": 45.102578, "long": 38.940952, "square": 201, "rent_price": 242000, "population": 11000.0, "poi_count": 3 }, "geometry": { "type": "Point", "coordinates": [ 38.940952, 45.102578 ] } },
{ "type": "Feature", "properties": { "ID": 1035, "Address": "Степная улица, 1", "lat": 45.092277, "long": 39.106198, "square": 68, "rent_price": 65000, "population": 400.0, "poi_count": 0 }, "geometry": { "type": "Point", "coordinates": [ 39.106198, 45.092277 ] } },
{ "type": "Feature", "properties": { "ID": 1036, "Address": "улица Александра Покрышкина, 21", "lat": 45.1031, "long": 38.974028, "square": 73, "rent_price": 182500, "population": 26000.0, "poi_count": 12 }, "geometry": { "type": "Point", "coordinates": [ 38.974028, 45.1031 ] } },
{ "type": "Feature", "properties": { "ID": 1037, "Address": "улица имени Дзержинского, 100", "lat": 45.102209, "long": 38.983892, "square": 30, "rent_price": 120000, "population": 26000.0, "poi_count": 114 }, "geometry": { "type": "Point", "coordinates": [ 38.983892, 45.102209 ] } },
{ "type": "Feature", "properties": { "ID": 1038, "Address": "улица имени Дзержинского, 98/5", "lat": 45.09857, "long": 38.981556, "square": 180, "rent_price": 120000, "population": 9500.0, "poi_count": 40 }, "geometry": { "type": "Point", "coordinates": [ 38.981556, 45.09857 ] } },
{ "type": "Feature", "properties": { "ID": 1039, "Address": "Конечная улица, 4", "lat": 45.041266, "long": 39.122044, "square": 68, "rent_price": 30600, "population": 6500.0, "poi_count": 7 }, "geometry": { "type": "Point", "coordinates": [ 39.122044, 45.041266 ] } },
{ "type": "Feature", "properties": { "ID": 1040, "Address": "улица Грибоедова, 4Ж", "lat": 45.088491, "long": 38.987252, "square": 180, "rent_price": 270000, "population": 9500.0, "poi_count": 9 }, "geometry": { "type": "Point", "coordinates": [ 38.987252, 45.088491 ] } },
{ "type": "Feature", "properties": { "ID": 1041, "Address": "4-й проезд Сафонова, 10", "lat": 45.087562, "long": 38.988015, "square": 151, "rent_price": 211400, "population": 9500.0, "poi_count": 8 }, "geometry": { "type": "Point", "coordinates": [ 38.988015, 45.087562 ] } },
{ "type": "Feature", "properties": { "ID": 1042, "Address": "Московская улица, 158", "lat": 45.091946, "long": 39.002622, "square": 76, "rent_price": 120000, "population": 46000.0, "poi_count": 53 }, "geometry": { "type": "Point", "coordinates": [ 39.002622, 45.091946 ] } },
{ "type": "Feature", "properties": { "ID": 1043, "Address": "улица Петра Метальникова, 17", "lat": 45.094033, "long": 39.012755, "square": 60, "rent_price": 120000, "population": 46000.0, "poi_count": 61 }, "geometry": { "type": "Point", "coordinates": [ 39.012755, 45.094033 ] } },
{ "type": "Feature", "properties": { "ID": 1044, "Address": "улица Петра Метальникова, 17", "lat": 45.098417, "long": 39.01121, "square": 60, "rent_price": 90000, "population": 38000.0, "poi_count": 11 }, "geometry": { "type": "Point", "coordinates": [ 39.01121, 45.098417 ] } },
{ "type": "Feature", "properties": { "ID": 1045, "Address": "улица Петра Метальникова, 2", "lat": 45.094758, "long": 39.013033, "square": 90, "rent_price": 121500, "population": 46000.0, "poi_count": 56 }, "geometry": { "type": "Point", "coordinates": [ 39.013033, 45.094758 ] } },
{ "type": "Feature", "properties": { "ID": 1046, "Address": "Российская улица, 271", "lat": 45.09486, "long": 39.01342, "square": 110, "rent_price": 187000, "population": 46000.0, "poi_count": 57 }, "geometry": { "type": "Point", "coordinates": [ 39.01342, 45.09486 ] } },
{ "type": "Feature", "properties": { "ID": 1047, "Address": "2-я Ямальская улица, 43", "lat": 45.095535, "long": 39.02755, "square": 160, "rent_price": 160000, "population": 26000.0, "poi_count": 0 }, "geometry": { "type": "Point", "coordinates": [ 39.02755, 45.095535 ] } },
{ "type": "Feature", "properties": { "ID": 1048, "Address": "улица Лётчика Позднякова, 2/22", "lat": 45.102317, "long": 39.060276, "square": 44, "rent_price": 53000, "population": 11000.0, "poi_count": 4 }, "geometry": { "type": "Point", "coordinates": [ 39.060276, 45.102317 ] } },
{ "type": "Feature", "properties": { "ID": 1049, "Address": "Железнодорожная улица, 17", "lat": 45.109296, "long": 39.141977, "square": 60, "rent_price": 90000, "population": 0.0, "poi_count": 0 }, "geometry": { "type": "Point", "coordinates": [ 39.141977, 45.109296 ] } },
{ "type": "Feature", "properties": { "ID": 1050, "Address": "улица 1 Мая, 395", "lat": 45.087269, "long": 39.019744, "square": 70, "rent_price": 56000, "population": 46000.0, "poi_count": 26 }, "geometry": { "type": "Point", "coordinates": [ 39.019744, 45.087269 ] } },
{ "type": "Feature", "properties": { "ID": 1051, "Address": "улица 1 Мая, 393", "lat": 45.087135, "long": 39.019708, "square": 140, "rent_price": 112000, "population": 46000.0, "poi_count": 26 }, "geometry": { "type": "Point", "coordinates": [ 39.019708, 45.087135 ] } },
{ "type": "Feature", "properties": { "ID": 1052, "Address": "Сергиевская улица, 64", "lat": 45.088026, "long": 39.022259, "square": 80, "rent_price": 160000, "population": 46000.0, "poi_count": 17 }, "geometry": { "type": "Point", "coordinates": [ 39.022259, 45.088026 ] } },
{ "type": "Feature", "properties": { "ID": 1053, "Address": "Батуринская улица, 39", "lat": 45.082655, "long": 39.033847, "square": 105, "rent_price": 157000, "population": 45000.0, "poi_count": 5 }, "geometry": { "type": "Point", "coordinates": [ 39.033847, 45.082655 ] } },
{ "type": "Feature", "properties": { "ID": 1054, "Address": "Батуринская улица, 75", "lat": 45.08648, "long": 39.033955, "square": 73, "rent_price": 50000, "population": 45000.0, "poi_count": 20 }, "geometry": { "type": "Point", "coordinates": [ 39.033955, 45.08648 ] } },
{ "type": "Feature", "properties": { "ID": 1055, "Address": "Уссурийская улица, 17", "lat": 45.075419, "long": 39.020552, "square": 135, "rent_price": 175000, "population": 85000.0, "poi_count": 9 }, "geometry": { "type": "Point", "coordinates": [ 39.020552, 45.075419 ] } },
{ "type": "Feature", "properties": { "ID": 1056, "Address": "улица 1 Мая, 307", "lat": 45.077188, "long": 39.020444, "square": 210, "rent_price": 315000, "population": 46000.0, "poi_count": 8 }, "geometry": { "type": "Point", "coordinates": [ 39.020444, 45.077188 ] } },
{ "type": "Feature", "properties": { "ID": 1057, "Address": "Российская улица, 352", "lat": 45.077793, "long": 39.015567, "square": 80, "rent_price": 104000, "population": 46000.0, "poi_count": 21 }, "geometry": { "type": "Point", "coordinates": [ 39.015567, 45.077793 ] } },
{ "type": "Feature", "properties": { "ID": 1058, "Address": "Российская улица, 129/1", "lat": 45.075947, "long": 39.015117, "square": 67, "rent_price": 85300, "population": 46000.0, "poi_count": 22 }, "geometry": { "type": "Point", "coordinates": [ 39.015117, 45.075947 ] } },
{ "type": "Feature", "properties": { "ID": 1059, "Address": "Черкасская улица, 26", "lat": 45.065087, "long": 39.019941, "square": 60, "rent_price": 50000, "population": 85000.0, "poi_count": 36 }, "geometry": { "type": "Point", "coordinates": [ 39.019941, 45.065087 ] } },
{ "type": "Feature", "properties": { "ID": 1060, "Address": "Памирская улица, 1", "lat": 45.068646, "long": 39.016294, "square": 65, "rent_price": 91000, "population": 85000.0, "poi_count": 15 }, "geometry": { "type": "Point", "coordinates": [ 39.016294, 45.068646 ] } },
{ "type": "Feature", "properties": { "ID": 1061, "Address": "улица имени Сергея Есенина, 2/4", "lat": 45.07279, "long": 39.009099, "square": 117, "rent_price": 117000, "population": 25000.0, "poi_count": 90 }, "geometry": { "type": "Point", "coordinates": [ 39.009099, 45.07279 ] } },
{ "type": "Feature", "properties": { "ID": 1062, "Address": "Солнечная улица, 4Б", "lat": 45.071548, "long": 38.989686, "square": 50, "rent_price": 30000, "population": 25000.0, "poi_count": 16 }, "geometry": { "type": "Point", "coordinates": [ 38.989686, 45.071548 ] } },
{ "type": "Feature", "properties": { "ID": 1063, "Address": "улица Шоссе Нефтяников, 42", "lat": 45.07144, "long": 38.984, "square": 46, "rent_price": 100000, "population": 25000.0, "poi_count": 38 }, "geometry": { "type": "Point", "coordinates": [ 38.984, 45.07144 ] } },
{ "type": "Feature", "properties": { "ID": 1064, "Address": "улица Красных Партизан, 2/3", "lat": 45.070976, "long": 38.901642, "square": 90, "rent_price": 103500, "population": 30000.0, "poi_count": 5 }, "geometry": { "type": "Point", "coordinates": [ 38.901642, 45.070976 ] } },
{ "type": "Feature", "properties": { "ID": 1065, "Address": "улица Красных Партизан, 2/4", "lat": 45.070053, "long": 38.903699, "square": 250, "rent_price": 100000, "population": 13000.0, "poi_count": 7 }, "geometry": { "type": "Point", "coordinates": [ 38.903699, 45.070053 ] } },
{ "type": "Feature", "properties": { "ID": 1066, "Address": "улица Красных Партизан, 2/4", "lat": 45.065883, "long": 38.898399, "square": 125, "rent_price": 143750, "population": 13000.0, "poi_count": 0 }, "geometry": { "type": "Point", "coordinates": [ 38.898399, 45.065883 ] } },
{ "type": "Feature", "properties": { "ID": 1067, "Address": "улица Красных Партизан, 129", "lat": 45.063107, "long": 38.919977, "square": 68, "rent_price": 70000, "population": 13000.0, "poi_count": 36 }, "geometry": { "type": "Point", "coordinates": [ 38.919977, 45.063107 ] } },
{ "type": "Feature", "properties": { "ID": 1068, "Address": "Клубная улица, 12А", "lat": 45.06249, "long": 38.979077, "square": 82, "rent_price": 123000, "population": 25000.0, "poi_count": 22 }, "geometry": { "type": "Point", "coordinates": [ 38.979077, 45.06249 ] } },
{ "type": "Feature", "properties": { "ID": 1069, "Address": "улица Шоссе Нефтяников, 11", "lat": 45.058345, "long": 38.981395, "square": 85, "rent_price": 150000, "population": 39000.0, "poi_count": 148 }, "geometry": { "type": "Point", "coordinates": [ 38.981395, 45.058345 ] } },
{ "type": "Feature", "properties": { "ID": 1070, "Address": "улица Монтажников, 2", "lat": 45.058441, "long": 38.962494, "square": 202, "rent_price": 300000, "population": 39000.0, "poi_count": 105 }, "geometry": { "type": "Point", "coordinates": [ 38.962494, 45.058441 ] } },
{ "type": "Feature", "properties": { "ID": 1071, "Address": "улица имени Тургенева, 136", "lat": 45.057912, "long": 38.962413, "square": 170, "rent_price": 255000, "population": 39000.0, "poi_count": 97 }, "geometry": { "type": "Point", "coordinates": [ 38.962413, 45.057912 ] } },
{ "type": "Feature", "properties": { "ID": 1072, "Address": "Алма-Атинская улица, 85", "lat": 45.040114, "long": 38.922654, "square": 120, "rent_price": 156000, "population": 31000.0, "poi_count": 19 }, "geometry": { "type": "Point", "coordinates": [ 38.922654, 45.040114 ] } },
{ "type": "Feature", "properties": { "ID": 1073, "Address": "улица Академика Трубилина, 120", "lat": 45.050475, "long": 38.932427, "square": 200, "rent_price": 260000, "population": 21000.0, "poi_count": 9 }, "geometry": { "type": "Point", "coordinates": [ 38.932427, 45.050475 ] } },
{ "type": "Feature", "properties": { "ID": 1074, "Address": "улица Каляева, 213/1", "lat": 45.051831, "long": 38.93903, "square": 102, "rent_price": 122880, "population": 21000.0, "poi_count": 17 }, "geometry": { "type": "Point", "coordinates": [ 38.93903, 45.051831 ] } },
{ "type": "Feature", "properties": { "ID": 1075, "Address": "улица Герцена, 30", "lat": 45.042203, "long": 38.941006, "square": 53, "rent_price": 150000, "population": 12000.0, "poi_count": 6 }, "geometry": { "type": "Point", "coordinates": [ 38.941006, 45.042203 ] } },
{ "type": "Feature", "properties": { "ID": 1076, "Address": "улица имени Калинина, 290", "lat": 45.041617, "long": 38.944645, "square": 40, "rent_price": 80000, "population": 12000.0, "poi_count": 10 }, "geometry": { "type": "Point", "coordinates": [ 38.944645, 45.041617 ] } },
{ "type": "Feature", "properties": { "ID": 1077, "Address": "улица Кропоткина, 50", "lat": 45.043069, "long": 38.948696, "square": 53, "rent_price": 50000, "population": 12000.0, "poi_count": 26 }, "geometry": { "type": "Point", "coordinates": [ 38.948696, 45.043069 ] } },
{ "type": "Feature", "properties": { "ID": 1078, "Address": "Северная улица, 207/1", "lat": 45.043954, "long": 38.953053, "square": 60, "rent_price": 120000, "population": 12000.0, "poi_count": 19 }, "geometry": { "type": "Point", "coordinates": [ 38.953053, 45.043954 ] } },
{ "type": "Feature", "properties": { "ID": 1079, "Address": "улица Рылеева, 175", "lat": 45.048049, "long": 38.95714, "square": 50, "rent_price": 70000, "population": 39000.0, "poi_count": 21 }, "geometry": { "type": "Point", "coordinates": [ 38.95714, 45.048049 ] } },
{ "type": "Feature", "properties": { "ID": 1080, "Address": "улица Красных Партизан, 108", "lat": 45.051647, "long": 38.952289, "square": 100, "rent_price": 110000, "population": 21000.0, "poi_count": 32 }, "geometry": { "type": "Point", "coordinates": [ 38.952289, 45.051647 ] } },
{ "type": "Feature", "properties": { "ID": 1081, "Address": "улица Гагарина, 75/4", "lat": 45.054448, "long": 38.951831, "square": 30, "rent_price": 70000, "population": 21000.0, "poi_count": 35 }, "geometry": { "type": "Point", "coordinates": [ 38.951831, 45.054448 ] } },
{ "type": "Feature", "properties": { "ID": 1082, "Address": "улица Бабушкина, 233", "lat": 45.048915, "long": 38.962126, "square": 129, "rent_price": 150000, "population": 39000.0, "poi_count": 47 }, "geometry": { "type": "Point", "coordinates": [ 38.962126, 45.048915 ] } },
{ "type": "Feature", "properties": { "ID": 1083, "Address": "улица Атарбекова, 35", "lat": 45.060204, "long": 38.956736, "square": 145, "rent_price": 217500, "population": 21000.0, "poi_count": 84 }, "geometry": { "type": "Point", "coordinates": [ 38.956736, 45.060204 ] } },
{ "type": "Feature", "properties": { "ID": 1084, "Address": "улица имени Тургенева, 136", "lat": 45.057912, "long": 38.962413, "square": 170, "rent_price": 255000, "population": 39000.0, "poi_count": 97 }, "geometry": { "type": "Point", "coordinates": [ 38.962413, 45.057912 ] } },
{ "type": "Feature", "properties": { "ID": 1085, "Address": "улица Монтажников, 2", "lat": 45.058441, "long": 38.962494, "square": 202, "rent_price": 300000, "population": 39000.0, "poi_count": 105 }, "geometry": { "type": "Point", "coordinates": [ 38.962494, 45.058441 ] } },
{ "type": "Feature", "properties": { "ID": 1086, "Address": "улица имени Тургенева, 164", "lat": 45.06904, "long": 38.96774, "square": 45, "rent_price": 60000, "population": 48000.0, "poi_count": 60 }, "geometry": { "type": "Point", "coordinates": [ 38.96774, 45.06904 ] } },
{ "type": "Feature", "properties": { "ID": 1087, "Address": "улица Фёдора Лузана, 6", "lat": 45.068773, "long": 38.97702, "square": 230, "rent_price": 276360, "population": 25000.0, "poi_count": 57 }, "geometry": { "type": "Point", "coordinates": [ 38.97702, 45.068773 ] } },
{ "type": "Feature", "properties": { "ID": 1088, "Address": "улица Шоссе Нефтяников, 42", "lat": 45.07144, "long": 38.984, "square": 46, "rent_price": 100000, "population": 25000.0, "poi_count": 38 }, "geometry": { "type": "Point", "coordinates": [ 38.984, 45.07144 ] } },
{ "type": "Feature", "properties": { "ID": 1089, "Address": "Солнечная улица, 4Б", "lat": 45.071548, "long": 38.989686, "square": 50, "rent_price": 30000, "population": 25000.0, "poi_count": 16 }, "geometry": { "type": "Point", "coordinates": [ 38.989686, 45.071548 ] } },
{ "type": "Feature", "properties": { "ID": 1090, "Address": "улица Генерал-лейтенанта Александра Сапрунова, 35", "lat": 45.0692, "long": 39.06969, "square": 70, "rent_price": 140000, "population": 6500.0, "poi_count": 4 }, "geometry": { "type": "Point", "coordinates": [ 39.06969, 45.0692 ] } },
{ "type": "Feature", "properties": { "ID": 1091, "Address": "Красная улица, 155", "lat": 45.049615, "long": 38.978709, "square": 30, "rent_price": 95000, "population": 39000.0, "poi_count": 136 }, "geometry": { "type": "Point", "coordinates": [ 38.978709, 45.049615 ] } },
{ "type": "Feature", "properties": { "ID": 1092, "Address": "Красная улица, 149", "lat": 45.048348, "long": 38.978197, "square": 58, "rent_price": 150000, "population": 39000.0, "poi_count": 177 }, "geometry": { "type": "Point", "coordinates": [ 38.978197, 45.048348 ] } },
{ "type": "Feature", "properties": { "ID": 1093, "Address": "улица имени Дзержинского, 18", "lat": 45.059625, "long": 38.978125, "square": 62, "rent_price": 80000, "population": 39000.0, "poi_count": 75 }, "geometry": { "type": "Point", "coordinates": [ 38.978125, 45.059625 ] } },
{ "type": "Feature", "properties": { "ID": 1094, "Address": "улица Коммунаров, 254", "lat": 45.043355, "long": 38.9817, "square": 64, "rent_price": 90500, "population": 39000.0, "poi_count": 97 }, "geometry": { "type": "Point", "coordinates": [ 38.9817, 45.043355 ] } },
{ "type": "Feature", "properties": { "ID": 1095, "Address": "улица Коммунаров, 258", "lat": 45.043693, "long": 38.981727, "square": 132, "rent_price": 151800, "population": 39000.0, "poi_count": 119 }, "geometry": { "type": "Point", "coordinates": [ 38.981727, 45.043693 ] } },
{ "type": "Feature", "properties": { "ID": 1096, "Address": "улица Коммунаров, 266Л", "lat": 45.045361, "long": 38.983416, "square": 108, "rent_price": 140000, "population": 39000.0, "poi_count": 117 }, "geometry": { "type": "Point", "coordinates": [ 38.983416, 45.045361 ] } },
{ "type": "Feature", "properties": { "ID": 1097, "Address": "Одесская улица, 48/3", "lat": 45.045374, "long": 38.987458, "square": 80, "rent_price": 64000, "population": 25000.0, "poi_count": 13 }, "geometry": { "type": "Point", "coordinates": [ 38.987458, 45.045374 ] } },
{ "type": "Feature", "properties": { "ID": 1098, "Address": "улица Володи Головатого, 289", "lat": 45.040426, "long": 38.965189, "square": 65, "rent_price": 80000, "population": 12000.0, "poi_count": 31 }, "geometry": { "type": "Point", "coordinates": [ 38.965189, 45.040426 ] } },
{ "type": "Feature", "properties": { "ID": 1099, "Address": "улица Володи Головатого, 291А", "lat": 45.040368, "long": 38.965602, "square": 80, "rent_price": 45000, "population": 12000.0, "poi_count": 36 }, "geometry": { "type": "Point", "coordinates": [ 38.965602, 45.040368 ] } },
{ "type": "Feature", "properties": { "ID": 1100, "Address": "Северная улица, 324В", "lat": 45.040419, "long": 38.970642, "square": 60, "rent_price": 60000, "population": 39000.0, "poi_count": 123 }, "geometry": { "type": "Point", "coordinates": [ 38.970642, 45.040419 ] } },
{ "type": "Feature", "properties": { "ID": 1101, "Address": "Октябрьская улица, 179", "lat": 45.0384, "long": 38.970354, "square": 58, "rent_price": 199999, "population": 21000.0, "poi_count": 140 }, "geometry": { "type": "Point", "coordinates": [ 38.970354, 45.0384 ] } },
{ "type": "Feature", "properties": { "ID": 1102, "Address": "улица Кирова, 139", "lat": 45.03784, "long": 38.96801, "square": 50, "rent_price": 88750, "population": 21000.0, "poi_count": 79 }, "geometry": { "type": "Point", "coordinates": [ 38.96801, 45.03784 ] } },
{ "type": "Feature", "properties": { "ID": 1103, "Address": "Северная улица, 378", "lat": 45.039126, "long": 38.981547, "square": 84, "rent_price": 168000, "population": 21000.0, "poi_count": 50 }, "geometry": { "type": "Point", "coordinates": [ 38.981547, 45.039126 ] } },
{ "type": "Feature", "properties": { "ID": 1104, "Address": "улица Янковского, 170", "lat": 45.038521, "long": 38.984521, "square": 136, "rent_price": 109000, "population": 21000.0, "poi_count": 38 }, "geometry": { "type": "Point", "coordinates": [ 38.984521, 45.038521 ] } },
{ "type": "Feature", "properties": { "ID": 1105, "Address": "улица Будённого, 129", "lat": 45.03705, "long": 38.972043, "square": 198, "rent_price": 198300, "population": 21000.0, "poi_count": 156 }, "geometry": { "type": "Point", "coordinates": [ 38.972043, 45.03705 ] } },
{ "type": "Feature", "properties": { "ID": 1106, "Address": "улица Кубанская Набережная, 192", "lat": 45.031413, "long": 38.959467, "square": 56, "rent_price": 123860, "population": 12000.0, "poi_count": 14 }, "geometry": { "type": "Point", "coordinates": [ 38.959467, 45.031413 ] } },
{ "type": "Feature", "properties": { "ID": 1107, "Address": "улица Кирова, 77", "lat": 45.03084, "long": 38.965683, "square": 39, "rent_price": 60000, "population": 12000.0, "poi_count": 36 }, "geometry": { "type": "Point", "coordinates": [ 38.965683, 45.03084 ] } },
{ "type": "Feature", "properties": { "ID": 1108, "Address": "Октябрьская улица, 97", "lat": 45.02782, "long": 38.96686, "square": 115, "rent_price": 230000, "population": 21000.0, "poi_count": 109 }, "geometry": { "type": "Point", "coordinates": [ 38.96686, 45.02782 ] } },
{ "type": "Feature", "properties": { "ID": 1109, "Address": "Гимназическая улица, 53", "lat": 45.026164, "long": 38.967453, "square": 120, "rent_price": 99000, "population": 21000.0, "poi_count": 138 }, "geometry": { "type": "Point", "coordinates": [ 38.967453, 45.026164 ] } },
{ "type": "Feature", "properties": { "ID": 1110, "Address": "Карасунская улица, 82/2", "lat": 45.028056, "long": 38.972843, "square": 72, "rent_price": 72000, "population": 21000.0, "poi_count": 368 }, "geometry": { "type": "Point", "coordinates": [ 38.972843, 45.028056 ] } },
{ "type": "Feature", "properties": { "ID": 1111, "Address": "Красноармейская улица, 62", "lat": 45.027183, "long": 38.974576, "square": 70, "rent_price": 60000, "population": 21000.0, "poi_count": 289 }, "geometry": { "type": "Point", "coordinates": [ 38.974576, 45.027183 ] } },
{ "type": "Feature", "properties": { "ID": 1112, "Address": "улица Горького, 104", "lat": 45.031005, "long": 38.974199, "square": 32, "rent_price": 25000, "population": 21000.0, "poi_count": 223 }, "geometry": { "type": "Point", "coordinates": [ 38.974199, 45.031005 ] } },
{ "type": "Feature", "properties": { "ID": 1113, "Address": "улица Горького, 104", "lat": 45.031005, "long": 38.974199, "square": 90, "rent_price": 135000, "population": 21000.0, "poi_count": 223 }, "geometry": { "type": "Point", "coordinates": [ 38.974199, 45.031005 ] } },
{ "type": "Feature", "properties": { "ID": 1114, "Address": "Красноармейская улица, 80", "lat": 45.031668, "long": 38.975529, "square": 80, "rent_price": 150000, "population": 21000.0, "poi_count": 121 }, "geometry": { "type": "Point", "coordinates": [ 38.975529, 45.031668 ] } },
{ "type": "Feature", "properties": { "ID": 1115, "Address": "Красная улица, 104", "lat": 45.0324, "long": 38.9734, "square": 40, "rent_price": 60000, "population": 21000.0, "poi_count": 142 }, "geometry": { "type": "Point", "coordinates": [ 38.9734, 45.0324 ] } },
{ "type": "Feature", "properties": { "ID": 1116, "Address": "улица Кубанская Набережная, 5", "lat": 45.017977, "long": 38.958029, "square": 25, "rent_price": 50000, "population": 20000.0, "poi_count": 41 }, "geometry": { "type": "Point", "coordinates": [ 38.958029, 45.017977 ] } },
{ "type": "Feature", "properties": { "ID": 1117, "Address": "Береговая улица, 146с18", "lat": 45.022405, "long": 38.955164, "square": 30, "rent_price": 50000, "population": 20000.0, "poi_count": 30 }, "geometry": { "type": "Point", "coordinates": [ 38.955164, 45.022405 ] } },
{ "type": "Feature", "properties": { "ID": 1118, "Address": "улица Тургеневское шоссе, 13/1", "lat": 45.025234, "long": 38.942354, "square": 93, "rent_price": 65100, "population": 0.0, "poi_count": 0 }, "geometry": { "type": "Point", "coordinates": [ 38.942354, 45.025234 ] } },
{ "type": "Feature", "properties": { "ID": 1119, "Address": "улица Тургеневское шоссе, 8", "lat": 45.024004, "long": 38.943046, "square": 91, "rent_price": 40950, "population": 0.0, "poi_count": 0 }, "geometry": { "type": "Point", "coordinates": [ 38.943046, 45.024004 ] } },
{ "type": "Feature", "properties": { "ID": 1120, "Address": "улица Тургеневское шоссе, 8А", "lat": 45.023654, "long": 38.943728, "square": 62, "rent_price": 62000, "population": 0.0, "poi_count": 0 }, "geometry": { "type": "Point", "coordinates": [ 38.943728, 45.023654 ] } },
{ "type": "Feature", "properties": { "ID": 1121, "Address": "улица Тургеневское шоссе, 19", "lat": 45.021698, "long": 38.939093, "square": 100, "rent_price": 145000, "population": 0.0, "poi_count": 0 }, "geometry": { "type": "Point", "coordinates": [ 38.939093, 45.021698 ] } },
{ "type": "Feature", "properties": { "ID": 1122, "Address": "улица Тургеневское шоссе, 8", "lat": 45.024004, "long": 38.943046, "square": 62, "rent_price": 62000, "population": 0.0, "poi_count": 0 }, "geometry": { "type": "Point", "coordinates": [ 38.943046, 45.024004 ] } },
{ "type": "Feature", "properties": { "ID": 1123, "Address": "улица Тургеневское шоссе, 8", "lat": 45.024004, "long": 38.943046, "square": 91, "rent_price": 40950, "population": 0.0, "poi_count": 0 }, "geometry": { "type": "Point", "coordinates": [ 38.943046, 45.024004 ] } },
{ "type": "Feature", "properties": { "ID": 1124, "Address": "улица Тургеневское шоссе, 13/1", "lat": 45.025234, "long": 38.942354, "square": 93, "rent_price": 65100, "population": 0.0, "poi_count": 0 }, "geometry": { "type": "Point", "coordinates": [ 38.942354, 45.025234 ] } },
{ "type": "Feature", "properties": { "ID": 1125, "Address": "улица Тургеневское шоссе, 33с1", "lat": 45.002958, "long": 38.92816, "square": 34, "rent_price": 51000, "population": 800.0, "poi_count": 0 }, "geometry": { "type": "Point", "coordinates": [ 38.92816, 45.002958 ] } },
{ "type": "Feature", "properties": { "ID": 1126, "Address": "улица Тургеневское шоссе, 33с6", "lat": 45.001211, "long": 38.927568, "square": 34, "rent_price": 34000, "population": 800.0, "poi_count": 0 }, "geometry": { "type": "Point", "coordinates": [ 38.927568, 45.001211 ] } },
{ "type": "Feature", "properties": { "ID": 1127, "Address": "Шоссейная улица, 73", "lat": 44.999452, "long": 38.935266, "square": 136, "rent_price": 47600, "population": 800.0, "poi_count": 0 }, "geometry": { "type": "Point", "coordinates": [ 38.935266, 44.999452 ] } },
{ "type": "Feature", "properties": { "ID": 1128, "Address": "Шоссейная улица, 71/1", "lat": 44.997222, "long": 38.936632, "square": 100, "rent_price": 80000, "population": 800.0, "poi_count": 0 }, "geometry": { "type": "Point", "coordinates": [ 38.936632, 44.997222 ] } },
{ "type": "Feature", "properties": { "ID": 1129, "Address": "Сквозная улица, 25", "lat": 44.98476, "long": 38.946558, "square": 91, "rent_price": 42000, "population": 0.0, "poi_count": 0 }, "geometry": { "type": "Point", "coordinates": [ 38.946558, 44.98476 ] } },
{ "type": "Feature", "properties": { "ID": 1130, "Address": "Луговая улица, 1", "lat": 44.980443, "long": 38.930218, "square": 85, "rent_price": 40000, "population": 0.0, "poi_count": 0 }, "geometry": { "type": "Point", "coordinates": [ 38.930218, 44.980443 ] } },
{ "type": "Feature", "properties": { "ID": 1131, "Address": "улица Тургеневское Шоссе, 2В", "lat": 44.984562, "long": 38.922672, "square": 106, "rent_price": 63600, "population": 0.0, "poi_count": 0 }, "geometry": { "type": "Point", "coordinates": [ 38.922672, 44.984562 ] } },
{ "type": "Feature", "properties": { "ID": 1132, "Address": "улица Тургеневское Шоссе, 2/2", "lat": 45.026584, "long": 38.945318, "square": 90, "rent_price": 58500, "population": 12000.0, "poi_count": 0 }, "geometry": { "type": "Point", "coordinates": [ 38.945318, 45.026584 ] } },
{ "type": "Feature", "properties": { "ID": 1133, "Address": "улица Тургеневское Шоссе, 2/2", "lat": 45.026877, "long": 38.945498, "square": 106, "rent_price": 68900, "population": 12000.0, "poi_count": 0 }, "geometry": { "type": "Point", "coordinates": [ 38.945498, 45.026877 ] } },
{ "type": "Feature", "properties": { "ID": 1134, "Address": "Сквозная улица, 25", "lat": 45.024246, "long": 38.938195, "square": 91, "rent_price": 42000, "population": 0.0, "poi_count": 0 }, "geometry": { "type": "Point", "coordinates": [ 38.938195, 45.024246 ] } },
{ "type": "Feature", "properties": { "ID": 1135, "Address": "Нефтеперегонная улица, 30", "lat": 44.990134, "long": 38.965153, "square": 25, "rent_price": 22000, "population": 50.0, "poi_count": 0 }, "geometry": { "type": "Point", "coordinates": [ 38.965153, 44.990134 ] } },
{ "type": "Feature", "properties": { "ID": 1136, "Address": "Восточная улица, 39/1", "lat": 44.987966, "long": 38.963365, "square": 140, "rent_price": 140000, "population": 50.0, "poi_count": 0 }, "geometry": { "type": "Point", "coordinates": [ 38.963365, 44.987966 ] } },
{ "type": "Feature", "properties": { "ID": 1137, "Address": "Товарная улица, 7", "lat": 45.017729, "long": 38.982104, "square": 46, "rent_price": 23000, "population": 7500.0, "poi_count": 23 }, "geometry": { "type": "Point", "coordinates": [ 38.982104, 45.017729 ] } },
{ "type": "Feature", "properties": { "ID": 1138, "Address": "улица Вишняковой, 1/12", "lat": 45.00956, "long": 38.991429, "square": 188, "rent_price": 65800, "population": 7500.0, "poi_count": 2 }, "geometry": { "type": "Point", "coordinates": [ 38.991429, 45.00956 ] } },
{ "type": "Feature", "properties": { "ID": 1139, "Address": "улица Вишняковой, 2А", "lat": 45.013096, "long": 38.996352, "square": 137, "rent_price": 100000, "population": 7500.0, "poi_count": 21 }, "geometry": { "type": "Point", "coordinates": [ 38.996352, 45.013096 ] } },
{ "type": "Feature", "properties": { "ID": 1140, "Address": "Новороссийская улица, 2А", "lat": 45.022666, "long": 39.000601, "square": 36, "rent_price": 40000, "population": 25000.0, "poi_count": 42 }, "geometry": { "type": "Point", "coordinates": [ 39.000601, 45.022666 ] } },
{ "type": "Feature", "properties": { "ID": 1141, "Address": "Озёрная улица, 17", "lat": 45.022354, "long": 39.003269, "square": 52, "rent_price": 50000, "population": 25000.0, "poi_count": 41 }, "geometry": { "type": "Point", "coordinates": [ 39.003269, 45.022354 ] } },
{ "type": "Feature", "properties": { "ID": 1142, "Address": "Озёрная улица, 25", "lat": 45.022297, "long": 39.005784, "square": 120, "rent_price": 100000, "population": 25000.0, "poi_count": 43 }, "geometry": { "type": "Point", "coordinates": [ 39.005784, 45.022297 ] } },
{ "type": "Feature", "properties": { "ID": 1143, "Address": "Озёрная улица, 15/3", "lat": 45.023647, "long": 39.005254, "square": 80, "rent_price": 75000, "population": 25000.0, "poi_count": 27 }, "geometry": { "type": "Point", "coordinates": [ 39.005254, 45.023647 ] } },
{ "type": "Feature", "properties": { "ID": 1144, "Address": "Ставропольская улица, 105", "lat": 45.02166, "long": 39.016582, "square": 73, "rent_price": 155000, "population": 25000.0, "poi_count": 60 }, "geometry": { "type": "Point", "coordinates": [ 39.016582, 45.02166 ] } },
{ "type": "Feature", "properties": { "ID": 1145, "Address": "Ставропольская улица, 204", "lat": 45.02101, "long": 39.015234, "square": 85, "rent_price": 85000, "population": 25000.0, "poi_count": 58 }, "geometry": { "type": "Point", "coordinates": [ 39.015234, 45.02101 ] } },
{ "type": "Feature", "properties": { "ID": 1146, "Address": "Ставропольская улица, 210", "lat": 45.021048, "long": 39.016447, "square": 80, "rent_price": 64000, "population": 25000.0, "poi_count": 57 }, "geometry": { "type": "Point", "coordinates": [ 39.016447, 45.021048 ] } },
{ "type": "Feature", "properties": { "ID": 1147, "Address": "Ставропольская улица, 212/1", "lat": 45.021086, "long": 39.016842, "square": 50, "rent_price": 100000, "population": 25000.0, "poi_count": 57 }, "geometry": { "type": "Point", "coordinates": [ 39.016842, 45.021086 ] } },
{ "type": "Feature", "properties": { "ID": 1148, "Address": "Ставропольская улица, 212/5", "lat": 45.021137, "long": 39.017929, "square": 80, "rent_price": 64000, "population": 25000.0, "poi_count": 55 }, "geometry": { "type": "Point", "coordinates": [ 39.017929, 45.021137 ] } },
{ "type": "Feature", "properties": { "ID": 1149, "Address": "улица Шевченко, 61", "lat": 45.016639, "long": 39.010231, "square": 75, "rent_price": 20000, "population": 25000.0, "poi_count": 2 }, "geometry": { "type": "Point", "coordinates": [ 39.010231, 45.016639 ] } },
{ "type": "Feature", "properties": { "ID": 1150, "Address": "Воронежская улица, 24", "lat": 45.008993, "long": 39.014129, "square": 198, "rent_price": 158400, "population": 16000.0, "poi_count": 7 }, "geometry": { "type": "Point", "coordinates": [ 39.014129, 45.008993 ] } },
{ "type": "Feature", "properties": { "ID": 1151, "Address": "улица Болотникова, 24/2", "lat": 45.008101, "long": 39.018738, "square": 81, "rent_price": 81000, "population": 16000.0, "poi_count": 4 }, "geometry": { "type": "Point", "coordinates": [ 39.018738, 45.008101 ] } },
{ "type": "Feature", "properties": { "ID": 1152, "Address": "Обрывная улица, 133/2", "lat": 44.995526, "long": 39.024873, "square": 90, "rent_price": 45000, "population": 16000.0, "poi_count": 1 }, "geometry": { "type": "Point", "coordinates": [ 39.024873, 44.995526 ] } },
{ "type": "Feature", "properties": { "ID": 1153, "Address": "Ставропольская улица, 226", "lat": 45.018487, "long": 39.031161, "square": 115, "rent_price": 280000, "population": 37000.0, "poi_count": 81 }, "geometry": { "type": "Point", "coordinates": [ 39.031161, 45.018487 ] } },
{ "type": "Feature", "properties": { "ID": 1154, "Address": "Ставропольская улица, 151", "lat": 45.018678, "long": 39.034117, "square": 102, "rent_price": 163360, "population": 37000.0, "poi_count": 57 }, "geometry": { "type": "Point", "coordinates": [ 39.034117, 45.018678 ] } },
{ "type": "Feature", "properties": { "ID": 1155, "Address": "улица Володарского, 91", "lat": 45.038419, "long": 39.006449, "square": 70, "rent_price": 50000, "population": 25000.0, "poi_count": 10 }, "geometry": { "type": "Point", "coordinates": [ 39.006449, 45.038419 ] } },
{ "type": "Feature", "properties": { "ID": 1156, "Address": "Передовая улица, 36", "lat": 45.034069, "long": 39.012611, "square": 50, "rent_price": 50000, "population": 25000.0, "poi_count": 26 }, "geometry": { "type": "Point", "coordinates": [ 39.012611, 45.034069 ] } },
{ "type": "Feature", "properties": { "ID": 1157, "Address": "Новороссийская улица, 3/6", "lat": 45.031177, "long": 39.020768, "square": 105, "rent_price": 80000, "population": 25000.0, "poi_count": 12 }, "geometry": { "type": "Point", "coordinates": [ 39.020768, 45.031177 ] } },
{ "type": "Feature", "properties": { "ID": 1158, "Address": "Новороссийская улица, 3/4", "lat": 45.031515, "long": 39.021621, "square": 140, "rent_price": 126000, "population": 25000.0, "poi_count": 8 }, "geometry": { "type": "Point", "coordinates": [ 39.021621, 45.031515 ] } },
{ "type": "Feature", "properties": { "ID": 1159, "Address": "Новороссийская улица, 172", "lat": 45.031559, "long": 39.023427, "square": 106, "rent_price": 92900, "population": 25000.0, "poi_count": 12 }, "geometry": { "type": "Point", "coordinates": [ 39.023427, 45.031559 ] } },
{ "type": "Feature", "properties": { "ID": 1160, "Address": "улица Шишкина, 13", "lat": 45.029757, "long": 39.02349, "square": 50, "rent_price": 33500, "population": 25000.0, "poi_count": 18 }, "geometry": { "type": "Point", "coordinates": [ 39.02349, 45.029757 ] } },
{ "type": "Feature", "properties": { "ID": 1161, "Address": "Новороссийская улица, 7Б", "lat": 45.033088, "long": 39.025331, "square": 100, "rent_price": 70000, "population": 25000.0, "poi_count": 10 }, "geometry": { "type": "Point", "coordinates": [ 39.025331, 45.033088 ] } },
{ "type": "Feature", "properties": { "ID": 1162, "Address": "Новороссийская улица, 7Б", "lat": 45.033088, "long": 39.025331, "square": 220, "rent_price": 220000, "population": 25000.0, "poi_count": 10 }, "geometry": { "type": "Point", "coordinates": [ 39.025331, 45.033088 ] } },
{ "type": "Feature", "properties": { "ID": 1163, "Address": "Уральская улица, 6", "lat": 45.030292, "long": 39.028969, "square": 175, "rent_price": 262500, "population": 25000.0, "poi_count": 23 }, "geometry": { "type": "Point", "coordinates": [ 39.028969, 45.030292 ] } },
{ "type": "Feature", "properties": { "ID": 1164, "Address": "Уральская улица, 68", "lat": 45.031069, "long": 39.03594, "square": 120, "rent_price": 150000, "population": 37000.0, "poi_count": 9 }, "geometry": { "type": "Point", "coordinates": [ 39.03594, 45.031069 ] } },
{ "type": "Feature", "properties": { "ID": 1165, "Address": "Новороссийская улица, 214", "lat": 45.03598, "long": 39.042965, "square": 100, "rent_price": 130000, "population": 25000.0, "poi_count": 13 }, "geometry": { "type": "Point", "coordinates": [ 39.042965, 45.03598 ] } },
{ "type": "Feature", "properties": { "ID": 1166, "Address": "Новороссийская улица, 220/Р2", "lat": 45.036228, "long": 39.046172, "square": 226, "rent_price": 45000, "population": 25000.0, "poi_count": 16 }, "geometry": { "type": "Point", "coordinates": [ 39.046172, 45.036228 ] } },
{ "type": "Feature", "properties": { "ID": 1167, "Address": "Новороссийская улица, 226", "lat": 45.036426, "long": 39.048732, "square": 47, "rent_price": 30000, "population": 9000.0, "poi_count": 40 }, "geometry": { "type": "Point", "coordinates": [ 39.048732, 45.036426 ] } },
{ "type": "Feature", "properties": { "ID": 1168, "Address": "Новороссийская улица, 232", "lat": 45.036974, "long": 39.050197, "square": 50, "rent_price": 23000, "population": 9000.0, "poi_count": 59 }, "geometry": { "type": "Point", "coordinates": [ 39.050197, 45.036974 ] } },
{ "type": "Feature", "properties": { "ID": 1169, "Address": "Уральская улица, 79/1к2", "lat": 45.035853, "long": 39.050807, "square": 55, "rent_price": 165000, "population": 9000.0, "poi_count": 74 }, "geometry": { "type": "Point", "coordinates": [ 39.050807, 45.035853 ] } },
{ "type": "Feature", "properties": { "ID": 1170, "Address": "Уральская улица, 79/1к2", "lat": 45.035853, "long": 39.050807, "square": 55, "rent_price": 165000, "population": 9000.0, "poi_count": 74 }, "geometry": { "type": "Point", "coordinates": [ 39.050807, 45.035853 ] } },
{ "type": "Feature", "properties": { "ID": 1171, "Address": "Уральская улица, 79/2", "lat": 45.034483, "long": 39.052631, "square": 107, "rent_price": 214000, "population": 9000.0, "poi_count": 76 }, "geometry": { "type": "Point", "coordinates": [ 39.052631, 45.034483 ] } },
{ "type": "Feature", "properties": { "ID": 1172, "Address": "Уральская улица, 106", "lat": 45.032916, "long": 39.054086, "square": 121, "rent_price": 135000, "population": 9000.0, "poi_count": 69 }, "geometry": { "type": "Point", "coordinates": [ 39.054086, 45.032916 ] } },
{ "type": "Feature", "properties": { "ID": 1173, "Address": "Уральская улица, 102", "lat": 45.032636, "long": 39.051787, "square": 100, "rent_price": 145000, "population": 9000.0, "poi_count": 83 }, "geometry": { "type": "Point", "coordinates": [ 39.051787, 45.032636 ] } },
{ "type": "Feature", "properties": { "ID": 1174, "Address": "Уральская улица, 100/6", "lat": 45.031661, "long": 39.050628, "square": 149, "rent_price": 223500, "population": 37000.0, "poi_count": 70 }, "geometry": { "type": "Point", "coordinates": [ 39.050628, 45.031661 ] } },
{ "type": "Feature", "properties": { "ID": 1175, "Address": "Уральская улица, 98/11", "lat": 45.02982, "long": 39.046235, "square": 147, "rent_price": 132300, "population": 37000.0, "poi_count": 64 }, "geometry": { "type": "Point", "coordinates": [ 39.046235, 45.02982 ] } },
{ "type": "Feature", "properties": { "ID": 1176, "Address": "Уральская улица, 98/11", "lat": 45.02982, "long": 39.046235, "square": 53, "rent_price": 95400, "population": 37000.0, "poi_count": 64 }, "geometry": { "type": "Point", "coordinates": [ 39.046235, 45.02982 ] } },
{ "type": "Feature", "properties": { "ID": 1177, "Address": "улица Стасова, 182/1", "lat": 45.02654, "long": 39.046298, "square": 60, "rent_price": 112680, "population": 37000.0, "poi_count": 38 }, "geometry": { "type": "Point", "coordinates": [ 39.046298, 45.02654 ] } },
{ "type": "Feature", "properties": { "ID": 1178, "Address": "улица Селезнёва, 191/1", "lat": 45.022552, "long": 39.046675, "square": 121, "rent_price": 181500, "population": 37000.0, "poi_count": 40 }, "geometry": { "type": "Point", "coordinates": [ 39.046675, 45.022552 ] } },
{ "type": "Feature", "properties": { "ID": 1179, "Address": "улица Селезнёва, 150", "lat": 45.022068, "long": 39.04566, "square": 37, "rent_price": 50000, "population": 37000.0, "poi_count": 34 }, "geometry": { "type": "Point", "coordinates": [ 39.04566, 45.022068 ] } },
{ "type": "Feature", "properties": { "ID": 1180, "Address": "Старокубанская улица, 127А", "lat": 45.02001, "long": 39.049092, "square": 150, "rent_price": 220000, "population": 37000.0, "poi_count": 18 }, "geometry": { "type": "Point", "coordinates": [ 39.049092, 45.02001 ] } },
{ "type": "Feature", "properties": { "ID": 1181, "Address": "Сормовская улица, 1/2к3", "lat": 45.024221, "long": 39.051876, "square": 150, "rent_price": 270000, "population": 37000.0, "poi_count": 28 }, "geometry": { "type": "Point", "coordinates": [ 39.051876, 45.024221 ] } },
{ "type": "Feature", "properties": { "ID": 1182, "Address": "Сормовская улица, 1/4к1", "lat": 45.025055, "long": 39.052586, "square": 92, "rent_price": 137700, "population": 37000.0, "poi_count": 26 }, "geometry": { "type": "Point", "coordinates": [ 39.052586, 45.025055 ] } },
{ "type": "Feature", "properties": { "ID": 1183, "Address": "улица Лизы Чайкиной, 2/3", "lat": 45.027298, "long": 39.057796, "square": 247, "rent_price": 100000, "population": 37000.0, "poi_count": 17 }, "geometry": { "type": "Point", "coordinates": [ 39.057796, 45.027298 ] } },
{ "type": "Feature", "properties": { "ID": 1184, "Address": "Трамвайная улица, 4/1", "lat": 45.013122, "long": 39.058605, "square": 170, "rent_price": 170000, "population": 10000.0, "poi_count": 38 }, "geometry": { "type": "Point", "coordinates": [ 39.058605, 45.013122 ] } },
{ "type": "Feature", "properties": { "ID": 1185, "Address": "улица Автолюбителей, 13/1", "lat": 45.00464, "long": 39.067687, "square": 90, "rent_price": 135000, "population": 10000.0, "poi_count": 26 }, "geometry": { "type": "Point", "coordinates": [ 39.067687, 45.00464 ] } },
{ "type": "Feature", "properties": { "ID": 1186, "Address": "улица Автолюбителей, 15/1", "lat": 45.00508, "long": 39.067651, "square": 25, "rent_price": 35000, "population": 10000.0, "poi_count": 31 }, "geometry": { "type": "Point", "coordinates": [ 39.067651, 45.00508 ] } },
{ "type": "Feature", "properties": { "ID": 1187, "Address": "Сормовская улица, 12/12", "lat": 45.022711, "long": 39.063932, "square": 34, "rent_price": 23800, "population": 28000.0, "poi_count": 25 }, "geometry": { "type": "Point", "coordinates": [ 39.063932, 45.022711 ] } },
{ "type": "Feature", "properties": { "ID": 1188, "Address": "Сормовская улица, 7/6", "lat": 45.024374, "long": 39.065225, "square": 35, "rent_price": 70000, "population": 28000.0, "poi_count": 42 }, "geometry": { "type": "Point", "coordinates": [ 39.065225, 45.024374 ] } },
{ "type": "Feature", "properties": { "ID": 1189, "Address": "Краевая улица, 10", "lat": 45.014906, "long": 39.073661, "square": 25, "rent_price": 37500, "population": 28000.0, "poi_count": 19 }, "geometry": { "type": "Point", "coordinates": [ 39.073661, 45.014906 ] } },
{ "type": "Feature", "properties": { "ID": 1190, "Address": "Магистральная улица, 1", "lat": 45.03133, "long": 39.063132, "square": 36, "rent_price": 30000, "population": 9000.0, "poi_count": 7 }, "geometry": { "type": "Point", "coordinates": [ 39.063132, 45.03133 ] } },
{ "type": "Feature", "properties": { "ID": 1191, "Address": "Уральская улица, 87/1", "lat": 45.035935, "long": 39.066995, "square": 48, "rent_price": 79500, "population": 9000.0, "poi_count": 25 }, "geometry": { "type": "Point", "coordinates": [ 39.066995, 45.035935 ] } },
{ "type": "Feature", "properties": { "ID": 1192, "Address": "Новороссийская улица, 240А", "lat": 45.037604, "long": 39.067732, "square": 113, "rent_price": 124300, "population": 9000.0, "poi_count": 21 }, "geometry": { "type": "Point", "coordinates": [ 39.067732, 45.037604 ] } },
{ "type": "Feature", "properties": { "ID": 1193, "Address": "улица Дежнёва, 37", "lat": 45.03954, "long": 39.074227, "square": 52, "rent_price": 40000, "population": 9000.0, "poi_count": 1 }, "geometry": { "type": "Point", "coordinates": [ 39.074227, 45.03954 ] } },
{ "type": "Feature", "properties": { "ID": 1194, "Address": "Уральская улица, 138", "lat": 45.036426, "long": 39.078871, "square": 150, "rent_price": 175000, "population": 29000.0, "poi_count": 10 }, "geometry": { "type": "Point", "coordinates": [ 39.078871, 45.036426 ] } },
{ "type": "Feature", "properties": { "ID": 1195, "Address": "Новороссийская улица, 250/1", "lat": 45.040158, "long": 39.079832, "square": 34, "rent_price": 20400, "population": 29000.0, "poi_count": 8 }, "geometry": { "type": "Point", "coordinates": [ 39.079832, 45.040158 ] } },
{ "type": "Feature", "properties": { "ID": 1196, "Address": "Уральская улица, 97литЭ", "lat": 45.0377, "long": 39.082473, "square": 72, "rent_price": 100800, "population": 29000.0, "poi_count": 17 }, "geometry": { "type": "Point", "coordinates": [ 39.082473, 45.0377 ] } },
{ "type": "Feature", "properties": { "ID": 1197, "Address": "Уральская улица, 97литД", "lat": 45.037942, "long": 39.083731, "square": 190, "rent_price": 190000, "population": 29000.0, "poi_count": 29 }, "geometry": { "type": "Point", "coordinates": [ 39.083731, 45.037942 ] } },
{ "type": "Feature", "properties": { "ID": 1198, "Address": "Уральская улица, 97Б", "lat": 45.038674, "long": 39.083039, "square": 216, "rent_price": 169000, "population": 29000.0, "poi_count": 24 }, "geometry": { "type": "Point", "coordinates": [ 39.083039, 45.038674 ] } },
{ "type": "Feature", "properties": { "ID": 1199, "Address": "улица имени Мецената Лю Трахова, 14", "lat": 44.999236, "long": 39.085509, "square": 50, "rent_price": 75000, "population": 36000.0, "poi_count": 3 }, "geometry": { "type": "Point", "coordinates": [ 39.085509, 44.999236 ] } },
{ "type": "Feature", "properties": { "ID": 1200, "Address": "Бородинская улица, 131А", "lat": 45.012587, "long": 39.099685, "square": 221, "rent_price": 250000, "population": 14000.0, "poi_count": 15 }, "geometry": { "type": "Point", "coordinates": [ 39.099685, 45.012587 ] } },
{ "type": "Feature", "properties": { "ID": 1201, "Address": "улица имени В.Н. Мачуги, 166/1", "lat": 45.014836, "long": 39.094933, "square": 44, "rent_price": 44000, "population": 14000.0, "poi_count": 13 }, "geometry": { "type": "Point", "coordinates": [ 39.094933, 45.014836 ] } },
{ "type": "Feature", "properties": { "ID": 1202, "Address": "улица Кирова, 198", "lat": 45.021418, "long": 39.096074, "square": 56, "rent_price": 33600, "population": 14000.0, "poi_count": 10 }, "geometry": { "type": "Point", "coordinates": [ 39.096074, 45.021418 ] } },
{ "type": "Feature", "properties": { "ID": 1203, "Address": "Восточный обход Краснодара, 2", "lat": 45.000906, "long": 39.115585, "square": 105, "rent_price": 90000, "population": 0.0, "poi_count": 2 }, "geometry": { "type": "Point", "coordinates": [ 39.115585, 45.000906 ] } },
{ "type": "Feature", "properties": { "ID": 1204, "Address": "Крылатая улица, 2", "lat": 45.01144, "long": 39.122574, "square": 100, "rent_price": 80000, "population": 400.0, "poi_count": 69 }, "geometry": { "type": "Point", "coordinates": [ 39.122574, 45.01144 ] } },
{ "type": "Feature", "properties": { "ID": 1205, "Address": "Криничная улица, 173", "lat": 45.013294, "long": 39.118657, "square": 128, "rent_price": 100000, "population": 14000.0, "poi_count": 20 }, "geometry": { "type": "Point", "coordinates": [ 39.118657, 45.013294 ] } }
]
}
