{
"type": "FeatureCollection",
"name": "filtered_buildings",
"crs": { "type": "name", "properties": { "name": "urn:ogc:def:crs:OGC:1.3:CRS84" } },
"features": [
{ "type": "Feature", "properties": { "BUILDING": "house", "ADDR_CITY": null, "A_STRT": "Карасунская улица", "A_SBRB": null, "A_HSNMBR": "1", "A_PLACE": null, "A_PSTCD": "350911", "B_LEVELS": null, "NAME": null, "NAME_EN": null, "NAME_RU": null, "OSM_TYPE": "node", "OSM_ID": 2261315689 }, "geometry": { "type": "Point", "coordinates": [ 39.0742526, 45.0215777 ] } },
{ "type": "Feature", "properties": { "BUILDING": "house", "ADDR_CITY": null, "A_STRT": "Карасунская улица", "A_SBRB": null, "A_HSNMBR": "100/1", "A_PLACE": null, "A_PSTCD": "350910", "B_LEVELS": null, "NAME": null, "NAME_EN": null, "NAME_RU": null, "OSM_TYPE": "node", "OSM_ID": 2261316111 }, "geometry": { "type": "Point", "coordinates": [ 39.0910609, 45.0237755 ] } },
{ "type": "Feature", "properties": { "BUILDING": "house", "ADDR_CITY": null, "A_STRT": "Карасунская улица", "A_SBRB": null, "A_HSNMBR": "15", "A_PLACE": null, "A_PSTCD": "350911", "B_LEVELS": null, "NAME": null, "NAME_EN": null, "NAME_RU": null, "OSM_TYPE": "node", "OSM_ID": 2261316809 }, "geometry": { "type": "Point", "coordinates": [ 39.0754621, 45.0220427 ] } },
{ "type": "Feature", "properties": { "BUILDING": "house", "ADDR_CITY": null, "A_STRT": "Воронежская улица", "A_SBRB": null, "A_HSNMBR": "178", "A_PLACE": null, "A_PSTCD": "350011", "B_LEVELS": null, "NAME": null, "NAME_EN": null, "NAME_RU": null, "OSM_TYPE": "node", "OSM_ID": 2261316911 }, "geometry": { "type": "Point", "coordinates": [ 39.0280611, 44.9977318 ] } },
{ "type": "Feature", "properties": { "BUILDING": "house", "ADDR_CITY": null, "A_STRT": "Карасунская улица", "A_SBRB": null, "A_HSNMBR": "21", "A_PLACE": null, "A_PSTCD": "350911", "B_LEVELS": null, "NAME": null, "NAME_EN": null, "NAME_RU": null, "OSM_TYPE": "node", "OSM_ID": 2261317412 }, "geometry": { "type": "Point", "coordinates": [ 39.0758578, 45.0221207 ] } },
{ "type": "Feature", "properties": { "BUILDING": "house", "ADDR_CITY": null, "A_STRT": "Карасунская улица", "A_SBRB": null, "A_HSNMBR": "90", "A_PLACE": null, "A_PSTCD": "350910", "B_LEVELS": null, "NAME": null, "NAME_EN": null, "NAME_RU": null, "OSM_TYPE": "node", "OSM_ID": 2261318493 }, "geometry": { "type": "Point", "coordinates": [ 39.0899483, 45.0236836 ] } },
{ "type": "Feature", "properties": { "BUILDING": "house", "ADDR_CITY": null, "A_STRT": "Карасунская улица", "A_SBRB": null, "A_HSNMBR": "92", "A_PLACE": null, "A_PSTCD": "350910", "B_LEVELS": null, "NAME": null, "NAME_EN": null, "NAME_RU": null, "OSM_TYPE": "node", "OSM_ID": 2261318495 }, "geometry": { "type": "Point", "coordinates": [ 39.0902342, 45.0237221 ] } },
{ "type": "Feature", "properties": { "BUILDING": "house", "ADDR_CITY": null, "A_STRT": "Карасунская улица", "A_SBRB": null, "A_HSNMBR": "92А", "A_PLACE": null, "A_PSTCD": "350910", "B_LEVELS": null, "NAME": null, "NAME_EN": null, "NAME_RU": null, "OSM_TYPE": "node", "OSM_ID": 2261318496 }, "geometry": { "type": "Point", "coordinates": [ 39.0901337, 45.0237083 ] } },
{ "type": "Feature", "properties": { "BUILDING": "house", "ADDR_CITY": null, "A_STRT": "Карасунская улица", "A_SBRB": null, "A_HSNMBR": "94", "A_PLACE": null, "A_PSTCD": "350910", "B_LEVELS": null, "NAME": null, "NAME_EN": null, "NAME_RU": null, "OSM_TYPE": "node", "OSM_ID": 2261318498 }, "geometry": { "type": "Point", "coordinates": [ 39.090402, 45.0237446 ] } },
{ "type": "Feature", "properties": { "BUILDING": "house", "ADDR_CITY": null, "A_STRT": "Карасунская улица", "A_SBRB": null, "A_HSNMBR": "96", "A_PLACE": null, "A_PSTCD": "350910", "B_LEVELS": null, "NAME": null, "NAME_EN": null, "NAME_RU": null, "OSM_TYPE": "node", "OSM_ID": 2261318502 }, "geometry": { "type": "Point", "coordinates": [ 39.0907478, 45.0237932 ] } },
{ "type": "Feature", "properties": { "BUILDING": "house", "ADDR_CITY": null, "A_STRT": "Карасунская улица", "A_SBRB": null, "A_HSNMBR": "98", "A_PLACE": null, "A_PSTCD": "350910", "B_LEVELS": null, "NAME": null, "NAME_EN": null, "NAME_RU": null, "OSM_TYPE": "node", "OSM_ID": 2261318505 }, "geometry": { "type": "Point", "coordinates": [ 39.0909313, 45.0237387 ] } },
{ "type": "Feature", "properties": { "BUILDING": "house", "ADDR_CITY": null, "A_STRT": "Бородинская улица", "A_SBRB": null, "A_HSNMBR": "37", "A_PLACE": null, "A_PSTCD": "350910", "B_LEVELS": null, "NAME": null, "NAME_EN": null, "NAME_RU": null, "OSM_TYPE": "node", "OSM_ID": 2261344115 }, "geometry": { "type": "Point", "coordinates": [ 39.0897436, 45.0236467 ] } },
{ "type": "Feature", "properties": { "BUILDING": "house", "ADDR_CITY": null, "A_STRT": "Бородинская улица", "A_SBRB": null, "A_HSNMBR": "39", "A_PLACE": null, "A_PSTCD": "350910", "B_LEVELS": null, "NAME": null, "NAME_EN": null, "NAME_RU": null, "OSM_TYPE": "node", "OSM_ID": 2261344125 }, "geometry": { "type": "Point", "coordinates": [ 39.0899164, 45.0235502 ] } },
{ "type": "Feature", "properties": { "BUILDING": "house", "ADDR_CITY": null, "A_STRT": "Бородинская улица", "A_SBRB": null, "A_HSNMBR": "39А", "A_PLACE": null, "A_PSTCD": "350910", "B_LEVELS": null, "NAME": null, "NAME_EN": null, "NAME_RU": null, "OSM_TYPE": "node", "OSM_ID": 2261344129 }, "geometry": { "type": "Point", "coordinates": [ 39.0899696, 45.0234566 ] } },
{ "type": "Feature", "properties": { "BUILDING": "house", "ADDR_CITY": null, "A_STRT": "Бородинская улица", "A_SBRB": null, "A_HSNMBR": "47", "A_PLACE": null, "A_PSTCD": "350910", "B_LEVELS": null, "NAME": null, "NAME_EN": null, "NAME_RU": null, "OSM_TYPE": "node", "OSM_ID": 2261344206 }, "geometry": { "type": "Point", "coordinates": [ 39.0902598, 45.0229059 ] } },
{ "type": "Feature", "properties": { "BUILDING": "house", "ADDR_CITY": null, "A_STRT": "Бородинская улица", "A_SBRB": null, "A_HSNMBR": "49", "A_PLACE": null, "A_PSTCD": "350910", "B_LEVELS": null, "NAME": null, "NAME_EN": null, "NAME_RU": null, "OSM_TYPE": "node", "OSM_ID": 2261344214 }, "geometry": { "type": "Point", "coordinates": [ 39.0903517, 45.0228101 ] } },
{ "type": "Feature", "properties": { "BUILDING": "house", "ADDR_CITY": null, "A_STRT": "Бородинская улица", "A_SBRB": null, "A_HSNMBR": "49/1", "A_PLACE": null, "A_PSTCD": "350910", "B_LEVELS": null, "NAME": null, "NAME_EN": null, "NAME_RU": null, "OSM_TYPE": "node", "OSM_ID": 2261344218 }, "geometry": { "type": "Point", "coordinates": [ 39.0904924, 45.0228734 ] } },
{ "type": "Feature", "properties": { "BUILDING": "house", "ADDR_CITY": null, "A_STRT": "Бородинская улица", "A_SBRB": null, "A_HSNMBR": "51", "A_PLACE": null, "A_PSTCD": "350910", "B_LEVELS": null, "NAME": null, "NAME_EN": null, "NAME_RU": null, "OSM_TYPE": "node", "OSM_ID": 2261344402 }, "geometry": { "type": "Point", "coordinates": [ 39.0904427, 45.0227153 ] } },
{ "type": "Feature", "properties": { "BUILDING": "house", "ADDR_CITY": null, "A_STRT": "Бородинская улица", "A_SBRB": null, "A_HSNMBR": "55", "A_PLACE": null, "A_PSTCD": "350910", "B_LEVELS": null, "NAME": null, "NAME_EN": null, "NAME_RU": null, "OSM_TYPE": "node", "OSM_ID": 2261344503 }, "geometry": { "type": "Point", "coordinates": [ 39.0906892, 45.0224582 ] } },
{ "type": "Feature", "properties": { "BUILDING": "house", "ADDR_CITY": null, "A_STRT": "Бородинская улица", "A_SBRB": null, "A_HSNMBR": "59", "A_PLACE": null, "A_PSTCD": "350910", "B_LEVELS": null, "NAME": null, "NAME_EN": null, "NAME_RU": null, "OSM_TYPE": "node", "OSM_ID": 2261344600 }, "geometry": { "type": "Point", "coordinates": [ 39.0909366, 45.0222002 ] } },
{ "type": "Feature", "properties": { "BUILDING": "house", "ADDR_CITY": null, "A_STRT": "Бородинская улица", "A_SBRB": null, "A_HSNMBR": "61", "A_PLACE": null, "A_PSTCD": "350910", "B_LEVELS": null, "NAME": null, "NAME_EN": null, "NAME_RU": null, "OSM_TYPE": "node", "OSM_ID": 2261344981 }, "geometry": { "type": "Point", "coordinates": [ 39.0914713, 45.0216429 ] } },
{ "type": "Feature", "properties": { "BUILDING": "house", "ADDR_CITY": null, "A_STRT": "Бородинская улица", "A_SBRB": null, "A_HSNMBR": "63", "A_PLACE": null, "A_PSTCD": "350910", "B_LEVELS": null, "NAME": null, "NAME_EN": null, "NAME_RU": null, "OSM_TYPE": "node", "OSM_ID": 2261345006 }, "geometry": { "type": "Point", "coordinates": [ 39.0915728, 45.0215371 ] } },
{ "type": "Feature", "properties": { "BUILDING": "house", "ADDR_CITY": null, "A_STRT": "Бородинская улица", "A_SBRB": null, "A_HSNMBR": "63А", "A_PLACE": null, "A_PSTCD": "350910", "B_LEVELS": null, "NAME": null, "NAME_EN": null, "NAME_RU": null, "OSM_TYPE": "node", "OSM_ID": 2261345010 }, "geometry": { "type": "Point", "coordinates": [ 39.0922432, 45.0217743 ] } },
{ "type": "Feature", "properties": { "BUILDING": "house", "ADDR_CITY": null, "A_STRT": "Бородинская улица", "A_SBRB": null, "A_HSNMBR": "65", "A_PLACE": null, "A_PSTCD": "350910", "B_LEVELS": null, "NAME": null, "NAME_EN": null, "NAME_RU": null, "OSM_TYPE": "node", "OSM_ID": 2261345016 }, "geometry": { "type": "Point", "coordinates": [ 39.0917938, 45.0213066 ] } },
{ "type": "Feature", "properties": { "BUILDING": "house", "ADDR_CITY": null, "A_STRT": "Бородинская улица", "A_SBRB": null, "A_HSNMBR": "67", "A_PLACE": null, "A_PSTCD": "350910", "B_LEVELS": null, "NAME": null, "NAME_EN": null, "NAME_RU": null, "OSM_TYPE": "node", "OSM_ID": 2261345037 }, "geometry": { "type": "Point", "coordinates": [ 39.0919316, 45.0211629 ] } },
{ "type": "Feature", "properties": { "BUILDING": "house", "ADDR_CITY": null, "A_STRT": "Бородинская улица", "A_SBRB": null, "A_HSNMBR": "69", "A_PLACE": null, "A_PSTCD": "350910", "B_LEVELS": null, "NAME": null, "NAME_EN": null, "NAME_RU": null, "OSM_TYPE": "node", "OSM_ID": 2261345045 }, "geometry": { "type": "Point", "coordinates": [ 39.0921088, 45.0209781 ] } },
{ "type": "Feature", "properties": { "BUILDING": "house", "ADDR_CITY": null, "A_STRT": "Бородинская улица", "A_SBRB": null, "A_HSNMBR": "71", "A_PLACE": null, "A_PSTCD": "350910", "B_LEVELS": null, "NAME": null, "NAME_EN": null, "NAME_RU": null, "OSM_TYPE": "node", "OSM_ID": 2261345061 }, "geometry": { "type": "Point", "coordinates": [ 39.0922384, 45.020843 ] } },
{ "type": "Feature", "properties": { "BUILDING": "house", "ADDR_CITY": null, "A_STRT": "Бородинская улица", "A_SBRB": null, "A_HSNMBR": "72", "A_PLACE": null, "A_PSTCD": "350910", "B_LEVELS": null, "NAME": null, "NAME_EN": null, "NAME_RU": null, "OSM_TYPE": "node", "OSM_ID": 2261345067 }, "geometry": { "type": "Point", "coordinates": [ 39.0911329, 45.0215752 ] } },
{ "type": "Feature", "properties": { "BUILDING": "house", "ADDR_CITY": null, "A_STRT": "Бородинская улица", "A_SBRB": null, "A_HSNMBR": "74", "A_PLACE": null, "A_PSTCD": "350910", "B_LEVELS": null, "NAME": null, "NAME_EN": null, "NAME_RU": null, "OSM_TYPE": "node", "OSM_ID": 2261345075 }, "geometry": { "type": "Point", "coordinates": [ 39.0912107, 45.0214938 ] } },
{ "type": "Feature", "properties": { "BUILDING": "house", "ADDR_CITY": null, "A_STRT": "Бородинская улица", "A_SBRB": null, "A_HSNMBR": "76", "A_PLACE": null, "A_PSTCD": "350910", "B_LEVELS": null, "NAME": null, "NAME_EN": null, "NAME_RU": null, "OSM_TYPE": "node", "OSM_ID": 2261345083 }, "geometry": { "type": "Point", "coordinates": [ 39.0912886, 45.0214125 ] } },
{ "type": "Feature", "properties": { "BUILDING": "house", "ADDR_CITY": null, "A_STRT": "Бородинская улица", "A_SBRB": null, "A_HSNMBR": "78", "A_PLACE": null, "A_PSTCD": "350910", "B_LEVELS": null, "NAME": null, "NAME_EN": null, "NAME_RU": null, "OSM_TYPE": "node", "OSM_ID": 2261345091 }, "geometry": { "type": "Point", "coordinates": [ 39.0913614, 45.0212085 ] } },
{ "type": "Feature", "properties": { "BUILDING": "house", "ADDR_CITY": null, "A_STRT": "Бородинская улица", "A_SBRB": null, "A_HSNMBR": "78/1", "A_PLACE": null, "A_PSTCD": "350910", "B_LEVELS": null, "NAME": null, "NAME_EN": null, "NAME_RU": null, "OSM_TYPE": "node", "OSM_ID": 2261345094 }, "geometry": { "type": "Point", "coordinates": [ 39.0913669, 45.0213309 ] } },
{ "type": "Feature", "properties": { "BUILDING": "house", "ADDR_CITY": null, "A_STRT": "Бородинская улица", "A_SBRB": null, "A_HSNMBR": "80", "A_PLACE": null, "A_PSTCD": "350910", "B_LEVELS": null, "NAME": null, "NAME_EN": null, "NAME_RU": null, "OSM_TYPE": "node", "OSM_ID": 2261345107 }, "geometry": { "type": "Point", "coordinates": [ 39.0915242, 45.0211671 ] } },
{ "type": "Feature", "properties": { "BUILDING": "house", "ADDR_CITY": null, "A_STRT": "Бородинская улица", "A_SBRB": null, "A_HSNMBR": "82", "A_PLACE": null, "A_PSTCD": "350910", "B_LEVELS": null, "NAME": null, "NAME_EN": null, "NAME_RU": null, "OSM_TYPE": "node", "OSM_ID": 2261345115 }, "geometry": { "type": "Point", "coordinates": [ 39.0916031, 45.0210848 ] } },
{ "type": "Feature", "properties": { "BUILDING": "house", "ADDR_CITY": null, "A_STRT": "Бородинская улица", "A_SBRB": null, "A_HSNMBR": "84", "A_PLACE": null, "A_PSTCD": "350910", "B_LEVELS": null, "NAME": null, "NAME_EN": null, "NAME_RU": null, "OSM_TYPE": "node", "OSM_ID": 2261345141 }, "geometry": { "type": "Point", "coordinates": [ 39.0916812, 45.0210033 ] } },
{ "type": "Feature", "properties": { "BUILDING": "house", "ADDR_CITY": null, "A_STRT": "Бородинская улица", "A_SBRB": null, "A_HSNMBR": "88", "A_PLACE": null, "A_PSTCD": "350910", "B_LEVELS": null, "NAME": null, "NAME_EN": null, "NAME_RU": null, "OSM_TYPE": "node", "OSM_ID": 2261345152 }, "geometry": { "type": "Point", "coordinates": [ 39.091822, 45.0206551 ] } },
{ "type": "Feature", "properties": { "BUILDING": "house", "ADDR_CITY": null, "A_STRT": "Бородинская улица", "A_SBRB": null, "A_HSNMBR": "90", "A_PLACE": null, "A_PSTCD": "350910", "B_LEVELS": null, "NAME": null, "NAME_EN": null, "NAME_RU": null, "OSM_TYPE": "node", "OSM_ID": 2261345177 }, "geometry": { "type": "Point", "coordinates": [ 39.0920493, 45.0206194 ] } },
{ "type": "Feature", "properties": { "BUILDING": "house", "ADDR_CITY": null, "A_STRT": "Бородинская улица", "A_SBRB": null, "A_HSNMBR": "92", "A_PLACE": null, "A_PSTCD": "350910", "B_LEVELS": null, "NAME": null, "NAME_EN": null, "NAME_RU": null, "OSM_TYPE": "node", "OSM_ID": 2261345185 }, "geometry": { "type": "Point", "coordinates": [ 39.092137, 45.020528 ] } },
{ "type": "Feature", "properties": { "BUILDING": "house", "ADDR_CITY": null, "A_STRT": "улица Горького", "A_SBRB": null, "A_HSNMBR": "52", "A_PLACE": null, "A_PSTCD": "350910", "B_LEVELS": null, "NAME": null, "NAME_EN": null, "NAME_RU": null, "OSM_TYPE": "node", "OSM_ID": 2261397355 }, "geometry": { "type": "Point", "coordinates": [ 39.0922197, 45.0237555 ] } },
{ "type": "Feature", "properties": { "BUILDING": "house", "ADDR_CITY": null, "A_STRT": "Кубанская улица", "A_SBRB": null, "A_HSNMBR": "82", "A_PLACE": null, "A_PSTCD": "350911", "B_LEVELS": null, "NAME": null, "NAME_EN": null, "NAME_RU": null, "OSM_TYPE": "node", "OSM_ID": 2261398208 }, "geometry": { "type": "Point", "coordinates": [ 39.0872242, 45.0183879 ] } },
{ "type": "Feature", "properties": { "BUILDING": "house", "ADDR_CITY": null, "A_STRT": "Кубанская улица", "A_SBRB": null, "A_HSNMBR": "83", "A_PLACE": null, "A_PSTCD": "350911", "B_LEVELS": null, "NAME": null, "NAME_EN": null, "NAME_RU": null, "OSM_TYPE": "node", "OSM_ID": 2261398227 }, "geometry": { "type": "Point", "coordinates": [ 39.0869746, 45.0194419 ] } },
{ "type": "Feature", "properties": { "BUILDING": "house", "ADDR_CITY": null, "A_STRT": "Кубанская улица", "A_SBRB": null, "A_HSNMBR": "85", "A_PLACE": null, "A_PSTCD": "350911", "B_LEVELS": null, "NAME": null, "NAME_EN": null, "NAME_RU": null, "OSM_TYPE": "node", "OSM_ID": 2261398287 }, "geometry": { "type": "Point", "coordinates": [ 39.0870391, 45.0193375 ] } },
{ "type": "Feature", "properties": { "BUILDING": "house", "ADDR_CITY": null, "A_STRT": "Кубанская улица", "A_SBRB": null, "A_HSNMBR": "87", "A_PLACE": null, "A_PSTCD": "350911", "B_LEVELS": null, "NAME": null, "NAME_EN": null, "NAME_RU": null, "OSM_TYPE": "node", "OSM_ID": 2261398314 }, "geometry": { "type": "Point", "coordinates": [ 39.0871055, 45.01923 ] } },
{ "type": "Feature", "properties": { "BUILDING": "house", "ADDR_CITY": null, "A_STRT": "Кубанская улица", "A_SBRB": null, "A_HSNMBR": "91", "A_PLACE": null, "A_PSTCD": "350911", "B_LEVELS": null, "NAME": null, "NAME_EN": null, "NAME_RU": null, "OSM_TYPE": "node", "OSM_ID": 2261398429 }, "geometry": { "type": "Point", "coordinates": [ 39.0872862, 45.0189375 ] } },
{ "type": "Feature", "properties": { "BUILDING": "house", "ADDR_CITY": null, "A_STRT": "Кубанская улица", "A_SBRB": null, "A_HSNMBR": "91/1", "A_PLACE": null, "A_PSTCD": "350911", "B_LEVELS": null, "NAME": null, "NAME_EN": null, "NAME_RU": null, "OSM_TYPE": "node", "OSM_ID": 2261398434 }, "geometry": { "type": "Point", "coordinates": [ 39.0872276, 45.0190324 ] } },
{ "type": "Feature", "properties": { "BUILDING": "house", "ADDR_CITY": "Краснодар", "A_STRT": "Казанская улица", "A_SBRB": null, "A_HSNMBR": "40", "A_PLACE": null, "A_PSTCD": "350059", "B_LEVELS": null, "NAME": null, "NAME_EN": null, "NAME_RU": null, "OSM_TYPE": "node", "OSM_ID": 2261528787 }, "geometry": { "type": "Point", "coordinates": [ 39.0315676, 45.0306615 ] } },
{ "type": "Feature", "properties": { "BUILDING": "house", "ADDR_CITY": null, "A_STRT": "улица Пирогова", "A_SBRB": null, "A_HSNMBR": "5", "A_PLACE": null, "A_PSTCD": "350016", "B_LEVELS": null, "NAME": null, "NAME_EN": null, "NAME_RU": null, "OSM_TYPE": "node", "OSM_ID": 6516720894 }, "geometry": { "type": "Point", "coordinates": [ 39.00971, 45.0743294 ] } },
{ "type": "Feature", "properties": { "BUILDING": "house", "ADDR_CITY": null, "A_STRT": null, "A_SBRB": null, "A_HSNMBR": null, "A_PLACE": null, "A_PSTCD": null, "B_LEVELS": "1", "NAME": null, "NAME_EN": null, "NAME_RU": null, "OSM_TYPE": "node", "OSM_ID": 8289850312 }, "geometry": { "type": "Point", "coordinates": [ 39.0055476, 45.0841799 ] } },
{ "type": "Feature", "properties": { "BUILDING": "residential", "ADDR_CITY": null, "A_STRT": "улица имени Тита Кононеца", "A_SBRB": null, "A_HSNMBR": "15", "A_PLACE": null, "A_PSTCD": null, "B_LEVELS": "2", "NAME": null, "NAME_EN": null, "NAME_RU": null, "OSM_TYPE": "node", "OSM_ID": 10114306652 }, "geometry": { "type": "Point", "coordinates": [ 39.0674043, 45.1035969 ] } },
{ "type": "Feature", "properties": { "BUILDING": "residential", "ADDR_CITY": null, "A_STRT": "улица имени Ивана Тушева", "A_SBRB": null, "A_HSNMBR": "16", "A_PLACE": null, "A_PSTCD": null, "B_LEVELS": "1", "NAME": null, "NAME_EN": null, "NAME_RU": null, "OSM_TYPE": "node", "OSM_ID": 10114306702 }, "geometry": { "type": "Point", "coordinates": [ 39.0673882, 45.1016772 ] } },
{ "type": "Feature", "properties": { "BUILDING": "residential", "ADDR_CITY": null, "A_STRT": "улица Сергея Красноперова", "A_SBRB": null, "A_HSNMBR": "22", "A_PLACE": null, "A_PSTCD": null, "B_LEVELS": "1", "NAME": null, "NAME_EN": null, "NAME_RU": null, "OSM_TYPE": "node", "OSM_ID": 10118799686 }, "geometry": { "type": "Point", "coordinates": [ 39.058097, 45.1031643 ] } },
{ "type": "Feature", "properties": { "BUILDING": "residential", "ADDR_CITY": null, "A_STRT": "улица Саши Чекалина", "A_SBRB": null, "A_HSNMBR": "9", "A_PLACE": null, "A_PSTCD": null, "B_LEVELS": "1", "NAME": null, "NAME_EN": null, "NAME_RU": null, "OSM_TYPE": "node", "OSM_ID": 10123250245 }, "geometry": { "type": "Point", "coordinates": [ 39.0550607, 45.0988467 ] } },
{ "type": "Feature", "properties": { "BUILDING": "residential", "ADDR_CITY": null, "A_STRT": "Сталинградская улица", "A_SBRB": null, "A_HSNMBR": "19", "A_PLACE": null, "A_PSTCD": null, "B_LEVELS": "1", "NAME": null, "NAME_EN": null, "NAME_RU": null, "OSM_TYPE": "node", "OSM_ID": 10123250268 }, "geometry": { "type": "Point", "coordinates": [ 39.0561095, 45.0999136 ] } },
{ "type": "Feature", "properties": { "BUILDING": "house", "ADDR_CITY": null, "A_STRT": "улица Чайковского", "A_SBRB": null, "A_HSNMBR": "8", "A_PLACE": null, "A_PSTCD": null, "B_LEVELS": null, "NAME": null, "NAME_EN": null, "NAME_RU": null, "OSM_TYPE": "node", "OSM_ID": 11329706073 }, "geometry": { "type": "Point", "coordinates": [ 39.0053937, 45.0847441 ] } },
{ "type": "Feature", "properties": { "BUILDING": "house", "ADDR_CITY": "Краснодар", "A_STRT": "улица им. Виктора Скоробогатого", "A_SBRB": null, "A_HSNMBR": "101", "A_PLACE": null, "A_PSTCD": null, "B_LEVELS": null, "NAME": null, "NAME_EN": null, "NAME_RU": null, "OSM_TYPE": "node", "OSM_ID": 11954669464 }, "geometry": { "type": "Point", "coordinates": [ 38.7993141, 45.0619228 ] } },
{ "type": "Feature", "properties": { "BUILDING": "house", "ADDR_CITY": "Краснодар", "A_STRT": "улица им. Виктора Скоробогатого", "A_SBRB": null, "A_HSNMBR": "99", "A_PLACE": null, "A_PSTCD": null, "B_LEVELS": null, "NAME": null, "NAME_EN": null, "NAME_RU": null, "OSM_TYPE": "node", "OSM_ID": 11954669465 }, "geometry": { "type": "Point", "coordinates": [ 38.7990612, 45.0620232 ] } },
{ "type": "Feature", "properties": { "BUILDING": "house", "ADDR_CITY": "Краснодар", "A_STRT": "улица им. Виктора Скоробогатого", "A_SBRB": null, "A_HSNMBR": "97", "A_PLACE": null, "A_PSTCD": null, "B_LEVELS": null, "NAME": null, "NAME_EN": null, "NAME_RU": null, "OSM_TYPE": "node", "OSM_ID": 11954669466 }, "geometry": { "type": "Point", "coordinates": [ 38.7987656, 45.0620383 ] } },
{ "type": "Feature", "properties": { "BUILDING": "house", "ADDR_CITY": "Краснодар", "A_STRT": "улица им. Виктора Скоробогатого", "A_SBRB": null, "A_HSNMBR": "95", "A_PLACE": null, "A_PSTCD": null, "B_LEVELS": null, "NAME": null, "NAME_EN": null, "NAME_RU": null, "OSM_TYPE": "node", "OSM_ID": 11954669467 }, "geometry": { "type": "Point", "coordinates": [ 38.7984673, 45.0620523 ] } },
{ "type": "Feature", "properties": { "BUILDING": "house", "ADDR_CITY": "Краснодар", "A_STRT": "улица им. Виктора Скоробогатого", "A_SBRB": null, "A_HSNMBR": "93", "A_PLACE": null, "A_PSTCD": null, "B_LEVELS": null, "NAME": null, "NAME_EN": null, "NAME_RU": null, "OSM_TYPE": "node", "OSM_ID": 11954669468 }, "geometry": { "type": "Point", "coordinates": [ 38.7981774, 45.0619881 ] } },
{ "type": "Feature", "properties": { "BUILDING": "house", "ADDR_CITY": "Краснодар", "A_STRT": "улица им. Степана Булатецкого", "A_SBRB": null, "A_HSNMBR": "21", "A_PLACE": null, "A_PSTCD": null, "B_LEVELS": null, "NAME": null, "NAME_EN": null, "NAME_RU": null, "OSM_TYPE": "node", "OSM_ID": 11954675062 }, "geometry": { "type": "Point", "coordinates": [ 38.7897049, 45.057568 ] } },
{ "type": "Feature", "properties": { "BUILDING": "house", "ADDR_CITY": "Краснодар", "A_STRT": "улица им. Степана Булатецкого", "A_SBRB": null, "A_HSNMBR": "19", "A_PLACE": null, "A_PSTCD": null, "B_LEVELS": null, "NAME": null, "NAME_EN": null, "NAME_RU": null, "OSM_TYPE": "node", "OSM_ID": 11954675063 }, "geometry": { "type": "Point", "coordinates": [ 38.7892161, 45.0576343 ] } },
{ "type": "Feature", "properties": { "BUILDING": "house", "ADDR_CITY": "Краснодар", "A_STRT": "улица им. Степана Булатецкого", "A_SBRB": null, "A_HSNMBR": "17", "A_PLACE": null, "A_PSTCD": null, "B_LEVELS": null, "NAME": null, "NAME_EN": null, "NAME_RU": null, "OSM_TYPE": "node", "OSM_ID": 11954675064 }, "geometry": { "type": "Point", "coordinates": [ 38.7888467, 45.0576664 ] } },
{ "type": "Feature", "properties": { "BUILDING": "house", "ADDR_CITY": "Краснодар", "A_STRT": "улица им. Степана Булатецкого", "A_SBRB": null, "A_HSNMBR": "13", "A_PLACE": null, "A_PSTCD": null, "B_LEVELS": null, "NAME": null, "NAME_EN": null, "NAME_RU": null, "OSM_TYPE": "node", "OSM_ID": 11954675065 }, "geometry": { "type": "Point", "coordinates": [ 38.7882073, 45.0577367 ] } },
{ "type": "Feature", "properties": { "BUILDING": "house", "ADDR_CITY": "Краснодар", "A_STRT": "улица им. Степана Булатецкого", "A_SBRB": null, "A_HSNMBR": "11", "A_PLACE": null, "A_PSTCD": null, "B_LEVELS": null, "NAME": null, "NAME_EN": null, "NAME_RU": null, "OSM_TYPE": "node", "OSM_ID": 11954675066 }, "geometry": { "type": "Point", "coordinates": [ 38.7879146, 45.0577688 ] } },
{ "type": "Feature", "properties": { "BUILDING": "house", "ADDR_CITY": "Краснодар", "A_STRT": "улица им. Степана Булатецкого", "A_SBRB": null, "A_HSNMBR": "9", "A_PLACE": null, "A_PSTCD": null, "B_LEVELS": null, "NAME": null, "NAME_EN": null, "NAME_RU": null, "OSM_TYPE": "node", "OSM_ID": 11954675067 }, "geometry": { "type": "Point", "coordinates": [ 38.7876049, 45.0578009 ] } },
{ "type": "Feature", "properties": { "BUILDING": "house", "ADDR_CITY": "Краснодар", "A_STRT": "улица им. Степана Булатецкого", "A_SBRB": null, "A_HSNMBR": "7", "A_PLACE": null, "A_PSTCD": null, "B_LEVELS": null, "NAME": null, "NAME_EN": null, "NAME_RU": null, "OSM_TYPE": "node", "OSM_ID": 11954675068 }, "geometry": { "type": "Point", "coordinates": [ 38.7873122, 45.057831 ] } },
{ "type": "Feature", "properties": { "BUILDING": "house", "ADDR_CITY": "Краснодар", "A_STRT": "улица им. Виктора Скоробогатого", "A_SBRB": null, "A_HSNMBR": "40", "A_PLACE": null, "A_PSTCD": null, "B_LEVELS": null, "NAME": null, "NAME_EN": null, "NAME_RU": null, "OSM_TYPE": "node", "OSM_ID": 11954689988 }, "geometry": { "type": "Point", "coordinates": [ 38.7904608, 45.0610808 ] } },
{ "type": "Feature", "properties": { "BUILDING": "house", "ADDR_CITY": "Краснодар", "A_STRT": "улица им. Виктора Скоробогатого", "A_SBRB": null, "A_HSNMBR": "38", "A_PLACE": null, "A_PSTCD": null, "B_LEVELS": null, "NAME": null, "NAME_EN": null, "NAME_RU": null, "OSM_TYPE": "node", "OSM_ID": 11954689989 }, "geometry": { "type": "Point", "coordinates": [ 38.7901567, 45.0611109 ] } },
{ "type": "Feature", "properties": { "BUILDING": "house", "ADDR_CITY": "Краснодар", "A_STRT": "улица им. Виктора Скоробогатого", "A_SBRB": null, "A_HSNMBR": "36", "A_PLACE": null, "A_PSTCD": null, "B_LEVELS": null, "NAME": null, "NAME_EN": null, "NAME_RU": null, "OSM_TYPE": "node", "OSM_ID": 11954689990 }, "geometry": { "type": "Point", "coordinates": [ 38.789864, 45.0611531 ] } },
{ "type": "Feature", "properties": { "BUILDING": "house", "ADDR_CITY": "Краснодар", "A_STRT": "улица им. Виктора Скоробогатого", "A_SBRB": null, "A_HSNMBR": "34", "A_PLACE": null, "A_PSTCD": null, "B_LEVELS": null, "NAME": null, "NAME_EN": null, "NAME_RU": null, "OSM_TYPE": "node", "OSM_ID": 11954689991 }, "geometry": { "type": "Point", "coordinates": [ 38.78956, 45.0611892 ] } },
{ "type": "Feature", "properties": { "BUILDING": "house", "ADDR_CITY": "Краснодар", "A_STRT": "улица им. Виктора Скоробогатого", "A_SBRB": null, "A_HSNMBR": "32", "A_PLACE": null, "A_PSTCD": null, "B_LEVELS": null, "NAME": null, "NAME_EN": null, "NAME_RU": null, "OSM_TYPE": "node", "OSM_ID": 11954689992 }, "geometry": { "type": "Point", "coordinates": [ 38.7892616, 45.0612193 ] } },
{ "type": "Feature", "properties": { "BUILDING": "house", "ADDR_CITY": "Краснодар", "A_STRT": "улица им. Виктора Скоробогатого", "A_SBRB": null, "A_HSNMBR": "30", "A_PLACE": null, "A_PSTCD": null, "B_LEVELS": null, "NAME": null, "NAME_EN": null, "NAME_RU": null, "OSM_TYPE": "node", "OSM_ID": 11954689993 }, "geometry": { "type": "Point", "coordinates": [ 38.7890854, 45.0610527 ] } },
{ "type": "Feature", "properties": { "BUILDING": "house", "ADDR_CITY": "Краснодар", "A_STRT": "улица им. Виктора Скоробогатого", "A_SBRB": null, "A_HSNMBR": "28", "A_PLACE": null, "A_PSTCD": null, "B_LEVELS": null, "NAME": null, "NAME_EN": null, "NAME_RU": null, "OSM_TYPE": "node", "OSM_ID": 11954689994 }, "geometry": { "type": "Point", "coordinates": [ 38.7889291, 45.0608701 ] } },
{ "type": "Feature", "properties": { "BUILDING": "house", "ADDR_CITY": "Краснодар", "A_STRT": "улица им. Виктора Скоробогатого", "A_SBRB": null, "A_HSNMBR": "26", "A_PLACE": null, "A_PSTCD": null, "B_LEVELS": null, "NAME": null, "NAME_EN": null, "NAME_RU": null, "OSM_TYPE": "node", "OSM_ID": 11954689995 }, "geometry": { "type": "Point", "coordinates": [ 38.7887757, 45.0606974 ] } },
{ "type": "Feature", "properties": { "BUILDING": "house", "ADDR_CITY": "Краснодар", "A_STRT": "улица им. Виктора Скоробогатого", "A_SBRB": null, "A_HSNMBR": "24", "A_PLACE": null, "A_PSTCD": null, "B_LEVELS": null, "NAME": null, "NAME_EN": null, "NAME_RU": null, "OSM_TYPE": "node", "OSM_ID": 11954689996 }, "geometry": { "type": "Point", "coordinates": [ 38.7886108, 45.0605188 ] } },
{ "type": "Feature", "properties": { "BUILDING": "house", "ADDR_CITY": "Краснодар", "A_STRT": "улица им. Виктора Скоробогатого", "A_SBRB": null, "A_HSNMBR": "22", "A_PLACE": null, "A_PSTCD": null, "B_LEVELS": null, "NAME": null, "NAME_EN": null, "NAME_RU": null, "OSM_TYPE": "node", "OSM_ID": 11954689997 }, "geometry": { "type": "Point", "coordinates": [ 38.7884347, 45.0603321 ] } },
{ "type": "Feature", "properties": { "BUILDING": "house", "ADDR_CITY": "Краснодар", "A_STRT": "улица им. Виктора Скоробогатого", "A_SBRB": null, "A_HSNMBR": "14", "A_PLACE": null, "A_PSTCD": null, "B_LEVELS": null, "NAME": null, "NAME_EN": null, "NAME_RU": null, "OSM_TYPE": "node", "OSM_ID": 11954689998 }, "geometry": { "type": "Point", "coordinates": [ 38.7875651, 45.0593365 ] } },
{ "type": "Feature", "properties": { "BUILDING": "house", "ADDR_CITY": "Краснодар", "A_STRT": "улица им. Виктора Скоробогатого", "A_SBRB": null, "A_HSNMBR": "12", "A_PLACE": null, "A_PSTCD": null, "B_LEVELS": null, "NAME": null, "NAME_EN": null, "NAME_RU": null, "OSM_TYPE": "node", "OSM_ID": 11954689999 }, "geometry": { "type": "Point", "coordinates": [ 38.7874173, 45.0591759 ] } },
{ "type": "Feature", "properties": { "BUILDING": "house", "ADDR_CITY": "Краснодар", "A_STRT": "улица им. Виктора Скоробогатого", "A_SBRB": null, "A_HSNMBR": "10", "A_PLACE": null, "A_PSTCD": null, "B_LEVELS": null, "NAME": null, "NAME_EN": null, "NAME_RU": null, "OSM_TYPE": "node", "OSM_ID": 11954690000 }, "geometry": { "type": "Point", "coordinates": [ 38.787261, 45.0590033 ] } },
{ "type": "Feature", "properties": { "BUILDING": "house", "ADDR_CITY": "Краснодар", "A_STRT": "улица им. Виктора Скоробогатого", "A_SBRB": null, "A_HSNMBR": "8", "A_PLACE": null, "A_PSTCD": null, "B_LEVELS": null, "NAME": null, "NAME_EN": null, "NAME_RU": null, "OSM_TYPE": "node", "OSM_ID": 11954690001 }, "geometry": { "type": "Point", "coordinates": [ 38.7871019, 45.0588327 ] } },
{ "type": "Feature", "properties": { "BUILDING": "house", "ADDR_CITY": "Краснодар", "A_STRT": "улица им. Виктора Скоробогатого", "A_SBRB": null, "A_HSNMBR": "6", "A_PLACE": null, "A_PSTCD": null, "B_LEVELS": null, "NAME": null, "NAME_EN": null, "NAME_RU": null, "OSM_TYPE": "node", "OSM_ID": 11954690002 }, "geometry": { "type": "Point", "coordinates": [ 38.7865535, 45.0582064 ] } },
{ "type": "Feature", "properties": { "BUILDING": "house", "ADDR_CITY": "Краснодар", "A_STRT": "улица им. Виктора Скоробогатого", "A_SBRB": null, "A_HSNMBR": "4", "A_PLACE": null, "A_PSTCD": null, "B_LEVELS": null, "NAME": null, "NAME_EN": null, "NAME_RU": null, "OSM_TYPE": "node", "OSM_ID": 11954690003 }, "geometry": { "type": "Point", "coordinates": [ 38.7864, 45.0580317 ] } },
{ "type": "Feature", "properties": { "BUILDING": "house", "ADDR_CITY": "Краснодар", "A_STRT": "улица им. Виктора Скоробогатого", "A_SBRB": null, "A_HSNMBR": "2", "A_PLACE": null, "A_PSTCD": null, "B_LEVELS": null, "NAME": null, "NAME_EN": null, "NAME_RU": null, "OSM_TYPE": "node", "OSM_ID": 11954690004 }, "geometry": { "type": "Point", "coordinates": [ 38.786238, 45.0578511 ] } },
{ "type": "Feature", "properties": { "BUILDING": "house", "ADDR_CITY": "Краснодар", "A_STRT": "улица им. Виктора Скоробогатого", "A_SBRB": null, "A_HSNMBR": "33", "A_PLACE": null, "A_PSTCD": null, "B_LEVELS": null, "NAME": null, "NAME_EN": null, "NAME_RU": null, "OSM_TYPE": "node", "OSM_ID": 11954697400 }, "geometry": { "type": "Point", "coordinates": [ 38.7885796, 45.0612474 ] } },
{ "type": "Feature", "properties": { "BUILDING": "house", "ADDR_CITY": "Краснодар", "A_STRT": "улица им. Виктора Скоробогатого", "A_SBRB": null, "A_HSNMBR": "31", "A_PLACE": null, "A_PSTCD": null, "B_LEVELS": null, "NAME": null, "NAME_EN": null, "NAME_RU": null, "OSM_TYPE": "node", "OSM_ID": 11954697401 }, "geometry": { "type": "Point", "coordinates": [ 38.7883807, 45.0610166 ] } },
{ "type": "Feature", "properties": { "BUILDING": "house", "ADDR_CITY": "Краснодар", "A_STRT": "улица им. Виктора Скоробогатого", "A_SBRB": null, "A_HSNMBR": "29", "A_PLACE": null, "A_PSTCD": null, "B_LEVELS": null, "NAME": null, "NAME_EN": null, "NAME_RU": null, "OSM_TYPE": "node", "OSM_ID": 11954697402 }, "geometry": { "type": "Point", "coordinates": [ 38.7881988, 45.0608058 ] } },
{ "type": "Feature", "properties": { "BUILDING": "house", "ADDR_CITY": "Краснодар", "A_STRT": "улица им. Виктора Скоробогатого", "A_SBRB": null, "A_HSNMBR": "27", "A_PLACE": null, "A_PSTCD": null, "B_LEVELS": null, "NAME": null, "NAME_EN": null, "NAME_RU": null, "OSM_TYPE": "node", "OSM_ID": 11954697403 }, "geometry": { "type": "Point", "coordinates": [ 38.7880283, 45.0606272 ] } },
{ "type": "Feature", "properties": { "BUILDING": "house", "ADDR_CITY": "Краснодар", "A_STRT": "улица им. Виктора Скоробогатого", "A_SBRB": null, "A_HSNMBR": "23", "A_PLACE": null, "A_PSTCD": null, "B_LEVELS": null, "NAME": null, "NAME_EN": null, "NAME_RU": null, "OSM_TYPE": "node", "OSM_ID": 11954697404 }, "geometry": { "type": "Point", "coordinates": [ 38.7876447, 45.0601956 ] } },
{ "type": "Feature", "properties": { "BUILDING": "house", "ADDR_CITY": "Краснодар", "A_STRT": "улица им. Виктора Скоробогатого", "A_SBRB": null, "A_HSNMBR": "21", "A_PLACE": null, "A_PSTCD": null, "B_LEVELS": null, "NAME": null, "NAME_EN": null, "NAME_RU": null, "OSM_TYPE": "node", "OSM_ID": 11954697405 }, "geometry": { "type": "Point", "coordinates": [ 38.7874372, 45.0599628 ] } },
{ "type": "Feature", "properties": { "BUILDING": "house", "ADDR_CITY": "Краснодар", "A_STRT": "улица им. Виктора Скоробогатого", "A_SBRB": null, "A_HSNMBR": "19", "A_PLACE": null, "A_PSTCD": null, "B_LEVELS": null, "NAME": null, "NAME_EN": null, "NAME_RU": null, "OSM_TYPE": "node", "OSM_ID": 11954697406 }, "geometry": { "type": "Point", "coordinates": [ 38.7872383, 45.059736 ] } },
{ "type": "Feature", "properties": { "BUILDING": "house", "ADDR_CITY": "Краснодар", "A_STRT": "улица им. Виктора Скоробогатого", "A_SBRB": null, "A_HSNMBR": "15", "A_PLACE": null, "A_PSTCD": null, "B_LEVELS": null, "NAME": null, "NAME_EN": null, "NAME_RU": null, "OSM_TYPE": "node", "OSM_ID": 11954697407 }, "geometry": { "type": "Point", "coordinates": [ 38.7868973, 45.0593445 ] } },
{ "type": "Feature", "properties": { "BUILDING": "house", "ADDR_CITY": "Краснодар", "A_STRT": "улица им. Виктора Скоробогатого", "A_SBRB": null, "A_HSNMBR": "13", "A_PLACE": null, "A_PSTCD": null, "B_LEVELS": null, "NAME": null, "NAME_EN": null, "NAME_RU": null, "OSM_TYPE": "node", "OSM_ID": 11954697408 }, "geometry": { "type": "Point", "coordinates": [ 38.7867296, 45.0591659 ] } },
{ "type": "Feature", "properties": { "BUILDING": "house", "ADDR_CITY": "Краснодар", "A_STRT": "улица им. Виктора Скоробогатого", "A_SBRB": null, "A_HSNMBR": "11", "A_PLACE": null, "A_PSTCD": null, "B_LEVELS": null, "NAME": null, "NAME_EN": null, "NAME_RU": null, "OSM_TYPE": "node", "OSM_ID": 11954697409 }, "geometry": { "type": "Point", "coordinates": [ 38.7865705, 45.0589872 ] } },
{ "type": "Feature", "properties": { "BUILDING": "house", "ADDR_CITY": "Краснодар", "A_STRT": "улица им. Виктора Скоробогатого", "A_SBRB": null, "A_HSNMBR": "7", "A_PLACE": null, "A_PSTCD": null, "B_LEVELS": null, "NAME": null, "NAME_EN": null, "NAME_RU": null, "OSM_TYPE": "node", "OSM_ID": 11954697410 }, "geometry": { "type": "Point", "coordinates": [ 38.7859936, 45.0583328 ] } },
{ "type": "Feature", "properties": { "BUILDING": "house", "ADDR_CITY": "Краснодар", "A_STRT": "улица им. Виктора Скоробогатого", "A_SBRB": null, "A_HSNMBR": "5", "A_PLACE": null, "A_PSTCD": null, "B_LEVELS": null, "NAME": null, "NAME_EN": null, "NAME_RU": null, "OSM_TYPE": "node", "OSM_ID": 11954697411 }, "geometry": { "type": "Point", "coordinates": [ 38.7858288, 45.0581562 ] } },
{ "type": "Feature", "properties": { "BUILDING": "house", "ADDR_CITY": "Краснодар", "A_STRT": "улица им. Виктора Скоробогатого", "A_SBRB": null, "A_HSNMBR": "3", "A_PLACE": null, "A_PSTCD": null, "B_LEVELS": null, "NAME": null, "NAME_EN": null, "NAME_RU": null, "OSM_TYPE": "node", "OSM_ID": 11954697412 }, "geometry": { "type": "Point", "coordinates": [ 38.7856782, 45.0579816 ] } },
{ "type": "Feature", "properties": { "BUILDING": "house", "ADDR_CITY": "Краснодар", "A_STRT": "улица им. Степана Булатецкого", "A_SBRB": null, "A_HSNMBR": "5", "A_PLACE": null, "A_PSTCD": null, "B_LEVELS": null, "NAME": null, "NAME_EN": null, "NAME_RU": null, "OSM_TYPE": "node", "OSM_ID": 11954699469 }, "geometry": { "type": "Point", "coordinates": [ 38.7870337, 45.0578551 ] } },
{ "type": "Feature", "properties": { "BUILDING": "house", "ADDR_CITY": "Краснодар", "A_STRT": "улица им. Степана Булатецкого", "A_SBRB": null, "A_HSNMBR": "3", "A_PLACE": null, "A_PSTCD": null, "B_LEVELS": null, "NAME": null, "NAME_EN": null, "NAME_RU": null, "OSM_TYPE": "node", "OSM_ID": 11954699470 }, "geometry": { "type": "Point", "coordinates": [ 38.786778, 45.0578752 ] } },
{ "type": "Feature", "properties": { "BUILDING": "house", "ADDR_CITY": "Краснодар", "A_STRT": "улица им. Степана Булатецкого", "A_SBRB": null, "A_HSNMBR": "1", "A_PLACE": null, "A_PSTCD": null, "B_LEVELS": null, "NAME": null, "NAME_EN": null, "NAME_RU": null, "OSM_TYPE": "node", "OSM_ID": 11954699471 }, "geometry": { "type": "Point", "coordinates": [ 38.7865421, 45.0578872 ] } },
{ "type": "Feature", "properties": { "BUILDING": "house", "ADDR_CITY": "Краснодар", "A_STRT": "улица им. Степана Булатецкого", "A_SBRB": null, "A_HSNMBR": "36", "A_PLACE": null, "A_PSTCD": null, "B_LEVELS": null, "NAME": null, "NAME_EN": null, "NAME_RU": null, "OSM_TYPE": "node", "OSM_ID": 11954699472 }, "geometry": { "type": "Point", "coordinates": [ 38.7906, 45.0572519 ] } },
{ "type": "Feature", "properties": { "BUILDING": "house", "ADDR_CITY": "Краснодар", "A_STRT": "улица им. Степана Булатецкого", "A_SBRB": null, "A_HSNMBR": "34", "A_PLACE": null, "A_PSTCD": null, "B_LEVELS": null, "NAME": null, "NAME_EN": null, "NAME_RU": null, "OSM_TYPE": "node", "OSM_ID": 11954699473 }, "geometry": { "type": "Point", "coordinates": [ 38.7902917, 45.0572037 ] } },
{ "type": "Feature", "properties": { "BUILDING": "house", "ADDR_CITY": "Краснодар", "A_STRT": "улица им. Степана Булатецкого", "A_SBRB": null, "A_HSNMBR": "32", "A_PLACE": null, "A_PSTCD": null, "B_LEVELS": null, "NAME": null, "NAME_EN": null, "NAME_RU": null, "OSM_TYPE": "node", "OSM_ID": 11954699474 }, "geometry": { "type": "Point", "coordinates": [ 38.7900033, 45.0572288 ] } },
{ "type": "Feature", "properties": { "BUILDING": "house", "ADDR_CITY": "Краснодар", "A_STRT": "улица им. Степана Булатецкого", "A_SBRB": null, "A_HSNMBR": "30", "A_PLACE": null, "A_PSTCD": null, "B_LEVELS": null, "NAME": null, "NAME_EN": null, "NAME_RU": null, "OSM_TYPE": "node", "OSM_ID": 11954699475 }, "geometry": { "type": "Point", "coordinates": [ 38.7897134, 45.0572429 ] } },
{ "type": "Feature", "properties": { "BUILDING": "house", "ADDR_CITY": "Краснодар", "A_STRT": "улица им. Степана Булатецкого", "A_SBRB": null, "A_HSNMBR": "28", "A_PLACE": null, "A_PSTCD": null, "B_LEVELS": null, "NAME": null, "NAME_EN": null, "NAME_RU": null, "OSM_TYPE": "node", "OSM_ID": 11954699476 }, "geometry": { "type": "Point", "coordinates": [ 38.7894221, 45.0572639 ] } },
{ "type": "Feature", "properties": { "BUILDING": "house", "ADDR_CITY": "Краснодар", "A_STRT": "улица им. Степана Булатецкого", "A_SBRB": null, "A_HSNMBR": "26", "A_PLACE": null, "A_PSTCD": null, "B_LEVELS": null, "NAME": null, "NAME_EN": null, "NAME_RU": null, "OSM_TYPE": "node", "OSM_ID": 11954699477 }, "geometry": { "type": "Point", "coordinates": [ 38.7891195, 45.057282 ] } },
{ "type": "Feature", "properties": { "BUILDING": "house", "ADDR_CITY": "Краснодар", "A_STRT": "улица им. Степана Булатецкого", "A_SBRB": null, "A_HSNMBR": "24", "A_PLACE": null, "A_PSTCD": null, "B_LEVELS": null, "NAME": null, "NAME_EN": null, "NAME_RU": null, "OSM_TYPE": "node", "OSM_ID": 11954699478 }, "geometry": { "type": "Point", "coordinates": [ 38.7888169, 45.0572991 ] } },
{ "type": "Feature", "properties": { "BUILDING": "house", "ADDR_CITY": "Краснодар", "A_STRT": "улица им. Степана Булатецкого", "A_SBRB": null, "A_HSNMBR": "22", "A_PLACE": null, "A_PSTCD": null, "B_LEVELS": null, "NAME": null, "NAME_EN": null, "NAME_RU": null, "OSM_TYPE": "node", "OSM_ID": 11954699479 }, "geometry": { "type": "Point", "coordinates": [ 38.7885128, 45.0573231 ] } },
{ "type": "Feature", "properties": { "BUILDING": "house", "ADDR_CITY": "Краснодар", "A_STRT": "улица им. Степана Булатецкого", "A_SBRB": null, "A_HSNMBR": "20", "A_PLACE": null, "A_PSTCD": null, "B_LEVELS": null, "NAME": null, "NAME_EN": null, "NAME_RU": null, "OSM_TYPE": "node", "OSM_ID": 11954699480 }, "geometry": { "type": "Point", "coordinates": [ 38.7882087, 45.0573422 ] } },
{ "type": "Feature", "properties": { "BUILDING": "house", "ADDR_CITY": "Краснодар", "A_STRT": "улица им. Степана Булатецкого", "A_SBRB": null, "A_HSNMBR": "18", "A_PLACE": null, "A_PSTCD": null, "B_LEVELS": null, "NAME": null, "NAME_EN": null, "NAME_RU": null, "OSM_TYPE": "node", "OSM_ID": 11954699481 }, "geometry": { "type": "Point", "coordinates": [ 38.7879033, 45.0573643 ] } },
{ "type": "Feature", "properties": { "BUILDING": "house", "ADDR_CITY": "Краснодар", "A_STRT": "улица им. Степана Булатецкого", "A_SBRB": null, "A_HSNMBR": "16", "A_PLACE": null, "A_PSTCD": null, "B_LEVELS": null, "NAME": null, "NAME_EN": null, "NAME_RU": null, "OSM_TYPE": "node", "OSM_ID": 11954699482 }, "geometry": { "type": "Point", "coordinates": [ 38.7876006, 45.0573854 ] } },
{ "type": "Feature", "properties": { "BUILDING": "house", "ADDR_CITY": "Краснодар", "A_STRT": "улица им. Степана Булатецкого", "A_SBRB": null, "A_HSNMBR": "14", "A_PLACE": null, "A_PSTCD": null, "B_LEVELS": null, "NAME": null, "NAME_EN": null, "NAME_RU": null, "OSM_TYPE": "node", "OSM_ID": 11954699483 }, "geometry": { "type": "Point", "coordinates": [ 38.7873008, 45.0574044 ] } },
{ "type": "Feature", "properties": { "BUILDING": "house", "ADDR_CITY": "Краснодар", "A_STRT": "улица им. Степана Булатецкого", "A_SBRB": null, "A_HSNMBR": "12", "A_PLACE": null, "A_PSTCD": null, "B_LEVELS": null, "NAME": null, "NAME_EN": null, "NAME_RU": null, "OSM_TYPE": "node", "OSM_ID": 11954699484 }, "geometry": { "type": "Point", "coordinates": [ 38.7869953, 45.0574255 ] } },
{ "type": "Feature", "properties": { "BUILDING": "house", "ADDR_CITY": "Краснодар", "A_STRT": "улица им. Степана Булатецкого", "A_SBRB": null, "A_HSNMBR": "10", "A_PLACE": null, "A_PSTCD": null, "B_LEVELS": null, "NAME": null, "NAME_EN": null, "NAME_RU": null, "OSM_TYPE": "node", "OSM_ID": 11954699485 }, "geometry": { "type": "Point", "coordinates": [ 38.7866941, 45.0574446 ] } },
{ "type": "Feature", "properties": { "BUILDING": "house", "ADDR_CITY": "Краснодар", "A_STRT": "улица им. Степана Булатецкого", "A_SBRB": null, "A_HSNMBR": "8", "A_PLACE": null, "A_PSTCD": null, "B_LEVELS": null, "NAME": null, "NAME_EN": null, "NAME_RU": null, "OSM_TYPE": "node", "OSM_ID": 11954699486 }, "geometry": { "type": "Point", "coordinates": [ 38.7863858, 45.0574647 ] } },
{ "type": "Feature", "properties": { "BUILDING": "house", "ADDR_CITY": "Краснодар", "A_STRT": "улица им. Степана Булатецкого", "A_SBRB": null, "A_HSNMBR": "6", "A_PLACE": null, "A_PSTCD": null, "B_LEVELS": null, "NAME": null, "NAME_EN": null, "NAME_RU": null, "OSM_TYPE": "node", "OSM_ID": 11954699487 }, "geometry": { "type": "Point", "coordinates": [ 38.7860846, 45.0574878 ] } },
{ "type": "Feature", "properties": { "BUILDING": "house", "ADDR_CITY": "Краснодар", "A_STRT": "улица им. Василия Гамалия", "A_SBRB": null, "A_HSNMBR": "33", "A_PLACE": null, "A_PSTCD": null, "B_LEVELS": null, "NAME": null, "NAME_EN": null, "NAME_RU": null, "OSM_TYPE": "node", "OSM_ID": 11954704902 }, "geometry": { "type": "Point", "coordinates": [ 38.7927013, 45.0576491 ] } },
{ "type": "Feature", "properties": { "BUILDING": "house", "ADDR_CITY": "Краснодар", "A_STRT": "улица им. Василия Гамалия", "A_SBRB": null, "A_HSNMBR": "29", "A_PLACE": null, "A_PSTCD": null, "B_LEVELS": null, "NAME": null, "NAME_EN": null, "NAME_RU": null, "OSM_TYPE": "node", "OSM_ID": 11954704903 }, "geometry": { "type": "Point", "coordinates": [ 38.7919651, 45.0578382 ] } },
{ "type": "Feature", "properties": { "BUILDING": "house", "ADDR_CITY": "Краснодар", "A_STRT": "улица им. Василия Гамалия", "A_SBRB": null, "A_HSNMBR": "27", "A_PLACE": null, "A_PSTCD": null, "B_LEVELS": null, "NAME": null, "NAME_EN": null, "NAME_RU": null, "OSM_TYPE": "node", "OSM_ID": 11954704904 }, "geometry": { "type": "Point", "coordinates": [ 38.7916599, 45.0578949 ] } },
{ "type": "Feature", "properties": { "BUILDING": "house", "ADDR_CITY": "Краснодар", "A_STRT": "улица им. Василия Гамалия", "A_SBRB": null, "A_HSNMBR": "25", "A_PLACE": null, "A_PSTCD": null, "B_LEVELS": null, "NAME": null, "NAME_EN": null, "NAME_RU": null, "OSM_TYPE": "node", "OSM_ID": 11954704905 }, "geometry": { "type": "Point", "coordinates": [ 38.7913601, 45.0579328 ] } },
{ "type": "Feature", "properties": { "BUILDING": "house", "ADDR_CITY": "Краснодар", "A_STRT": "улица им. Василия Гамалия", "A_SBRB": null, "A_HSNMBR": "19", "A_PLACE": null, "A_PSTCD": null, "B_LEVELS": null, "NAME": null, "NAME_EN": null, "NAME_RU": null, "OSM_TYPE": "node", "OSM_ID": 11954704906 }, "geometry": { "type": "Point", "coordinates": [ 38.7904526, 45.0580822 ] } },
{ "type": "Feature", "properties": { "BUILDING": "house", "ADDR_CITY": "Краснодар", "A_STRT": "улица им. Василия Гамалия", "A_SBRB": null, "A_HSNMBR": "17", "A_PLACE": null, "A_PSTCD": null, "B_LEVELS": null, "NAME": null, "NAME_EN": null, "NAME_RU": null, "OSM_TYPE": "node", "OSM_ID": 11954704907 }, "geometry": { "type": "Point", "coordinates": [ 38.7901314, 45.058137 ] } },
{ "type": "Feature", "properties": { "BUILDING": "house", "ADDR_CITY": "Краснодар", "A_STRT": "улица им. Василия Гамалия", "A_SBRB": null, "A_HSNMBR": "15", "A_PLACE": null, "A_PSTCD": null, "B_LEVELS": null, "NAME": null, "NAME_EN": null, "NAME_RU": null, "OSM_TYPE": "node", "OSM_ID": 11954704908 }, "geometry": { "type": "Point", "coordinates": [ 38.7898075, 45.0581899 ] } },
{ "type": "Feature", "properties": { "BUILDING": "house", "ADDR_CITY": "Краснодар", "A_STRT": "улица им. Василия Гамалия", "A_SBRB": null, "A_HSNMBR": "9", "A_PLACE": null, "A_PSTCD": null, "B_LEVELS": null, "NAME": null, "NAME_EN": null, "NAME_RU": null, "OSM_TYPE": "node", "OSM_ID": 11954704909 }, "geometry": { "type": "Point", "coordinates": [ 38.7881451, 45.0584603 ] } },
{ "type": "Feature", "properties": { "BUILDING": "house", "ADDR_CITY": "Краснодар", "A_STRT": "улица им. Василия Гамалия", "A_SBRB": null, "A_HSNMBR": "7", "A_PLACE": null, "A_PSTCD": null, "B_LEVELS": null, "NAME": null, "NAME_EN": null, "NAME_RU": null, "OSM_TYPE": "node", "OSM_ID": 11954704910 }, "geometry": { "type": "Point", "coordinates": [ 38.7878506, 45.058519 ] } },
{ "type": "Feature", "properties": { "BUILDING": "house", "ADDR_CITY": "Краснодар", "A_STRT": "улица им. Василия Гамалия", "A_SBRB": null, "A_HSNMBR": "5", "A_PLACE": null, "A_PSTCD": null, "B_LEVELS": null, "NAME": null, "NAME_EN": null, "NAME_RU": null, "OSM_TYPE": "node", "OSM_ID": 11954704911 }, "geometry": { "type": "Point", "coordinates": [ 38.7875508, 45.0585662 ] } },
{ "type": "Feature", "properties": { "BUILDING": "house", "ADDR_CITY": "Краснодар", "A_STRT": "улица им. Василия Гамалия", "A_SBRB": null, "A_HSNMBR": "3", "A_PLACE": null, "A_PSTCD": null, "B_LEVELS": null, "NAME": null, "NAME_EN": null, "NAME_RU": null, "OSM_TYPE": "node", "OSM_ID": 11954704912 }, "geometry": { "type": "Point", "coordinates": [ 38.7872617, 45.0586135 ] } },
{ "type": "Feature", "properties": { "BUILDING": "house", "ADDR_CITY": "Краснодар", "A_STRT": "улица им. Виктора Скоробогатого", "A_SBRB": null, "A_HSNMBR": "91", "A_PLACE": null, "A_PSTCD": null, "B_LEVELS": null, "NAME": null, "NAME_EN": null, "NAME_RU": null, "OSM_TYPE": "node", "OSM_ID": 11954705569 }, "geometry": { "type": "Point", "coordinates": [ 38.7978591, 45.0619339 ] } },
{ "type": "Feature", "properties": { "BUILDING": "house", "ADDR_CITY": "Краснодар", "A_STRT": "улица им. Виктора Скоробогатого", "A_SBRB": null, "A_HSNMBR": "89", "A_PLACE": null, "A_PSTCD": null, "B_LEVELS": null, "NAME": null, "NAME_EN": null, "NAME_RU": null, "OSM_TYPE": "node", "OSM_ID": 11954705570 }, "geometry": { "type": "Point", "coordinates": [ 38.7974968, 45.0618596 ] } },
{ "type": "Feature", "properties": { "BUILDING": "house", "ADDR_CITY": "Краснодар", "A_STRT": "улица им. Виктора Скоробогатого", "A_SBRB": null, "A_HSNMBR": "87", "A_PLACE": null, "A_PSTCD": null, "B_LEVELS": null, "NAME": null, "NAME_EN": null, "NAME_RU": null, "OSM_TYPE": "node", "OSM_ID": 11954705571 }, "geometry": { "type": "Point", "coordinates": [ 38.7971416, 45.0617854 ] } },
{ "type": "Feature", "properties": { "BUILDING": "house", "ADDR_CITY": "Краснодар", "A_STRT": "улица им. Виктора Скоробогатого", "A_SBRB": null, "A_HSNMBR": "85", "A_PLACE": null, "A_PSTCD": null, "B_LEVELS": null, "NAME": null, "NAME_EN": null, "NAME_RU": null, "OSM_TYPE": "node", "OSM_ID": 11954705572 }, "geometry": { "type": "Point", "coordinates": [ 38.7967622, 45.0617211 ] } },
{ "type": "Feature", "properties": { "BUILDING": "house", "ADDR_CITY": "Краснодар", "A_STRT": "улица им. Виктора Скоробогатого", "A_SBRB": null, "A_HSNMBR": "83", "A_PLACE": null, "A_PSTCD": null, "B_LEVELS": null, "NAME": null, "NAME_EN": null, "NAME_RU": null, "OSM_TYPE": "node", "OSM_ID": 11954705573 }, "geometry": { "type": "Point", "coordinates": [ 38.7963971, 45.0616529 ] } },
{ "type": "Feature", "properties": { "BUILDING": "house", "ADDR_CITY": "Краснодар", "A_STRT": "улица им. Виктора Скоробогатого", "A_SBRB": null, "A_HSNMBR": "81", "A_PLACE": null, "A_PSTCD": null, "B_LEVELS": null, "NAME": null, "NAME_EN": null, "NAME_RU": null, "OSM_TYPE": "node", "OSM_ID": 11954705574 }, "geometry": { "type": "Point", "coordinates": [ 38.7960547, 45.0615957 ] } },
{ "type": "Feature", "properties": { "BUILDING": "house", "ADDR_CITY": "Краснодар", "A_STRT": "улица им. Виктора Скоробогатого", "A_SBRB": null, "A_HSNMBR": "79", "A_PLACE": null, "A_PSTCD": null, "B_LEVELS": null, "NAME": null, "NAME_EN": null, "NAME_RU": null, "OSM_TYPE": "node", "OSM_ID": 11954705575 }, "geometry": { "type": "Point", "coordinates": [ 38.7957321, 45.0615314 ] } },
{ "type": "Feature", "properties": { "BUILDING": "house", "ADDR_CITY": "Краснодар", "A_STRT": "улица им. Виктора Скоробогатого", "A_SBRB": null, "A_HSNMBR": "77", "A_PLACE": null, "A_PSTCD": null, "B_LEVELS": null, "NAME": null, "NAME_EN": null, "NAME_RU": null, "OSM_TYPE": "node", "OSM_ID": 11954705576 }, "geometry": { "type": "Point", "coordinates": [ 38.7954096, 45.0614762 ] } },
{ "type": "Feature", "properties": { "BUILDING": "house", "ADDR_CITY": "Краснодар", "A_STRT": "улица им. Виктора Скоробогатого", "A_SBRB": null, "A_HSNMBR": "75", "A_PLACE": null, "A_PSTCD": null, "B_LEVELS": null, "NAME": null, "NAME_EN": null, "NAME_RU": null, "OSM_TYPE": "node", "OSM_ID": 11954705577 }, "geometry": { "type": "Point", "coordinates": [ 38.7951183, 45.0614461 ] } },
{ "type": "Feature", "properties": { "BUILDING": "house", "ADDR_CITY": "Краснодар", "A_STRT": "улица им. Виктора Скоробогатого", "A_SBRB": null, "A_HSNMBR": "73", "A_PLACE": null, "A_PSTCD": null, "B_LEVELS": null, "NAME": null, "NAME_EN": null, "NAME_RU": null, "OSM_TYPE": "node", "OSM_ID": 11954705578 }, "geometry": { "type": "Point", "coordinates": [ 38.7948072, 45.061416 ] } },
{ "type": "Feature", "properties": { "BUILDING": "house", "ADDR_CITY": "Краснодар", "A_STRT": "улица им. Виктора Скоробогатого", "A_SBRB": null, "A_HSNMBR": "71", "A_PLACE": null, "A_PSTCD": null, "B_LEVELS": null, "NAME": null, "NAME_EN": null, "NAME_RU": null, "OSM_TYPE": "node", "OSM_ID": 11954705579 }, "geometry": { "type": "Point", "coordinates": [ 38.7945003, 45.0613909 ] } },
{ "type": "Feature", "properties": { "BUILDING": "house", "ADDR_CITY": "Краснодар", "A_STRT": "улица им. Виктора Скоробогатого", "A_SBRB": null, "A_HSNMBR": "69", "A_PLACE": null, "A_PSTCD": null, "B_LEVELS": null, "NAME": null, "NAME_EN": null, "NAME_RU": null, "OSM_TYPE": "node", "OSM_ID": 11954705580 }, "geometry": { "type": "Point", "coordinates": [ 38.7942132, 45.0613658 ] } },
{ "type": "Feature", "properties": { "BUILDING": "house", "ADDR_CITY": "Краснодар", "A_STRT": "улица им. Виктора Скоробогатого", "A_SBRB": null, "A_HSNMBR": "67", "A_PLACE": null, "A_PSTCD": null, "B_LEVELS": null, "NAME": null, "NAME_EN": null, "NAME_RU": null, "OSM_TYPE": "node", "OSM_ID": 11954705581 }, "geometry": { "type": "Point", "coordinates": [ 38.7939262, 45.0613478 ] } },
{ "type": "Feature", "properties": { "BUILDING": "house", "ADDR_CITY": "Краснодар", "A_STRT": "улица им. Виктора Скоробогатого", "A_SBRB": null, "A_HSNMBR": "65", "A_PLACE": null, "A_PSTCD": null, "B_LEVELS": null, "NAME": null, "NAME_EN": null, "NAME_RU": null, "OSM_TYPE": "node", "OSM_ID": 11954705582 }, "geometry": { "type": "Point", "coordinates": [ 38.7936065, 45.0613317 ] } },
{ "type": "Feature", "properties": { "BUILDING": "house", "ADDR_CITY": "Краснодар", "A_STRT": "улица им. Виктора Скоробогатого", "A_SBRB": null, "A_HSNMBR": "63", "A_PLACE": null, "A_PSTCD": null, "B_LEVELS": null, "NAME": null, "NAME_EN": null, "NAME_RU": null, "OSM_TYPE": "node", "OSM_ID": 11954705583 }, "geometry": { "type": "Point", "coordinates": [ 38.7933039, 45.0613227 ] } },
{ "type": "Feature", "properties": { "BUILDING": "house", "ADDR_CITY": "Краснодар", "A_STRT": "улица им. Виктора Скоробогатого", "A_SBRB": null, "A_HSNMBR": "61", "A_PLACE": null, "A_PSTCD": null, "B_LEVELS": null, "NAME": null, "NAME_EN": null, "NAME_RU": null, "OSM_TYPE": "node", "OSM_ID": 11954705584 }, "geometry": { "type": "Point", "coordinates": [ 38.7929956, 45.0613157 ] } },
{ "type": "Feature", "properties": { "BUILDING": "house", "ADDR_CITY": "Краснодар", "A_STRT": "улица им. Виктора Скоробогатого", "A_SBRB": null, "A_HSNMBR": "59", "A_PLACE": null, "A_PSTCD": null, "B_LEVELS": null, "NAME": null, "NAME_EN": null, "NAME_RU": null, "OSM_TYPE": "node", "OSM_ID": 11954705585 }, "geometry": { "type": "Point", "coordinates": [ 38.7926745, 45.0613157 ] } },
{ "type": "Feature", "properties": { "BUILDING": "house", "ADDR_CITY": "Краснодар", "A_STRT": "улица им. Виктора Скоробогатого", "A_SBRB": null, "A_HSNMBR": "57", "A_PLACE": null, "A_PSTCD": null, "B_LEVELS": null, "NAME": null, "NAME_EN": null, "NAME_RU": null, "OSM_TYPE": "node", "OSM_ID": 11954705586 }, "geometry": { "type": "Point", "coordinates": [ 38.7923292, 45.0613387 ] } },
{ "type": "Feature", "properties": { "BUILDING": "house", "ADDR_CITY": "Краснодар", "A_STRT": "улица им. Виктора Скоробогатого", "A_SBRB": null, "A_HSNMBR": "55", "A_PLACE": null, "A_PSTCD": null, "B_LEVELS": null, "NAME": null, "NAME_EN": null, "NAME_RU": null, "OSM_TYPE": "node", "OSM_ID": 11954705587 }, "geometry": { "type": "Point", "coordinates": [ 38.7919456, 45.0613598 ] } },
{ "type": "Feature", "properties": { "BUILDING": "house", "ADDR_CITY": "Краснодар", "A_STRT": "улица им. Виктора Скоробогатого", "A_SBRB": null, "A_HSNMBR": "53", "A_PLACE": null, "A_PSTCD": null, "B_LEVELS": null, "NAME": null, "NAME_EN": null, "NAME_RU": null, "OSM_TYPE": "node", "OSM_ID": 11954705588 }, "geometry": { "type": "Point", "coordinates": [ 38.791569, 45.0613889 ] } },
{ "type": "Feature", "properties": { "BUILDING": "house", "ADDR_CITY": "Краснодар", "A_STRT": "улица им. Виктора Скоробогатого", "A_SBRB": null, "A_HSNMBR": "51", "A_PLACE": null, "A_PSTCD": null, "B_LEVELS": null, "NAME": null, "NAME_EN": null, "NAME_RU": null, "OSM_TYPE": "node", "OSM_ID": 11954705589 }, "geometry": { "type": "Point", "coordinates": [ 38.7911911, 45.061413 ] } },
{ "type": "Feature", "properties": { "BUILDING": "house", "ADDR_CITY": "Краснодар", "A_STRT": "улица им. Виктора Скоробогатого", "A_SBRB": null, "A_HSNMBR": "49", "A_PLACE": null, "A_PSTCD": null, "B_LEVELS": null, "NAME": null, "NAME_EN": null, "NAME_RU": null, "OSM_TYPE": "node", "OSM_ID": 11954705590 }, "geometry": { "type": "Point", "coordinates": [ 38.7907989, 45.0614451 ] } },
{ "type": "Feature", "properties": { "BUILDING": "house", "ADDR_CITY": "Краснодар", "A_STRT": "улица им. Виктора Скоробогатого", "A_SBRB": null, "A_HSNMBR": "47", "A_PLACE": null, "A_PSTCD": null, "B_LEVELS": null, "NAME": null, "NAME_EN": null, "NAME_RU": null, "OSM_TYPE": "node", "OSM_ID": 11954705591 }, "geometry": { "type": "Point", "coordinates": [ 38.7904565, 45.0614883 ] } },
{ "type": "Feature", "properties": { "BUILDING": "house", "ADDR_CITY": "Краснодар", "A_STRT": "улица им. Виктора Скоробогатого", "A_SBRB": null, "A_HSNMBR": "45", "A_PLACE": null, "A_PSTCD": null, "B_LEVELS": null, "NAME": null, "NAME_EN": null, "NAME_RU": null, "OSM_TYPE": "node", "OSM_ID": 11954705592 }, "geometry": { "type": "Point", "coordinates": [ 38.7901624, 45.0615274 ] } },
{ "type": "Feature", "properties": { "BUILDING": "house", "ADDR_CITY": "Краснодар", "A_STRT": "улица им. Виктора Скоробогатого", "A_SBRB": null, "A_HSNMBR": "43", "A_PLACE": null, "A_PSTCD": null, "B_LEVELS": null, "NAME": null, "NAME_EN": null, "NAME_RU": null, "OSM_TYPE": "node", "OSM_ID": 11954705593 }, "geometry": { "type": "Point", "coordinates": [ 38.7898655, 45.0615595 ] } },
{ "type": "Feature", "properties": { "BUILDING": "house", "ADDR_CITY": "Краснодар", "A_STRT": "улица им. Виктора Скоробогатого", "A_SBRB": null, "A_HSNMBR": "41", "A_PLACE": null, "A_PSTCD": null, "B_LEVELS": null, "NAME": null, "NAME_EN": null, "NAME_RU": null, "OSM_TYPE": "node", "OSM_ID": 11954705594 }, "geometry": { "type": "Point", "coordinates": [ 38.7895671, 45.0615967 ] } },
{ "type": "Feature", "properties": { "BUILDING": "house", "ADDR_CITY": "Краснодар", "A_STRT": "улица им. Виктора Скоробогатого", "A_SBRB": null, "A_HSNMBR": "39", "A_PLACE": null, "A_PSTCD": null, "B_LEVELS": null, "NAME": null, "NAME_EN": null, "NAME_RU": null, "OSM_TYPE": "node", "OSM_ID": 11954705595 }, "geometry": { "type": "Point", "coordinates": [ 38.7892815, 45.0616228 ] } },
{ "type": "Feature", "properties": { "BUILDING": "house", "ADDR_CITY": "Краснодар", "A_STRT": "Куренной проезд", "A_SBRB": null, "A_HSNMBR": "10", "A_PLACE": null, "A_PSTCD": null, "B_LEVELS": null, "NAME": null, "NAME_EN": null, "NAME_RU": null, "OSM_TYPE": "node", "OSM_ID": 11954717176 }, "geometry": { "type": "Point", "coordinates": [ 38.7880715, 45.0586485 ] } },
{ "type": "Feature", "properties": { "BUILDING": "house", "ADDR_CITY": "Краснодар", "A_STRT": "Куренной проезд", "A_SBRB": null, "A_HSNMBR": "2", "A_PLACE": null, "A_PSTCD": null, "B_LEVELS": null, "NAME": null, "NAME_EN": null, "NAME_RU": null, "OSM_TYPE": "node", "OSM_ID": 11954717177 }, "geometry": { "type": "Point", "coordinates": [ 38.7877527, 45.0592301 ] } },
{ "type": "Feature", "properties": { "BUILDING": "house", "ADDR_CITY": "Краснодар", "A_STRT": "Куренной проезд", "A_SBRB": null, "A_HSNMBR": "5", "A_PLACE": null, "A_PSTCD": null, "B_LEVELS": null, "NAME": null, "NAME_EN": null, "NAME_RU": null, "OSM_TYPE": "node", "OSM_ID": 11954717178 }, "geometry": { "type": "Point", "coordinates": [ 38.7881732, 45.0593144 ] } },
{ "type": "Feature", "properties": { "BUILDING": "house", "ADDR_CITY": "Краснодар", "A_STRT": "Куренной проезд", "A_SBRB": null, "A_HSNMBR": "1", "A_PLACE": null, "A_PSTCD": null, "B_LEVELS": null, "NAME": null, "NAME_EN": null, "NAME_RU": null, "OSM_TYPE": "node", "OSM_ID": 11954717179 }, "geometry": { "type": "Point", "coordinates": [ 38.7881476, 45.0597199 ] } },
{ "type": "Feature", "properties": { "BUILDING": "house", "ADDR_CITY": "Краснодар", "A_STRT": "улица им. Василия Гамалия", "A_SBRB": null, "A_HSNMBR": "54", "A_PLACE": null, "A_PSTCD": null, "B_LEVELS": null, "NAME": null, "NAME_EN": null, "NAME_RU": null, "OSM_TYPE": "node", "OSM_ID": 11954737587 }, "geometry": { "type": "Point", "coordinates": [ 38.795132, 45.0568643 ] } },
{ "type": "Feature", "properties": { "BUILDING": "house", "ADDR_CITY": "Краснодар", "A_STRT": "улица им. Василия Гамалия", "A_SBRB": null, "A_HSNMBR": "52", "A_PLACE": null, "A_PSTCD": null, "B_LEVELS": null, "NAME": null, "NAME_EN": null, "NAME_RU": null, "OSM_TYPE": "node", "OSM_ID": 11954737588 }, "geometry": { "type": "Point", "coordinates": [ 38.7946983, 45.0569192 ] } },
{ "type": "Feature", "properties": { "BUILDING": "house", "ADDR_CITY": "Краснодар", "A_STRT": "улица им. Василия Гамалия", "A_SBRB": null, "A_HSNMBR": "50", "A_PLACE": null, "A_PSTCD": null, "B_LEVELS": null, "NAME": null, "NAME_EN": null, "NAME_RU": null, "OSM_TYPE": "node", "OSM_ID": 11954737589 }, "geometry": { "type": "Point", "coordinates": [ 38.7943744, 45.0569683 ] } },
{ "type": "Feature", "properties": { "BUILDING": "house", "ADDR_CITY": "Краснодар", "A_STRT": "улица им. Василия Гамалия", "A_SBRB": null, "A_HSNMBR": "48", "A_PLACE": null, "A_PSTCD": null, "B_LEVELS": null, "NAME": null, "NAME_EN": null, "NAME_RU": null, "OSM_TYPE": "node", "OSM_ID": 11954737590 }, "geometry": { "type": "Point", "coordinates": [ 38.7940853, 45.0570156 ] } },
{ "type": "Feature", "properties": { "BUILDING": "house", "ADDR_CITY": "Краснодар", "A_STRT": "улица им. Василия Гамалия", "A_SBRB": null, "A_HSNMBR": "44", "A_PLACE": null, "A_PSTCD": null, "B_LEVELS": null, "NAME": null, "NAME_EN": null, "NAME_RU": null, "OSM_TYPE": "node", "OSM_ID": 11954737591 }, "geometry": { "type": "Point", "coordinates": [ 38.7936008, 45.0571026 ] } },
{ "type": "Feature", "properties": { "BUILDING": "house", "ADDR_CITY": "Краснодар", "A_STRT": "улица им. Василия Гамалия", "A_SBRB": null, "A_HSNMBR": "40", "A_PLACE": null, "A_PSTCD": null, "B_LEVELS": null, "NAME": null, "NAME_EN": null, "NAME_RU": null, "OSM_TYPE": "node", "OSM_ID": 11954737592 }, "geometry": { "type": "Point", "coordinates": [ 38.7930787, 45.0571707 ] } },
{ "type": "Feature", "properties": { "BUILDING": "house", "ADDR_CITY": "Краснодар", "A_STRT": "улица им. Василия Гамалия", "A_SBRB": null, "A_HSNMBR": "38", "A_PLACE": null, "A_PSTCD": null, "B_LEVELS": null, "NAME": null, "NAME_EN": null, "NAME_RU": null, "OSM_TYPE": "node", "OSM_ID": 11954737593 }, "geometry": { "type": "Point", "coordinates": [ 38.7928084, 45.0572085 ] } },
{ "type": "Feature", "properties": { "BUILDING": "house", "ADDR_CITY": "Краснодар", "A_STRT": "улица им. Василия Гамалия", "A_SBRB": null, "A_HSNMBR": "36", "A_PLACE": null, "A_PSTCD": null, "B_LEVELS": null, "NAME": null, "NAME_EN": null, "NAME_RU": null, "OSM_TYPE": "node", "OSM_ID": 11954737594 }, "geometry": { "type": "Point", "coordinates": [ 38.7925326, 45.0572596 ] } },
{ "type": "Feature", "properties": { "BUILDING": "house", "ADDR_CITY": "Краснодар", "A_STRT": "улица им. Василия Гамалия", "A_SBRB": null, "A_HSNMBR": "32", "A_PLACE": null, "A_PSTCD": null, "B_LEVELS": null, "NAME": null, "NAME_EN": null, "NAME_RU": null, "OSM_TYPE": "node", "OSM_ID": 11954737595 }, "geometry": { "type": "Point", "coordinates": [ 38.7919143, 45.0573579 ] } },
{ "type": "Feature", "properties": { "BUILDING": "house", "ADDR_CITY": "Краснодар", "A_STRT": "улица им. Василия Гамалия", "A_SBRB": null, "A_HSNMBR": "30", "A_PLACE": null, "A_PSTCD": null, "B_LEVELS": null, "NAME": null, "NAME_EN": null, "NAME_RU": null, "OSM_TYPE": "node", "OSM_ID": 11954737596 }, "geometry": { "type": "Point", "coordinates": [ 38.7915984, 45.0573995 ] } },
{ "type": "Feature", "properties": { "BUILDING": "house", "ADDR_CITY": "Краснодар", "A_STRT": "улица им. Василия Гамалия", "A_SBRB": null, "A_HSNMBR": "28", "A_PLACE": null, "A_PSTCD": null, "B_LEVELS": null, "NAME": null, "NAME_EN": null, "NAME_RU": null, "OSM_TYPE": "node", "OSM_ID": 11954737597 }, "geometry": { "type": "Point", "coordinates": [ 38.7912878, 45.0574468 ] } },
{ "type": "Feature", "properties": { "BUILDING": "house", "ADDR_CITY": "Краснодар", "A_STRT": "улица им. Василия Гамалия", "A_SBRB": null, "A_HSNMBR": "26", "A_PLACE": null, "A_PSTCD": null, "B_LEVELS": null, "NAME": null, "NAME_EN": null, "NAME_RU": null, "OSM_TYPE": "node", "OSM_ID": 11954737598 }, "geometry": { "type": "Point", "coordinates": [ 38.7909827, 45.0574959 ] } },
{ "type": "Feature", "properties": { "BUILDING": "house", "ADDR_CITY": "Краснодар", "A_STRT": "улица им. Василия Гамалия", "A_SBRB": null, "A_HSNMBR": "20", "A_PLACE": null, "A_PSTCD": null, "B_LEVELS": null, "NAME": null, "NAME_EN": null, "NAME_RU": null, "OSM_TYPE": "node", "OSM_ID": 11954737599 }, "geometry": { "type": "Point", "coordinates": [ 38.7898342, 45.0576718 ] } },
{ "type": "Feature", "properties": { "BUILDING": "house", "ADDR_CITY": "Краснодар", "A_STRT": "улица им. Василия Гамалия", "A_SBRB": null, "A_HSNMBR": "18", "A_PLACE": null, "A_PSTCD": null, "B_LEVELS": null, "NAME": null, "NAME_EN": null, "NAME_RU": null, "OSM_TYPE": "node", "OSM_ID": 11954737600 }, "geometry": { "type": "Point", "coordinates": [ 38.7894809, 45.057738 ] } },
{ "type": "Feature", "properties": { "BUILDING": "house", "ADDR_CITY": "Краснодар", "A_STRT": "улица им. Василия Гамалия", "A_SBRB": null, "A_HSNMBR": "16", "A_PLACE": null, "A_PSTCD": null, "B_LEVELS": null, "NAME": null, "NAME_EN": null, "NAME_RU": null, "OSM_TYPE": "node", "OSM_ID": 11954737601 }, "geometry": { "type": "Point", "coordinates": [ 38.7891248, 45.0578004 ] } },
{ "type": "Feature", "properties": { "BUILDING": "house", "ADDR_CITY": "Краснодар", "A_STRT": "улица им. Василия Гамалия", "A_SBRB": null, "A_HSNMBR": "14", "A_PLACE": null, "A_PSTCD": null, "B_LEVELS": null, "NAME": null, "NAME_EN": null, "NAME_RU": null, "OSM_TYPE": "node", "OSM_ID": 11954737602 }, "geometry": { "type": "Point", "coordinates": [ 38.7887795, 45.0578571 ] } },
{ "type": "Feature", "properties": { "BUILDING": "house", "ADDR_CITY": "Краснодар", "A_STRT": "улица им. Василия Гамалия", "A_SBRB": null, "A_HSNMBR": "12", "A_PLACE": null, "A_PSTCD": null, "B_LEVELS": null, "NAME": null, "NAME_EN": null, "NAME_RU": null, "OSM_TYPE": "node", "OSM_ID": 11954737603 }, "geometry": { "type": "Point", "coordinates": [ 38.7884395, 45.0579139 ] } },
{ "type": "Feature", "properties": { "BUILDING": "house", "ADDR_CITY": "Краснодар", "A_STRT": "улица им. Василия Гамалия", "A_SBRB": null, "A_HSNMBR": "10", "A_PLACE": null, "A_PSTCD": null, "B_LEVELS": null, "NAME": null, "NAME_EN": null, "NAME_RU": null, "OSM_TYPE": "node", "OSM_ID": 11954737604 }, "geometry": { "type": "Point", "coordinates": [ 38.7881022, 45.0579706 ] } },
{ "type": "Feature", "properties": { "BUILDING": "house", "ADDR_CITY": "Краснодар", "A_STRT": "улица им. Василия Гамалия", "A_SBRB": null, "A_HSNMBR": "8", "A_PLACE": null, "A_PSTCD": null, "B_LEVELS": null, "NAME": null, "NAME_EN": null, "NAME_RU": null, "OSM_TYPE": "node", "OSM_ID": 11954737605 }, "geometry": { "type": "Point", "coordinates": [ 38.7877542, 45.0580292 ] } },
{ "type": "Feature", "properties": { "BUILDING": "house", "ADDR_CITY": "Краснодар", "A_STRT": "улица им. Василия Гамалия", "A_SBRB": null, "A_HSNMBR": "6", "A_PLACE": null, "A_PSTCD": null, "B_LEVELS": null, "NAME": null, "NAME_EN": null, "NAME_RU": null, "OSM_TYPE": "node", "OSM_ID": 11954737606 }, "geometry": { "type": "Point", "coordinates": [ 38.787433, 45.0580784 ] } },
{ "type": "Feature", "properties": { "BUILDING": "house", "ADDR_CITY": "Краснодар", "A_STRT": "улица им. Василия Гамалия", "A_SBRB": null, "A_HSNMBR": "4", "A_PLACE": null, "A_PSTCD": null, "B_LEVELS": null, "NAME": null, "NAME_EN": null, "NAME_RU": null, "OSM_TYPE": "node", "OSM_ID": 11954737607 }, "geometry": { "type": "Point", "coordinates": [ 38.7871251, 45.0581332 ] } },
{ "type": "Feature", "properties": { "BUILDING": "house", "ADDR_CITY": "Краснодар", "A_STRT": "улица им. Василия Гамалия", "A_SBRB": null, "A_HSNMBR": "2", "A_PLACE": null, "A_PSTCD": null, "B_LEVELS": null, "NAME": null, "NAME_EN": null, "NAME_RU": null, "OSM_TYPE": "node", "OSM_ID": 11954737608 }, "geometry": { "type": "Point", "coordinates": [ 38.7868039, 45.058188 ] } },
{ "type": "Feature", "properties": { "BUILDING": "house", "ADDR_CITY": "Краснодар", "A_STRT": "Куренной проезд", "A_SBRB": null, "A_HSNMBR": "6", "A_PLACE": null, "A_PSTCD": null, "B_LEVELS": null, "NAME": null, "NAME_EN": null, "NAME_RU": null, "OSM_TYPE": "node", "OSM_ID": 11954737609 }, "geometry": { "type": "Point", "coordinates": [ 38.7874102, 45.0588092 ] } },
{ "type": "Feature", "properties": { "BUILDING": "house", "ADDR_CITY": "Краснодар", "A_STRT": "улица им. Иосифа Васильева", "A_SBRB": null, "A_HSNMBR": "54", "A_PLACE": null, "A_PSTCD": null, "B_LEVELS": null, "NAME": null, "NAME_EN": null, "NAME_RU": null, "OSM_TYPE": "node", "OSM_ID": 11954748921 }, "geometry": { "type": "Point", "coordinates": [ 38.7915663, 45.0597897 ] } },
{ "type": "Feature", "properties": { "BUILDING": "house", "ADDR_CITY": "Краснодар", "A_STRT": "улица им. Иосифа Васильева", "A_SBRB": null, "A_HSNMBR": "52", "A_PLACE": null, "A_PSTCD": null, "B_LEVELS": null, "NAME": null, "NAME_EN": null, "NAME_RU": null, "OSM_TYPE": "node", "OSM_ID": 11954748922 }, "geometry": { "type": "Point", "coordinates": [ 38.79151, 45.059958 ] } },
{ "type": "Feature", "properties": { "BUILDING": "house", "ADDR_CITY": "Краснодар", "A_STRT": "улица им. Иосифа Васильева", "A_SBRB": null, "A_HSNMBR": "50", "A_PLACE": null, "A_PSTCD": null, "B_LEVELS": null, "NAME": null, "NAME_EN": null, "NAME_RU": null, "OSM_TYPE": "node", "OSM_ID": 11954748923 }, "geometry": { "type": "Point", "coordinates": [ 38.7914003, 45.0601093 ] } },
{ "type": "Feature", "properties": { "BUILDING": "house", "ADDR_CITY": "Краснодар", "A_STRT": "улица им. Иосифа Васильева", "A_SBRB": null, "A_HSNMBR": "48", "A_PLACE": null, "A_PSTCD": null, "B_LEVELS": null, "NAME": null, "NAME_EN": null, "NAME_RU": null, "OSM_TYPE": "node", "OSM_ID": 11954748924 }, "geometry": { "type": "Point", "coordinates": [ 38.7912477, 45.0602359 ] } },
{ "type": "Feature", "properties": { "BUILDING": "house", "ADDR_CITY": "Краснодар", "A_STRT": "улица им. Иосифа Васильева", "A_SBRB": null, "A_HSNMBR": "46", "A_PLACE": null, "A_PSTCD": null, "B_LEVELS": null, "NAME": null, "NAME_EN": null, "NAME_RU": null, "OSM_TYPE": "node", "OSM_ID": 11954748925 }, "geometry": { "type": "Point", "coordinates": [ 38.791063, 45.0603418 ] } },
{ "type": "Feature", "properties": { "BUILDING": "house", "ADDR_CITY": "Краснодар", "A_STRT": "улица им. Иосифа Васильева", "A_SBRB": null, "A_HSNMBR": "44", "A_PLACE": null, "A_PSTCD": null, "B_LEVELS": null, "NAME": null, "NAME_EN": null, "NAME_RU": null, "OSM_TYPE": "node", "OSM_ID": 11954748926 }, "geometry": { "type": "Point", "coordinates": [ 38.7908622, 45.0604326 ] } },
{ "type": "Feature", "properties": { "BUILDING": "house", "ADDR_CITY": "Краснодар", "A_STRT": "улица им. Иосифа Васильева", "A_SBRB": null, "A_HSNMBR": "42", "A_PLACE": null, "A_PSTCD": null, "B_LEVELS": null, "NAME": null, "NAME_EN": null, "NAME_RU": null, "OSM_TYPE": "node", "OSM_ID": 11954748927 }, "geometry": { "type": "Point", "coordinates": [ 38.7906213, 45.0604969 ] } },
{ "type": "Feature", "properties": { "BUILDING": "house", "ADDR_CITY": "Краснодар", "A_STRT": "улица им. Иосифа Васильева", "A_SBRB": null, "A_HSNMBR": "40", "A_PLACE": null, "A_PSTCD": null, "B_LEVELS": null, "NAME": null, "NAME_EN": null, "NAME_RU": null, "OSM_TYPE": "node", "OSM_ID": 11954748928 }, "geometry": { "type": "Point", "coordinates": [ 38.7903964, 45.0605404 ] } },
{ "type": "Feature", "properties": { "BUILDING": "house", "ADDR_CITY": "Краснодар", "A_STRT": "улица им. Иосифа Васильева", "A_SBRB": null, "A_HSNMBR": "38", "A_PLACE": null, "A_PSTCD": null, "B_LEVELS": null, "NAME": null, "NAME_EN": null, "NAME_RU": null, "OSM_TYPE": "node", "OSM_ID": 11954748929 }, "geometry": { "type": "Point", "coordinates": [ 38.7901769, 45.0605461 ] } },
{ "type": "Feature", "properties": { "BUILDING": "house", "ADDR_CITY": "Краснодар", "A_STRT": "улица им. Иосифа Васильева", "A_SBRB": null, "A_HSNMBR": "36", "A_PLACE": null, "A_PSTCD": null, "B_LEVELS": null, "NAME": null, "NAME_EN": null, "NAME_RU": null, "OSM_TYPE": "node", "OSM_ID": 11954748930 }, "geometry": { "type": "Point", "coordinates": [ 38.789936, 45.0605139 ] } },
{ "type": "Feature", "properties": { "BUILDING": "house", "ADDR_CITY": "Краснодар", "A_STRT": "улица им. Иосифа Васильева", "A_SBRB": null, "A_HSNMBR": "32", "A_PLACE": null, "A_PSTCD": null, "B_LEVELS": null, "NAME": null, "NAME_EN": null, "NAME_RU": null, "OSM_TYPE": "node", "OSM_ID": 11954748931 }, "geometry": { "type": "Point", "coordinates": [ 38.7894916, 45.0603853 ] } },
{ "type": "Feature", "properties": { "BUILDING": "house", "ADDR_CITY": "Краснодар", "A_STRT": "улица им. Иосифа Васильева", "A_SBRB": null, "A_HSNMBR": "30", "A_PLACE": null, "A_PSTCD": null, "B_LEVELS": null, "NAME": null, "NAME_EN": null, "NAME_RU": null, "OSM_TYPE": "node", "OSM_ID": 11954748932 }, "geometry": { "type": "Point", "coordinates": [ 38.7893096, 45.0602738 ] } },
{ "type": "Feature", "properties": { "BUILDING": "house", "ADDR_CITY": "Краснодар", "A_STRT": "улица им. Иосифа Васильева", "A_SBRB": null, "A_HSNMBR": "28", "A_PLACE": null, "A_PSTCD": null, "B_LEVELS": null, "NAME": null, "NAME_EN": null, "NAME_RU": null, "OSM_TYPE": "node", "OSM_ID": 11954748933 }, "geometry": { "type": "Point", "coordinates": [ 38.7891436, 45.0601471 ] } },
{ "type": "Feature", "properties": { "BUILDING": "house", "ADDR_CITY": "Краснодар", "A_STRT": "улица им. Иосифа Васильева", "A_SBRB": null, "A_HSNMBR": "24", "A_PLACE": null, "A_PSTCD": null, "B_LEVELS": null, "NAME": null, "NAME_EN": null, "NAME_RU": null, "OSM_TYPE": "node", "OSM_ID": 11954748934 }, "geometry": { "type": "Point", "coordinates": [ 38.7889428, 45.0598332 ] } },
{ "type": "Feature", "properties": { "BUILDING": "house", "ADDR_CITY": "Краснодар", "A_STRT": "улица им. Иосифа Васильева", "A_SBRB": null, "A_HSNMBR": "22", "A_PLACE": null, "A_PSTCD": null, "B_LEVELS": null, "NAME": null, "NAME_EN": null, "NAME_RU": null, "OSM_TYPE": "node", "OSM_ID": 11954748935 }, "geometry": { "type": "Point", "coordinates": [ 38.7888946, 45.059663 ] } },
{ "type": "Feature", "properties": { "BUILDING": "house", "ADDR_CITY": "Краснодар", "A_STRT": "улица им. Иосифа Васильева", "A_SBRB": null, "A_HSNMBR": "18", "A_PLACE": null, "A_PSTCD": null, "B_LEVELS": null, "NAME": null, "NAME_EN": null, "NAME_RU": null, "OSM_TYPE": "node", "OSM_ID": 11954748936 }, "geometry": { "type": "Point", "coordinates": [ 38.7889723, 45.0593264 ] } },
{ "type": "Feature", "properties": { "BUILDING": "house", "ADDR_CITY": "Краснодар", "A_STRT": "улица им. Иосифа Васильева", "A_SBRB": null, "A_HSNMBR": "16", "A_PLACE": null, "A_PSTCD": null, "B_LEVELS": null, "NAME": null, "NAME_EN": null, "NAME_RU": null, "OSM_TYPE": "node", "OSM_ID": 11954748937 }, "geometry": { "type": "Point", "coordinates": [ 38.7890606, 45.0591657 ] } },
{ "type": "Feature", "properties": { "BUILDING": "house", "ADDR_CITY": "Краснодар", "A_STRT": "улица им. Иосифа Васильева", "A_SBRB": null, "A_HSNMBR": "14", "A_PLACE": null, "A_PSTCD": null, "B_LEVELS": null, "NAME": null, "NAME_EN": null, "NAME_RU": null, "OSM_TYPE": "node", "OSM_ID": 11954748938 }, "geometry": { "type": "Point", "coordinates": [ 38.7891864, 45.059022 ] } },
{ "type": "Feature", "properties": { "BUILDING": "house", "ADDR_CITY": "Краснодар", "A_STRT": "улица им. Иосифа Васильева", "A_SBRB": null, "A_HSNMBR": "2", "A_PLACE": null, "A_PSTCD": null, "B_LEVELS": null, "NAME": null, "NAME_EN": null, "NAME_RU": null, "OSM_TYPE": "node", "OSM_ID": 11954748939 }, "geometry": { "type": "Point", "coordinates": [ 38.7917536, 45.0583639 ] } },
{ "type": "Feature", "properties": { "BUILDING": "house", "ADDR_CITY": "Краснодар", "A_STRT": "улица им. Иосифа Васильева", "A_SBRB": null, "A_HSNMBR": "45", "A_PLACE": null, "A_PSTCD": null, "B_LEVELS": null, "NAME": null, "NAME_EN": null, "NAME_RU": null, "OSM_TYPE": "node", "OSM_ID": 11954768780 }, "geometry": { "type": "Point", "coordinates": [ 38.7904366, 45.0608883 ] } },
{ "type": "Feature", "properties": { "BUILDING": "house", "ADDR_CITY": "Краснодар", "A_STRT": "улица им. Иосифа Васильева", "A_SBRB": null, "A_HSNMBR": "43", "A_PLACE": null, "A_PSTCD": null, "B_LEVELS": null, "NAME": null, "NAME_EN": null, "NAME_RU": null, "OSM_TYPE": "node", "OSM_ID": 11954768781 }, "geometry": { "type": "Point", "coordinates": [ 38.7901394, 45.0609129 ] } },
{ "type": "Feature", "properties": { "BUILDING": "house", "ADDR_CITY": "Краснодар", "A_STRT": "улица им. Иосифа Васильева", "A_SBRB": null, "A_HSNMBR": "41", "A_PLACE": null, "A_PSTCD": null, "B_LEVELS": null, "NAME": null, "NAME_EN": null, "NAME_RU": null, "OSM_TYPE": "node", "OSM_ID": 11954768782 }, "geometry": { "type": "Point", "coordinates": [ 38.7898423, 45.0609091 ] } },
{ "type": "Feature", "properties": { "BUILDING": "house", "ADDR_CITY": "Краснодар", "A_STRT": "улица им. Иосифа Васильева", "A_SBRB": null, "A_HSNMBR": "39", "A_PLACE": null, "A_PSTCD": null, "B_LEVELS": null, "NAME": null, "NAME_EN": null, "NAME_RU": null, "OSM_TYPE": "node", "OSM_ID": 11954768783 }, "geometry": { "type": "Point", "coordinates": [ 38.7894702, 45.060894 ] } },
{ "type": "Feature", "properties": { "BUILDING": "house", "ADDR_CITY": "Краснодар", "A_STRT": "улица им. Иосифа Васильева", "A_SBRB": null, "A_HSNMBR": "37", "A_PLACE": null, "A_PSTCD": null, "B_LEVELS": null, "NAME": null, "NAME_EN": null, "NAME_RU": null, "OSM_TYPE": "node", "OSM_ID": 11954768784 }, "geometry": { "type": "Point", "coordinates": [ 38.789264, 45.0607049 ] } },
{ "type": "Feature", "properties": { "BUILDING": "house", "ADDR_CITY": "Краснодар", "A_STRT": "улица им. Иосифа Васильева", "A_SBRB": null, "A_HSNMBR": "31", "A_PLACE": null, "A_PSTCD": null, "B_LEVELS": null, "NAME": null, "NAME_EN": null, "NAME_RU": null, "OSM_TYPE": "node", "OSM_ID": 11954768785 }, "geometry": { "type": "Point", "coordinates": [ 38.7887153, 45.0602322 ] } },
{ "type": "Feature", "properties": { "BUILDING": "house", "ADDR_CITY": "Краснодар", "A_STRT": "улица им. Иосифа Васильева", "A_SBRB": null, "A_HSNMBR": "27", "A_PLACE": null, "A_PSTCD": null, "B_LEVELS": null, "NAME": null, "NAME_EN": null, "NAME_RU": null, "OSM_TYPE": "node", "OSM_ID": 11954768786 }, "geometry": { "type": "Point", "coordinates": [ 38.7884262, 45.059767 ] } },
{ "type": "Feature", "properties": { "BUILDING": "house", "ADDR_CITY": "Краснодар", "A_STRT": "улица им. Иосифа Васильева", "A_SBRB": null, "A_HSNMBR": "25", "A_PLACE": null, "A_PSTCD": null, "B_LEVELS": null, "NAME": null, "NAME_EN": null, "NAME_RU": null, "OSM_TYPE": "node", "OSM_ID": 11954768787 }, "geometry": { "type": "Point", "coordinates": [ 38.7884101, 45.0595439 ] } },
{ "type": "Feature", "properties": { "BUILDING": "house", "ADDR_CITY": "Краснодар", "A_STRT": "улица им. Иосифа Васильева", "A_SBRB": null, "A_HSNMBR": "23", "A_PLACE": null, "A_PSTCD": null, "B_LEVELS": null, "NAME": null, "NAME_EN": null, "NAME_RU": null, "OSM_TYPE": "node", "OSM_ID": 11954768788 }, "geometry": { "type": "Point", "coordinates": [ 38.7884529, 45.0593226 ] } },
{ "type": "Feature", "properties": { "BUILDING": "house", "ADDR_CITY": "Краснодар", "A_STRT": "улица им. Иосифа Васильева", "A_SBRB": null, "A_HSNMBR": "21", "A_PLACE": null, "A_PSTCD": null, "B_LEVELS": null, "NAME": null, "NAME_EN": null, "NAME_RU": null, "OSM_TYPE": "node", "OSM_ID": 11954768789 }, "geometry": { "type": "Point", "coordinates": [ 38.7885573, 45.0591089 ] } },
{ "type": "Feature", "properties": { "BUILDING": "house", "ADDR_CITY": "Краснодар", "A_STRT": "улица им. Иосифа Васильева", "A_SBRB": null, "A_HSNMBR": "17", "A_PLACE": null, "A_PSTCD": null, "B_LEVELS": null, "NAME": null, "NAME_EN": null, "NAME_RU": null, "OSM_TYPE": "node", "OSM_ID": 11954768790 }, "geometry": { "type": "Point", "coordinates": [ 38.7889, 45.0587137 ] } },
{ "type": "Feature", "properties": { "BUILDING": "house", "ADDR_CITY": "Краснодар", "A_STRT": "улица им. Иосифа Васильева", "A_SBRB": null, "A_HSNMBR": "15", "A_PLACE": null, "A_PSTCD": null, "B_LEVELS": null, "NAME": null, "NAME_EN": null, "NAME_RU": null, "OSM_TYPE": "node", "OSM_ID": 11954768791 }, "geometry": { "type": "Point", "coordinates": [ 38.7896522, 45.0583734 ] } },
{ "type": "Feature", "properties": { "BUILDING": "house", "ADDR_CITY": "Краснодар", "A_STRT": "улица им. Иосифа Васильева", "A_SBRB": null, "A_HSNMBR": "11", "A_PLACE": null, "A_PSTCD": null, "B_LEVELS": null, "NAME": null, "NAME_EN": null, "NAME_RU": null, "OSM_TYPE": "node", "OSM_ID": 11954768792 }, "geometry": { "type": "Point", "coordinates": [ 38.7903937, 45.0582429 ] } },
{ "type": "Feature", "properties": { "BUILDING": "house", "ADDR_CITY": "Краснодар", "A_STRT": "улица им. Иосифа Васильева", "A_SBRB": null, "A_HSNMBR": "5", "A_PLACE": null, "A_PSTCD": null, "B_LEVELS": null, "NAME": null, "NAME_EN": null, "NAME_RU": null, "OSM_TYPE": "node", "OSM_ID": 11954768793 }, "geometry": { "type": "Point", "coordinates": [ 38.7913762, 45.0581011 ] } },
{ "type": "Feature", "properties": { "BUILDING": "house", "ADDR_CITY": "Краснодар", "A_STRT": "улица им. Иосифа Васильева", "A_SBRB": null, "A_HSNMBR": "1", "A_PLACE": null, "A_PSTCD": null, "B_LEVELS": null, "NAME": null, "NAME_EN": null, "NAME_RU": null, "OSM_TYPE": "node", "OSM_ID": 11954768794 }, "geometry": { "type": "Point", "coordinates": [ 38.7920106, 45.0579971 ] } },
{ "type": "Feature", "properties": { "BUILDING": "house", "ADDR_CITY": "Краснодар", "A_STRT": "улица им. Фёдора Елисеева", "A_SBRB": null, "A_HSNMBR": "3", "A_PLACE": null, "A_PSTCD": null, "B_LEVELS": null, "NAME": null, "NAME_EN": null, "NAME_RU": null, "OSM_TYPE": "node", "OSM_ID": 11954772208 }, "geometry": { "type": "Point", "coordinates": [ 38.7891088, 45.0585889 ] } },
{ "type": "Feature", "properties": { "BUILDING": "house", "ADDR_CITY": "Краснодар", "A_STRT": "Черноморский проезд", "A_SBRB": null, "A_HSNMBR": "27", "A_PLACE": null, "A_PSTCD": null, "B_LEVELS": null, "NAME": null, "NAME_EN": null, "NAME_RU": null, "OSM_TYPE": "node", "OSM_ID": 11956124017 }, "geometry": { "type": "Point", "coordinates": [ 38.7952215, 45.0572965 ] } },
{ "type": "Feature", "properties": { "BUILDING": "house", "ADDR_CITY": "Краснодар", "A_STRT": "Черноморский проезд", "A_SBRB": null, "A_HSNMBR": "25", "A_PLACE": null, "A_PSTCD": null, "B_LEVELS": null, "NAME": null, "NAME_EN": null, "NAME_RU": null, "OSM_TYPE": "node", "OSM_ID": 11956124018 }, "geometry": { "type": "Point", "coordinates": [ 38.7949322, 45.057339 ] } },
{ "type": "Feature", "properties": { "BUILDING": "house", "ADDR_CITY": "Краснодар", "A_STRT": "Черноморский проезд", "A_SBRB": null, "A_HSNMBR": "23", "A_PLACE": null, "A_PSTCD": null, "B_LEVELS": null, "NAME": null, "NAME_EN": null, "NAME_RU": null, "OSM_TYPE": "node", "OSM_ID": 11956124019 }, "geometry": { "type": "Point", "coordinates": [ 38.7946355, 45.0573868 ] } },
{ "type": "Feature", "properties": { "BUILDING": "house", "ADDR_CITY": "Краснодар", "A_STRT": "Черноморский проезд", "A_SBRB": null, "A_HSNMBR": "21", "A_PLACE": null, "A_PSTCD": null, "B_LEVELS": null, "NAME": null, "NAME_EN": null, "NAME_RU": null, "OSM_TYPE": "node", "OSM_ID": 11956124020 }, "geometry": { "type": "Point", "coordinates": [ 38.7943425, 45.0574398 ] } },
{ "type": "Feature", "properties": { "BUILDING": "house", "ADDR_CITY": "Краснодар", "A_STRT": "Черноморский проезд", "A_SBRB": null, "A_HSNMBR": "19", "A_PLACE": null, "A_PSTCD": null, "B_LEVELS": null, "NAME": null, "NAME_EN": null, "NAME_RU": null, "OSM_TYPE": "node", "OSM_ID": 11956124021 }, "geometry": { "type": "Point", "coordinates": [ 38.7940608, 45.0574955 ] } },
{ "type": "Feature", "properties": { "BUILDING": "house", "ADDR_CITY": "Краснодар", "A_STRT": "Черноморский проезд", "A_SBRB": null, "A_HSNMBR": "17", "A_PLACE": null, "A_PSTCD": null, "B_LEVELS": null, "NAME": null, "NAME_EN": null, "NAME_RU": null, "OSM_TYPE": "node", "OSM_ID": 11956124022 }, "geometry": { "type": "Point", "coordinates": [ 38.793749, 45.0575751 ] } },
{ "type": "Feature", "properties": { "BUILDING": "house", "ADDR_CITY": "Краснодар", "A_STRT": "Черноморский проезд", "A_SBRB": null, "A_HSNMBR": "15", "A_PLACE": null, "A_PSTCD": null, "B_LEVELS": null, "NAME": null, "NAME_EN": null, "NAME_RU": null, "OSM_TYPE": "node", "OSM_ID": 11956124023 }, "geometry": { "type": "Point", "coordinates": [ 38.7934448, 45.057676 ] } },
{ "type": "Feature", "properties": { "BUILDING": "house", "ADDR_CITY": "Краснодар", "A_STRT": "Черноморский проезд", "A_SBRB": null, "A_HSNMBR": "13", "A_PLACE": null, "A_PSTCD": null, "B_LEVELS": null, "NAME": null, "NAME_EN": null, "NAME_RU": null, "OSM_TYPE": "node", "OSM_ID": 11956124024 }, "geometry": { "type": "Point", "coordinates": [ 38.7931067, 45.0578192 ] } },
{ "type": "Feature", "properties": { "BUILDING": "house", "ADDR_CITY": "Краснодар", "A_STRT": "Черноморский проезд", "A_SBRB": null, "A_HSNMBR": "11", "A_PLACE": null, "A_PSTCD": null, "B_LEVELS": null, "NAME": null, "NAME_EN": null, "NAME_RU": null, "OSM_TYPE": "node", "OSM_ID": 11956124025 }, "geometry": { "type": "Point", "coordinates": [ 38.7928025, 45.0580209 ] } },
{ "type": "Feature", "properties": { "BUILDING": "house", "ADDR_CITY": "Краснодар", "A_STRT": "Черноморский проезд", "A_SBRB": null, "A_HSNMBR": "9", "A_PLACE": null, "A_PSTCD": null, "B_LEVELS": null, "NAME": null, "NAME_EN": null, "NAME_RU": null, "OSM_TYPE": "node", "OSM_ID": 11956124026 }, "geometry": { "type": "Point", "coordinates": [ 38.7925546, 45.0581934 ] } },
{ "type": "Feature", "properties": { "BUILDING": "house", "ADDR_CITY": "Краснодар", "A_STRT": "Черноморский проезд", "A_SBRB": null, "A_HSNMBR": "7", "A_PLACE": null, "A_PSTCD": null, "B_LEVELS": null, "NAME": null, "NAME_EN": null, "NAME_RU": null, "OSM_TYPE": "node", "OSM_ID": 11956124027 }, "geometry": { "type": "Point", "coordinates": [ 38.7923668, 45.0583711 ] } },
{ "type": "Feature", "properties": { "BUILDING": "house", "ADDR_CITY": "Краснодар", "A_STRT": "Черноморский проезд", "A_SBRB": null, "A_HSNMBR": "3", "A_PLACE": null, "A_PSTCD": null, "B_LEVELS": null, "NAME": null, "NAME_EN": null, "NAME_RU": null, "OSM_TYPE": "node", "OSM_ID": 11956124028 }, "geometry": { "type": "Point", "coordinates": [ 38.79204, 45.0587479 ] } },
{ "type": "Feature", "properties": { "BUILDING": "house", "ADDR_CITY": "Краснодар", "A_STRT": "Черноморский проезд", "A_SBRB": null, "A_HSNMBR": "8", "A_PLACE": null, "A_PSTCD": null, "B_LEVELS": null, "NAME": null, "NAME_EN": null, "NAME_RU": null, "OSM_TYPE": "node", "OSM_ID": 11956124029 }, "geometry": { "type": "Point", "coordinates": [ 38.7923254, 45.0578935 ] } },
{ "type": "Feature", "properties": { "BUILDING": "house", "ADDR_CITY": "Краснодар", "A_STRT": "улица им. Елисея Витинского", "A_SBRB": null, "A_HSNMBR": "26", "A_PLACE": null, "A_PSTCD": null, "B_LEVELS": null, "NAME": null, "NAME_EN": null, "NAME_RU": null, "OSM_TYPE": "node", "OSM_ID": 11956152115 }, "geometry": { "type": "Point", "coordinates": [ 38.7948796, 45.0578882 ] } },
{ "type": "Feature", "properties": { "BUILDING": "house", "ADDR_CITY": "Краснодар", "A_STRT": "улица им. Елисея Витинского", "A_SBRB": null, "A_HSNMBR": "24", "A_PLACE": null, "A_PSTCD": null, "B_LEVELS": null, "NAME": null, "NAME_EN": null, "NAME_RU": null, "OSM_TYPE": "node", "OSM_ID": 11956152116 }, "geometry": { "type": "Point", "coordinates": [ 38.7946918, 45.0580793 ] } },
{ "type": "Feature", "properties": { "BUILDING": "house", "ADDR_CITY": "Краснодар", "A_STRT": "улица им. Елисея Витинского", "A_SBRB": null, "A_HSNMBR": "22", "A_PLACE": null, "A_PSTCD": null, "B_LEVELS": null, "NAME": null, "NAME_EN": null, "NAME_RU": null, "OSM_TYPE": "node", "OSM_ID": 11956152117 }, "geometry": { "type": "Point", "coordinates": [ 38.794489, 45.0582066 ] } },
{ "type": "Feature", "properties": { "BUILDING": "house", "ADDR_CITY": "Краснодар", "A_STRT": "улица им. Елисея Витинского", "A_SBRB": null, "A_HSNMBR": "20", "A_PLACE": null, "A_PSTCD": null, "B_LEVELS": null, "NAME": null, "NAME_EN": null, "NAME_RU": null, "OSM_TYPE": "node", "OSM_ID": 11956152118 }, "geometry": { "type": "Point", "coordinates": [ 38.794305, 45.0583207 ] } },
{ "type": "Feature", "properties": { "BUILDING": "house", "ADDR_CITY": "Краснодар", "A_STRT": "улица им. Елисея Витинского", "A_SBRB": null, "A_HSNMBR": "16", "A_PLACE": null, "A_PSTCD": null, "B_LEVELS": null, "NAME": null, "NAME_EN": null, "NAME_RU": null, "OSM_TYPE": "node", "OSM_ID": 11956152119 }, "geometry": { "type": "Point", "coordinates": [ 38.7938955, 45.058525 ] } },
{ "type": "Feature", "properties": { "BUILDING": "house", "ADDR_CITY": "Краснодар", "A_STRT": "улица им. Елисея Витинского", "A_SBRB": null, "A_HSNMBR": "14", "A_PLACE": null, "A_PSTCD": null, "B_LEVELS": null, "NAME": null, "NAME_EN": null, "NAME_RU": null, "OSM_TYPE": "node", "OSM_ID": 11956152120 }, "geometry": { "type": "Point", "coordinates": [ 38.7936664, 45.0586338 ] } },
{ "type": "Feature", "properties": { "BUILDING": "house", "ADDR_CITY": "Краснодар", "A_STRT": "улица им. Елисея Витинского", "A_SBRB": null, "A_HSNMBR": "10", "A_PLACE": null, "A_PSTCD": null, "B_LEVELS": null, "NAME": null, "NAME_EN": null, "NAME_RU": null, "OSM_TYPE": "node", "OSM_ID": 11956152121 }, "geometry": { "type": "Point", "coordinates": [ 38.7930955, 45.0588726 ] } },
{ "type": "Feature", "properties": { "BUILDING": "house", "ADDR_CITY": "Краснодар", "A_STRT": "Казачий проезд", "A_SBRB": null, "A_HSNMBR": "15", "A_PLACE": null, "A_PSTCD": null, "B_LEVELS": null, "NAME": null, "NAME_EN": null, "NAME_RU": null, "OSM_TYPE": "node", "OSM_ID": 11956152122 }, "geometry": { "type": "Point", "coordinates": [ 38.7944402, 45.057928 ] } },
{ "type": "Feature", "properties": { "BUILDING": "house", "ADDR_CITY": "Краснодар", "A_STRT": "Казачий проезд", "A_SBRB": null, "A_HSNMBR": "13", "A_PLACE": null, "A_PSTCD": null, "B_LEVELS": null, "NAME": null, "NAME_EN": null, "NAME_RU": null, "OSM_TYPE": "node", "OSM_ID": 11956152123 }, "geometry": { "type": "Point", "coordinates": [ 38.7941247, 45.0580342 ] } },
{ "type": "Feature", "properties": { "BUILDING": "house", "ADDR_CITY": "Краснодар", "A_STRT": "Казачий проезд", "A_SBRB": null, "A_HSNMBR": "7", "A_PLACE": null, "A_PSTCD": null, "B_LEVELS": null, "NAME": null, "NAME_EN": null, "NAME_RU": null, "OSM_TYPE": "node", "OSM_ID": 11956152124 }, "geometry": { "type": "Point", "coordinates": [ 38.7935162, 45.0583022 ] } },
{ "type": "Feature", "properties": { "BUILDING": "house", "ADDR_CITY": "Краснодар", "A_STRT": "Казачий проезд", "A_SBRB": null, "A_HSNMBR": "3", "A_PLACE": null, "A_PSTCD": null, "B_LEVELS": null, "NAME": null, "NAME_EN": null, "NAME_RU": null, "OSM_TYPE": "node", "OSM_ID": 11956152125 }, "geometry": { "type": "Point", "coordinates": [ 38.7931556, 45.0585303 ] } },
{ "type": "Feature", "properties": { "BUILDING": "house", "ADDR_CITY": "Краснодар", "A_STRT": "Казачий проезд", "A_SBRB": null, "A_HSNMBR": "1", "A_PLACE": null, "A_PSTCD": null, "B_LEVELS": null, "NAME": null, "NAME_EN": null, "NAME_RU": null, "OSM_TYPE": "node", "OSM_ID": 11956152126 }, "geometry": { "type": "Point", "coordinates": [ 38.7929152, 45.0587108 ] } },
{ "type": "Feature", "properties": { "BUILDING": "house", "ADDR_CITY": "Краснодар", "A_STRT": "Казачий проезд", "A_SBRB": null, "A_HSNMBR": "24", "A_PLACE": null, "A_PSTCD": null, "B_LEVELS": null, "NAME": null, "NAME_EN": null, "NAME_RU": null, "OSM_TYPE": "node", "OSM_ID": 11956152127 }, "geometry": { "type": "Point", "coordinates": [ 38.7950449, 45.0574982 ] } },
{ "type": "Feature", "properties": { "BUILDING": "house", "ADDR_CITY": "Краснодар", "A_STRT": "Казачий проезд", "A_SBRB": null, "A_HSNMBR": "22", "A_PLACE": null, "A_PSTCD": null, "B_LEVELS": null, "NAME": null, "NAME_EN": null, "NAME_RU": null, "OSM_TYPE": "node", "OSM_ID": 11956152128 }, "geometry": { "type": "Point", "coordinates": [ 38.7947256, 45.0575592 ] } },
{ "type": "Feature", "properties": { "BUILDING": "house", "ADDR_CITY": "Краснодар", "A_STRT": "Казачий проезд", "A_SBRB": null, "A_HSNMBR": "20", "A_PLACE": null, "A_PSTCD": null, "B_LEVELS": null, "NAME": null, "NAME_EN": null, "NAME_RU": null, "OSM_TYPE": "node", "OSM_ID": 11956152129 }, "geometry": { "type": "Point", "coordinates": [ 38.7943913, 45.0576096 ] } },
{ "type": "Feature", "properties": { "BUILDING": "house", "ADDR_CITY": "Краснодар", "A_STRT": "Казачий проезд", "A_SBRB": null, "A_HSNMBR": "18", "A_PLACE": null, "A_PSTCD": null, "B_LEVELS": null, "NAME": null, "NAME_EN": null, "NAME_RU": null, "OSM_TYPE": "node", "OSM_ID": 11956152130 }, "geometry": { "type": "Point", "coordinates": [ 38.7940758, 45.057668 ] } },
{ "type": "Feature", "properties": { "BUILDING": "house", "ADDR_CITY": "Краснодар", "A_STRT": "Казачий проезд", "A_SBRB": null, "A_HSNMBR": "14", "A_PLACE": null, "A_PSTCD": null, "B_LEVELS": null, "NAME": null, "NAME_EN": null, "NAME_RU": null, "OSM_TYPE": "node", "OSM_ID": 11956152131 }, "geometry": { "type": "Point", "coordinates": [ 38.7934485, 45.057875 ] } },
{ "type": "Feature", "properties": { "BUILDING": "house", "ADDR_CITY": "Краснодар", "A_STRT": "Казачий проезд", "A_SBRB": null, "A_HSNMBR": "8", "A_PLACE": null, "A_PSTCD": null, "B_LEVELS": null, "NAME": null, "NAME_EN": null, "NAME_RU": null, "OSM_TYPE": "node", "OSM_ID": 11956152132 }, "geometry": { "type": "Point", "coordinates": [ 38.7926823, 45.0583526 ] } },
{ "type": "Feature", "properties": { "BUILDING": "house", "ADDR_CITY": "Краснодар", "A_STRT": "Казачий проезд", "A_SBRB": null, "A_HSNMBR": "2", "A_PLACE": null, "A_PSTCD": null, "B_LEVELS": null, "NAME": null, "NAME_EN": null, "NAME_RU": null, "OSM_TYPE": "node", "OSM_ID": 11956152133 }, "geometry": { "type": "Point", "coordinates": [ 38.7921752, 45.0589602 ] } },
{ "type": "Feature", "properties": { "BUILDING": "house", "ADDR_CITY": "Краснодар", "A_STRT": "улица им. Елисея Витинского", "A_SBRB": null, "A_HSNMBR": "2", "A_PLACE": null, "A_PSTCD": null, "B_LEVELS": null, "NAME": null, "NAME_EN": null, "NAME_RU": null, "OSM_TYPE": "node", "OSM_ID": 11956467216 }, "geometry": { "type": "Point", "coordinates": [ 38.7904455, 45.0587598 ] } }
]
}
