{
"type": "FeatureCollection",
"name": "filtered_last_rent",
"crs": { "type": "name", "properties": { "name": "urn:ogc:def:crs:EPSG::3857" } },
"features": [
{ "type": "Feature", "properties": { "ID": 1005, "Address": "Советская улица, 2/1", "lat": 45.151512, "long": 39.004302, "square": 50, "rent_price": 40000, "population": 12000.0, "poi_count": 0, "type": "rent" }, "geometry": { "type": "Point", "coordinates": [ 4341939.03738706279546, 5645405.57081994228065 ] } },
{ "type": "Feature", "properties": { "ID": 1006, "Address": "Линейная улица, 57", "lat": 45.14539, "long": 39.004742, "square": 71, "rent_price": 70000, "population": 12000.0, "poi_count": 0, "type": "rent" }, "geometry": { "type": "Point", "coordinates": [ 4341988.017963009886444, 5644439.280354337766767 ] } },
{ "type": "Feature", "properties": { "ID": 1007, "Address": "Веронская улица, 20", "lat": 45.122837, "long": 38.91924, "square": 96, "rent_price": 100000, "population": 4400.0, "poi_count": 1, "type": "rent" }, "geometry": { "type": "Point", "coordinates": [ 4332469.978861203417182, 5640880.431996056810021 ] } },
{ "type": "Feature", "properties": { "ID": 1008, "Address": "Сенная улица, 1/4", "lat": 45.126926, "long": 38.946405, "square": 48, "rent_price": 40800, "population": 5000.0, "poi_count": 0, "type": "rent" }, "geometry": { "type": "Point", "coordinates": [ 4335493.972828603349626, 5641525.569027177989483 ] } },
{ "type": "Feature", "properties": { "ID": 1009, "Address": "Пригородная улица, 1", "lat": 45.127365, "long": 38.949253, "square": 74, "rent_price": 80000, "population": 5000.0, "poi_count": 3, "type": "rent" }, "geometry": { "type": "Point", "coordinates": [ 4335811.010738383047283, 5641594.834470337256789 ] } },
{ "type": "Feature", "properties": { "ID": 1010, "Address": "Пригородная улица, 65", "lat": 45.125845, "long": 38.962773, "square": 75, "rent_price": 60000, "population": 5000.0, "poi_count": 4, "type": "rent" }, "geometry": { "type": "Point", "coordinates": [ 4337316.050253908149898, 5641355.011062561534345 ] } },
{ "type": "Feature", "properties": { "ID": 1011, "Address": "Большевистская улица, 286/1", "lat": 45.125858, "long": 38.99345, "square": 100, "rent_price": 100000, "population": 7000.0, "poi_count": 11, "type": "rent" }, "geometry": { "type": "Point", "coordinates": [ 4340730.998272973112762, 5641357.062156716361642 ] } },
{ "type": "Feature", "properties": { "ID": 1012, "Address": "3-я Трудовая улица, 104/2", "lat": 45.125756, "long": 39.004652, "square": 115, "rent_price": 178000, "population": 7000.0, "poi_count": 6, "type": "rent" }, "geometry": { "type": "Point", "coordinates": [ 4341977.999208838678896, 5641340.968968962319195 ] } },
{ "type": "Feature", "properties": { "ID": 1013, "Address": "улица имени В.М. Комарова, 90", "lat": 45.115866, "long": 39.042022, "square": 70, "rent_price": 63000, "population": 7000.0, "poi_count": 6, "type": "rent" }, "geometry": { "type": "Point", "coordinates": [ 4346138.008579783141613, 5639780.697499462403357 ] } },
{ "type": "Feature", "properties": { "ID": 1014, "Address": "улица Академика Королёва, 22", "lat": 45.115994, "long": 39.040845, "square": 70, "rent_price": 40000, "population": 7000.0, "poi_count": 2, "type": "rent" }, "geometry": { "type": "Point", "coordinates": [ 4346006.985539119690657, 5639800.889376514591277 ] } },
{ "type": "Feature", "properties": { "ID": 1015, "Address": "улица Академика Королёва, 26", "lat": 45.116604, "long": 39.041591, "square": 135, "rent_price": 150000, "population": 7000.0, "poi_count": 2, "type": "rent" }, "geometry": { "type": "Point", "coordinates": [ 4346090.029879250563681, 5639897.116912830621004 ] } },
{ "type": "Feature", "properties": { "ID": 1016, "Address": "Островная улица, 14", "lat": 45.11233, "long": 38.997798, "square": 80, "rent_price": 75000, "population": 38000.0, "poi_count": 3, "type": "rent" }, "geometry": { "type": "Point", "coordinates": [ 4341215.015418943017721, 5639222.914802489802241 ] } },
{ "type": "Feature", "properties": { "ID": 1017, "Address": "улица Степана Неустроева, 32/8", "lat": 45.107966, "long": 38.990459, "square": 180, "rent_price": 170000, "population": 38000.0, "poi_count": 0, "type": "rent" }, "geometry": { "type": "Point", "coordinates": [ 4340398.041676010936499, 5638534.567736464552581 ] } },
{ "type": "Feature", "properties": { "ID": 1018, "Address": "улица им. Мурата Ахеджака, 20", "lat": 45.111592, "long": 38.969231, "square": 56, "rent_price": 197400, "population": 26000.0, "poi_count": 0, "type": "rent" }, "geometry": { "type": "Point", "coordinates": [ 4338034.951525449752808, 5639106.504107803106308 ] } },
{ "type": "Feature", "properties": { "ID": 1019, "Address": "улица им. Мурата Ахеджака, 12к10", "lat": 45.112438, "long": 38.966114, "square": 120, "rent_price": 180000, "population": 26000.0, "poi_count": 2, "type": "rent" }, "geometry": { "type": "Point", "coordinates": [ 4337687.968672648072243, 5639239.950640169903636 ] } },
{ "type": "Feature", "properties": { "ID": 1020, "Address": "улица Александра Покрышкина, 3", "lat": 45.107686, "long": 38.949262, "square": 46, "rent_price": 140000, "population": 13000.0, "poi_count": 6, "type": "rent" }, "geometry": { "type": "Point", "coordinates": [ 4335812.012613798491657, 5638490.404276848770678 ] } },
{ "type": "Feature", "properties": { "ID": 1021, "Address": "Средняя улица, 32/17", "lat": 45.114537, "long": 38.937853, "square": 125, "rent_price": 99990, "population": 13000.0, "poi_count": 1, "type": "rent" }, "geometry": { "type": "Point", "coordinates": [ 4334541.968543339520693, 5639571.051702388562262 ] } },
{ "type": "Feature", "properties": { "ID": 1022, "Address": "Веронская улица, 20", "lat": 45.122837, "long": 38.91924, "square": 96, "rent_price": 100000, "population": 4400.0, "poi_count": 1, "type": "rent" }, "geometry": { "type": "Point", "coordinates": [ 4332469.978861203417182, 5640880.431996056810021 ] } },
{ "type": "Feature", "properties": { "ID": 1023, "Address": "улица Западный Обход, 29", "lat": 45.080485, "long": 38.893809, "square": 81, "rent_price": 110000, "population": 30000.0, "poi_count": 18, "type": "rent" }, "geometry": { "type": "Point", "coordinates": [ 4329639.01289083994925, 5634201.11418057885021 ] } },
{ "type": "Feature", "properties": { "ID": 1024, "Address": "улица имени Генерала Корнилова, 9А", "lat": 45.09451, "long": 38.914632, "square": 139, "rent_price": 167500, "population": 26000.0, "poi_count": 1, "type": "rent" }, "geometry": { "type": "Point", "coordinates": [ 4331957.018647628836334, 5636412.442946831695735 ] } },
{ "type": "Feature", "properties": { "ID": 1025, "Address": "улица имени Генерала Корнилова, 9А", "lat": 45.09451, "long": 38.914632, "square": 125, "rent_price": 152000, "population": 26000.0, "poi_count": 1, "type": "rent" }, "geometry": { "type": "Point", "coordinates": [ 4331957.018647628836334, 5636412.442946831695735 ] } },
{ "type": "Feature", "properties": { "ID": 1026, "Address": "улица Западный Обход, 48", "lat": 45.09661, "long": 38.912386, "square": 56, "rent_price": 140500, "population": 26000.0, "poi_count": 11, "type": "rent" }, "geometry": { "type": "Point", "coordinates": [ 4331706.995071305893362, 5636743.597739943303168 ] } },
{ "type": "Feature", "properties": { "ID": 1027, "Address": "улица Западный Обход, 48", "lat": 45.09661, "long": 38.912386, "square": 120, "rent_price": 216900, "population": 26000.0, "poi_count": 11, "type": "rent" }, "geometry": { "type": "Point", "coordinates": [ 4331706.995071305893362, 5636743.597739943303168 ] } },
{ "type": "Feature", "properties": { "ID": 1028, "Address": "улица Константина Гондаря, 98", "lat": 45.102183, "long": 38.910796, "square": 83, "rent_price": 166000, "population": 26000.0, "poi_count": 8, "type": "rent" }, "geometry": { "type": "Point", "coordinates": [ 4331529.997080944478512, 5637622.478532733395696 ] } },
{ "type": "Feature", "properties": { "ID": 1029, "Address": "улица Западный Обход, 65/1", "lat": 45.10268, "long": 38.913707, "square": 83, "rent_price": 141000, "population": 26000.0, "poi_count": 5, "type": "rent" }, "geometry": { "type": "Point", "coordinates": [ 4331854.048118645325303, 5637700.861266194842756 ] } },
{ "type": "Feature", "properties": { "ID": 1030, "Address": "улица имени Генерала Корнилова, 24", "lat": 45.101344, "long": 38.91792, "square": 50, "rent_price": 65000, "population": 26000.0, "poi_count": 5, "type": "rent" }, "geometry": { "type": "Point", "coordinates": [ 4332323.037133356556296, 5637490.159933287650347 ] } },
{ "type": "Feature", "properties": { "ID": 1031, "Address": "Клеверная улица, 2/4", "lat": 45.103284, "long": 38.917336, "square": 215, "rent_price": 322500, "population": 26000.0, "poi_count": 6, "type": "rent" }, "geometry": { "type": "Point", "coordinates": [ 4332258.026550732553005, 5637796.120074087753892 ] } },
{ "type": "Feature", "properties": { "ID": 1032, "Address": "Персиковая улица, 208", "lat": 45.101636, "long": 38.941411, "square": 105, "rent_price": 100000, "population": 11000.0, "poi_count": 2, "type": "rent" }, "geometry": { "type": "Point", "coordinates": [ 4334938.043291582725942, 5637536.211001165211201 ] } },
{ "type": "Feature", "properties": { "ID": 1033, "Address": "Грушевая улица, 365", "lat": 45.101897, "long": 38.940198, "square": 200, "rent_price": 260000, "population": 11000.0, "poi_count": 2, "type": "rent" }, "geometry": { "type": "Point", "coordinates": [ 4334803.012749250046909, 5637577.373285155743361 ] } },
{ "type": "Feature", "properties": { "ID": 1034, "Address": "садовое товарищество Животновод, 362", "lat": 45.102578, "long": 38.940952, "square": 201, "rent_price": 242000, "population": 11000.0, "poi_count": 3, "type": "rent" }, "geometry": { "type": "Point", "coordinates": [ 4334886.947645308449864, 5637684.774613334797323 ] } },
{ "type": "Feature", "properties": { "ID": 1035, "Address": "Степная улица, 1", "lat": 45.092277, "long": 39.106198, "square": 68, "rent_price": 65000, "population": 400.0, "poi_count": 0, "type": "rent" }, "geometry": { "type": "Point", "coordinates": [ 4353282.048220933414996, 5636060.328375398181379 ] } },
{ "type": "Feature", "properties": { "ID": 1036, "Address": "улица Александра Покрышкина, 21", "lat": 45.1031, "long": 38.974028, "square": 73, "rent_price": 182500, "population": 26000.0, "poi_count": 12, "type": "rent" }, "geometry": { "type": "Point", "coordinates": [ 4338568.951122784987092, 5637767.100727850571275 ] } },
{ "type": "Feature", "properties": { "ID": 1037, "Address": "улица имени Дзержинского, 100", "lat": 45.102209, "long": 38.983892, "square": 30, "rent_price": 120000, "population": 26000.0, "poi_count": 114, "type": "rent" }, "geometry": { "type": "Point", "coordinates": [ 4339667.006579970940948, 5637626.579020988196135 ] } },
{ "type": "Feature", "properties": { "ID": 1038, "Address": "улица имени Дзержинского, 98/5", "lat": 45.09857, "long": 38.981556, "square": 180, "rent_price": 120000, "population": 9500.0, "poi_count": 40, "type": "rent" }, "geometry": { "type": "Point", "coordinates": [ 4339406.964249477721751, 5637052.686534700915217 ] } },
{ "type": "Feature", "properties": { "ID": 1039, "Address": "Конечная улица, 4", "lat": 45.041266, "long": 39.122044, "square": 68, "rent_price": 30600, "population": 6500.0, "poi_count": 7, "type": "rent" }, "geometry": { "type": "Point", "coordinates": [ 4355046.016872043721378, 5628020.314487737603486 ] } },
{ "type": "Feature", "properties": { "ID": 1040, "Address": "улица Грибоедова, 4Ж", "lat": 45.088491, "long": 38.987252, "square": 180, "rent_price": 270000, "population": 9500.0, "poi_count": 9, "type": "rent" }, "geometry": { "type": "Point", "coordinates": [ 4340041.040069035254419, 5635463.357698052190244 ] } },
{ "type": "Feature", "properties": { "ID": 1041, "Address": "4-й проезд Сафонова, 10", "lat": 45.087562, "long": 38.988015, "square": 151, "rent_price": 211400, "population": 9500.0, "poi_count": 8, "type": "rent" }, "geometry": { "type": "Point", "coordinates": [ 4340125.976840511895716, 5635316.88044786080718 ] } },
{ "type": "Feature", "properties": { "ID": 1042, "Address": "Московская улица, 158", "lat": 45.091946, "long": 39.002622, "square": 76, "rent_price": 120000, "population": 46000.0, "poi_count": 53, "type": "rent" }, "geometry": { "type": "Point", "coordinates": [ 4341752.020642528310418, 5636008.135224088095129 ] } },
{ "type": "Feature", "properties": { "ID": 1043, "Address": "улица Петра Метальникова, 17", "lat": 45.094033, "long": 39.012755, "square": 60, "rent_price": 120000, "population": 46000.0, "poi_count": 61, "type": "rent" }, "geometry": { "type": "Point", "coordinates": [ 4342880.021042736247182, 5636337.225198150612414 ] } },
{ "type": "Feature", "properties": { "ID": 1044, "Address": "улица Петра Метальникова, 17", "lat": 45.098417, "long": 39.01121, "square": 60, "rent_price": 90000, "population": 38000.0, "poi_count": 11, "type": "rent" }, "geometry": { "type": "Point", "coordinates": [ 4342708.032429460436106, 5637028.558303131721914 ] } },
{ "type": "Feature", "properties": { "ID": 1045, "Address": "улица Петра Метальникова, 2", "lat": 45.094758, "long": 39.013033, "square": 90, "rent_price": 121500, "population": 46000.0, "poi_count": 56, "type": "rent" }, "geometry": { "type": "Point", "coordinates": [ 4342910.967861177399755, 5636451.55011681560427 ] } },
{ "type": "Feature", "properties": { "ID": 1046, "Address": "Российская улица, 271", "lat": 45.09486, "long": 39.01342, "square": 110, "rent_price": 187000, "population": 46000.0, "poi_count": 57, "type": "rent" }, "geometry": { "type": "Point", "coordinates": [ 4342954.048504114151001, 5636467.63456666469574 ] } },
{ "type": "Feature", "properties": { "ID": 1047, "Address": "2-я Ямальская улица, 43", "lat": 45.095535, "long": 39.02755, "square": 160, "rent_price": 160000, "population": 26000.0, "poi_count": 0, "type": "rent" }, "geometry": { "type": "Point", "coordinates": [ 4344526.992909023538232, 5636574.076503032818437 ] } },
{ "type": "Feature", "properties": { "ID": 1048, "Address": "улица Лётчика Позднякова, 2/22", "lat": 45.102317, "long": 39.060276, "square": 44, "rent_price": 53000, "population": 11000.0, "poi_count": 4, "type": "rent" }, "geometry": { "type": "Point", "coordinates": [ 4348170.034564725123346, 5637643.611838351003826 ] } },
{ "type": "Feature", "properties": { "ID": 1050, "Address": "улица 1 Мая, 395", "lat": 45.087269, "long": 39.019744, "square": 70, "rent_price": 56000, "population": 46000.0, "poi_count": 26, "type": "rent" }, "geometry": { "type": "Point", "coordinates": [ 4343658.032963891513646, 5635270.683057949878275 ] } },
{ "type": "Feature", "properties": { "ID": 1051, "Address": "улица 1 Мая, 393", "lat": 45.087135, "long": 39.019708, "square": 140, "rent_price": 112000, "population": 46000.0, "poi_count": 26, "type": "rent" }, "geometry": { "type": "Point", "coordinates": [ 4343654.025462223216891, 5635249.555320371873677 ] } },
{ "type": "Feature", "properties": { "ID": 1052, "Address": "Сергиевская улица, 64", "lat": 45.088026, "long": 39.022259, "square": 80, "rent_price": 160000, "population": 46000.0, "poi_count": 17, "type": "rent" }, "geometry": { "type": "Point", "coordinates": [ 4343938.001483236439526, 5635390.039939191192389 ] } },
{ "type": "Feature", "properties": { "ID": 1053, "Address": "Батуринская улица, 39", "lat": 45.082655, "long": 39.033847, "square": 105, "rent_price": 157000, "population": 45000.0, "poi_count": 5, "type": "rent" }, "geometry": { "type": "Point", "coordinates": [ 4345227.971742549911141, 5634543.22366448957473 ] } },
{ "type": "Feature", "properties": { "ID": 1054, "Address": "Батуринская улица, 75", "lat": 45.08648, "long": 39.033955, "square": 73, "rent_price": 50000, "population": 45000.0, "poi_count": 20, "type": "rent" }, "geometry": { "type": "Point", "coordinates": [ 4345239.994247554801404, 5635146.282390960492194 ] } },
{ "type": "Feature", "properties": { "ID": 1055, "Address": "Уссурийская улица, 17", "lat": 45.075419, "long": 39.020552, "square": 135, "rent_price": 175000, "population": 85000.0, "poi_count": 9, "type": "rent" }, "geometry": { "type": "Point", "coordinates": [ 4343747.979112451896071, 5633402.488878656178713 ] } },
{ "type": "Feature", "properties": { "ID": 1056, "Address": "улица 1 Мая, 307", "lat": 45.077188, "long": 39.020444, "square": 210, "rent_price": 315000, "population": 46000.0, "poi_count": 8, "type": "rent" }, "geometry": { "type": "Point", "coordinates": [ 4343735.956607446074486, 5633681.353347878903151 ] } },
{ "type": "Feature", "properties": { "ID": 1057, "Address": "Российская улица, 352", "lat": 45.077793, "long": 39.015567, "square": 80, "rent_price": 104000, "population": 46000.0, "poi_count": 21, "type": "rent" }, "geometry": { "type": "Point", "coordinates": [ 4343193.051450847648084, 5633776.727292777039111 ] } },
{ "type": "Feature", "properties": { "ID": 1058, "Address": "Российская улица, 129/1", "lat": 45.075947, "long": 39.015117, "square": 67, "rent_price": 85300, "population": 46000.0, "poi_count": 22, "type": "rent" }, "geometry": { "type": "Point", "coordinates": [ 4343142.957679990679026, 5633485.721688675694168 ] } },
{ "type": "Feature", "properties": { "ID": 1059, "Address": "Черкасская улица, 26", "lat": 45.065087, "long": 39.019941, "square": 60, "rent_price": 50000, "population": 85000.0, "poi_count": 36, "type": "rent" }, "geometry": { "type": "Point", "coordinates": [ 4343679.96290357876569, 5631773.928854154422879 ] } },
{ "type": "Feature", "properties": { "ID": 1060, "Address": "Памирская улица, 1", "lat": 45.068646, "long": 39.016294, "square": 65, "rent_price": 91000, "population": 85000.0, "poi_count": 15, "type": "rent" }, "geometry": { "type": "Point", "coordinates": [ 4343273.980720655061305, 5632334.875594103708863 ] } },
{ "type": "Feature", "properties": { "ID": 1061, "Address": "улица имени Сергея Есенина, 2/4", "lat": 45.07279, "long": 39.009099, "square": 117, "rent_price": 117000, "population": 25000.0, "poi_count": 90, "type": "rent" }, "geometry": { "type": "Point", "coordinates": [ 4342473.036984397098422, 5632988.070292609743774 ] } },
{ "type": "Feature", "properties": { "ID": 1062, "Address": "Солнечная улица, 4Б", "lat": 45.071548, "long": 38.989686, "square": 50, "rent_price": 30000, "population": 25000.0, "poi_count": 16, "type": "rent" }, "geometry": { "type": "Point", "coordinates": [ 4340311.991709627211094, 5632792.296061971224844 ] } },
{ "type": "Feature", "properties": { "ID": 1063, "Address": "улица Шоссе Нефтяников, 42", "lat": 45.07144, "long": 38.984, "square": 46, "rent_price": 100000, "population": 25000.0, "poi_count": 38, "type": "rent" }, "geometry": { "type": "Point", "coordinates": [ 4339679.029084975831211, 5632775.272416890598834 ] } },
{ "type": "Feature", "properties": { "ID": 1064, "Address": "улица Красных Партизан, 2/3", "lat": 45.070976, "long": 38.901642, "square": 90, "rent_price": 103500, "population": 30000.0, "poi_count": 5, "type": "rent" }, "geometry": { "type": "Point", "coordinates": [ 4330510.978462224826217, 5632702.134159567765892 ] } },
{ "type": "Feature", "properties": { "ID": 1065, "Address": "улица Красных Партизан, 2/4", "lat": 45.070053, "long": 38.903699, "square": 250, "rent_price": 100000, "population": 13000.0, "poi_count": 7, "type": "rent" }, "geometry": { "type": "Point", "coordinates": [ 4330739.962654787115753, 5632556.647538012824953 ] } },
{ "type": "Feature", "properties": { "ID": 1066, "Address": "улица Красных Партизан, 2/4", "lat": 45.065883, "long": 38.898399, "square": 125, "rent_price": 143750, "population": 13000.0, "poi_count": 0, "type": "rent" }, "geometry": { "type": "Point", "coordinates": [ 4330149.969353581778705, 5631899.386233704164624 ] } },
{ "type": "Feature", "properties": { "ID": 1067, "Address": "улица Красных Партизан, 129", "lat": 45.063107, "long": 38.919977, "square": 68, "rent_price": 70000, "population": 13000.0, "poi_count": 36, "type": "rent" }, "geometry": { "type": "Point", "coordinates": [ 4332552.021325918845832, 5631461.869079891592264 ] } },
{ "type": "Feature", "properties": { "ID": 1068, "Address": "Клубная улица, 12А", "lat": 45.06249, "long": 38.979077, "square": 82, "rent_price": 123000, "population": 25000.0, "poi_count": 22, "type": "rent" }, "geometry": { "type": "Point", "coordinates": [ 4339131.003231801092625, 5631364.628419536165893 ] } },
{ "type": "Feature", "properties": { "ID": 1069, "Address": "улица Шоссе Нефтяников, 11", "lat": 45.058345, "long": 38.981395, "square": 85, "rent_price": 150000, "population": 39000.0, "poi_count": 148, "type": "rent" }, "geometry": { "type": "Point", "coordinates": [ 4339389.041811460629106, 5630711.39381350018084 ] } },
{ "type": "Feature", "properties": { "ID": 1070, "Address": "улица Монтажников, 2", "lat": 45.058441, "long": 38.962494, "square": 202, "rent_price": 300000, "population": 39000.0, "poi_count": 105, "type": "rent" }, "geometry": { "type": "Point", "coordinates": [ 4337284.992115977220237, 5630726.522474961355329 ] } },
{ "type": "Feature", "properties": { "ID": 1071, "Address": "улица имени Тургенева, 136", "lat": 45.057912, "long": 38.962413, "square": 170, "rent_price": 255000, "population": 39000.0, "poi_count": 97, "type": "rent" }, "geometry": { "type": "Point", "coordinates": [ 4337275.975237222388387, 5630643.157562354579568 ] } },
{ "type": "Feature", "properties": { "ID": 1072, "Address": "Алма-Атинская улица, 85", "lat": 45.040114, "long": 38.922654, "square": 120, "rent_price": 156000, "population": 31000.0, "poi_count": 19, "type": "rent" }, "geometry": { "type": "Point", "coordinates": [ 4332850.023602771572769, 5627838.826731253415346 ] } },
{ "type": "Feature", "properties": { "ID": 1073, "Address": "улица Академика Трубилина, 120", "lat": 45.050475, "long": 38.932427, "square": 200, "rent_price": 260000, "population": 21000.0, "poi_count": 9, "type": "rent" }, "geometry": { "type": "Point", "coordinates": [ 4333937.948986295610666, 5629471.245134932920337 ] } },
{ "type": "Feature", "properties": { "ID": 1074, "Address": "улица Каляева, 213/1", "lat": 45.051831, "long": 38.93903, "square": 102, "rent_price": 122880, "population": 21000.0, "poi_count": 17, "type": "rent" }, "geometry": { "type": "Point", "coordinates": [ 4334672.991584003902972, 5629684.910425554029644 ] } },
{ "type": "Feature", "properties": { "ID": 1075, "Address": "улица Герцена, 30", "lat": 45.042203, "long": 38.941006, "square": 53, "rent_price": 150000, "population": 12000.0, "poi_count": 6, "type": "rent" }, "geometry": { "type": "Point", "coordinates": [ 4334892.958897811360657, 5628167.933526272885501 ] } },
{ "type": "Feature", "properties": { "ID": 1076, "Address": "улица имени Калинина, 290", "lat": 45.041617, "long": 38.944645, "square": 40, "rent_price": 80000, "population": 12000.0, "poi_count": 10, "type": "rent" }, "geometry": { "type": "Point", "coordinates": [ 4335298.050524807535112, 5628075.612264870665967 ] } },
{ "type": "Feature", "properties": { "ID": 1077, "Address": "улица Кропоткина, 50", "lat": 45.043069, "long": 38.948696, "square": 53, "rent_price": 50000, "population": 12000.0, "poi_count": 26, "type": "rent" }, "geometry": { "type": "Point", "coordinates": [ 4335749.005782010965049, 5628304.369067122228444 ] } },
{ "type": "Feature", "properties": { "ID": 1078, "Address": "Северная улица, 207/1", "lat": 45.043954, "long": 38.953053, "square": 60, "rent_price": 120000, "population": 12000.0, "poi_count": 19, "type": "rent" }, "geometry": { "type": "Point", "coordinates": [ 4336234.024803397245705, 5628443.80013118032366 ] } },
{ "type": "Feature", "properties": { "ID": 1079, "Address": "улица Рылеева, 175", "lat": 45.048049, "long": 38.95714, "square": 50, "rent_price": 70000, "population": 39000.0, "poi_count": 21, "type": "rent" }, "geometry": { "type": "Point", "coordinates": [ 4336688.987562269903719, 5629088.992290082387626 ] } },
{ "type": "Feature", "properties": { "ID": 1080, "Address": "улица Красных Партизан, 108", "lat": 45.051647, "long": 38.952289, "square": 100, "rent_price": 110000, "population": 21000.0, "poi_count": 32, "type": "rent" }, "geometry": { "type": "Point", "coordinates": [ 4336148.97671243082732, 5629655.917198200710118 ] } },
{ "type": "Feature", "properties": { "ID": 1081, "Address": "улица Гагарина, 75/4", "lat": 45.054448, "long": 38.951831, "square": 30, "rent_price": 70000, "population": 21000.0, "poi_count": 35, "type": "rent" }, "geometry": { "type": "Point", "coordinates": [ 4336097.992385648190975, 5630097.286154169589281 ] } },
{ "type": "Feature", "properties": { "ID": 1082, "Address": "улица Бабушкина, 233", "lat": 45.048915, "long": 38.962126, "square": 129, "rent_price": 150000, "population": 39000.0, "poi_count": 47, "type": "rent" }, "geometry": { "type": "Point", "coordinates": [ 4337244.026543364860117, 5629225.441774585284293 ] } },
{ "type": "Feature", "properties": { "ID": 1083, "Address": "улица Атарбекова, 35", "lat": 45.060204, "long": 38.956736, "square": 145, "rent_price": 217500, "population": 21000.0, "poi_count": 84, "type": "rent" }, "geometry": { "type": "Point", "coordinates": [ 4336644.014487989246845, 5631004.358555624261498 ] } },
{ "type": "Feature", "properties": { "ID": 1084, "Address": "улица имени Тургенева, 136", "lat": 45.057912, "long": 38.962413, "square": 170, "rent_price": 255000, "population": 39000.0, "poi_count": 97, "type": "rent" }, "geometry": { "type": "Point", "coordinates": [ 4337275.975237222388387, 5630643.157562354579568 ] } },
{ "type": "Feature", "properties": { "ID": 1085, "Address": "улица Монтажников, 2", "lat": 45.058441, "long": 38.962494, "square": 202, "rent_price": 300000, "population": 39000.0, "poi_count": 105, "type": "rent" }, "geometry": { "type": "Point", "coordinates": [ 4337284.992115977220237, 5630726.522474961355329 ] } },
{ "type": "Feature", "properties": { "ID": 1086, "Address": "улица имени Тургенева, 164", "lat": 45.06904, "long": 38.96774, "square": 45, "rent_price": 60000, "population": 48000.0, "poi_count": 60, "type": "rent" }, "geometry": { "type": "Point", "coordinates": [ 4337868.974164678715169, 5632396.977492894977331 ] } },
{ "type": "Feature", "properties": { "ID": 1087, "Address": "улица Фёдора Лузана, 6", "lat": 45.068773, "long": 38.97702, "square": 230, "rent_price": 276360, "population": 25000.0, "poi_count": 57, "type": "rent" }, "geometry": { "type": "Point", "coordinates": [ 4338902.019039239734411, 5632354.893164473585784 ] } },
{ "type": "Feature", "properties": { "ID": 1088, "Address": "улица Шоссе Нефтяников, 42", "lat": 45.07144, "long": 38.984, "square": 46, "rent_price": 100000, "population": 25000.0, "poi_count": 38, "type": "rent" }, "geometry": { "type": "Point", "coordinates": [ 4339679.029084975831211, 5632775.272416890598834 ] } },
{ "type": "Feature", "properties": { "ID": 1089, "Address": "Солнечная улица, 4Б", "lat": 45.071548, "long": 38.989686, "square": 50, "rent_price": 30000, "population": 25000.0, "poi_count": 16, "type": "rent" }, "geometry": { "type": "Point", "coordinates": [ 4340311.991709627211094, 5632792.296061971224844 ] } },
{ "type": "Feature", "properties": { "ID": 1090, "Address": "улица Генерал-лейтенанта Александра Сапрунова, 35", "lat": 45.0692, "long": 39.06969, "square": 70, "rent_price": 140000, "population": 6500.0, "poi_count": 4, "type": "rent" }, "geometry": { "type": "Point", "coordinates": [ 4349217.996251052245498, 5632422.196660309098661 ] } },
{ "type": "Feature", "properties": { "ID": 1091, "Address": "Красная улица, 155", "lat": 45.049615, "long": 38.978709, "square": 30, "rent_price": 95000, "population": 39000.0, "poi_count": 136, "type": "rent" }, "geometry": { "type": "Point", "coordinates": [ 4339090.037659188732505, 5629335.737325026653707 ] } },
{ "type": "Feature", "properties": { "ID": 1092, "Address": "Красная улица, 149", "lat": 45.048348, "long": 38.978197, "square": 58, "rent_price": 150000, "population": 39000.0, "poi_count": 177, "type": "rent" }, "geometry": { "type": "Point", "coordinates": [ 4339033.042079903185368, 5629136.103368205949664 ] } },
{ "type": "Feature", "properties": { "ID": 1093, "Address": "улица имени Дзержинского, 18", "lat": 45.059625, "long": 38.978125, "square": 62, "rent_price": 80000, "population": 39000.0, "poi_count": 75, "type": "rent" }, "geometry": { "type": "Point", "coordinates": [ 4339025.027076567523181, 5630913.111388127319515 ] } },
{ "type": "Feature", "properties": { "ID": 1094, "Address": "улица Коммунаров, 254", "lat": 45.043355, "long": 38.9817, "square": 64, "rent_price": 90500, "population": 39000.0, "poi_count": 97, "type": "rent" }, "geometry": { "type": "Point", "coordinates": [ 4339422.994256150908768, 5628349.427909557707608 ] } },
{ "type": "Feature", "properties": { "ID": 1095, "Address": "улица Коммунаров, 258", "lat": 45.043693, "long": 38.981727, "square": 132, "rent_price": 151800, "population": 39000.0, "poi_count": 119, "type": "rent" }, "geometry": { "type": "Point", "coordinates": [ 4339425.999882402829826, 5628402.679559217765927 ] } },
{ "type": "Feature", "properties": { "ID": 1096, "Address": "улица Коммунаров, 266Л", "lat": 45.045361, "long": 38.983416, "square": 108, "rent_price": 140000, "population": 39000.0, "poi_count": 117, "type": "rent" }, "geometry": { "type": "Point", "coordinates": [ 4339614.018502353690565, 5628665.476331297308207 ] } },
{ "type": "Feature", "properties": { "ID": 1097, "Address": "Одесская улица, 48/3", "lat": 45.045374, "long": 38.987458, "square": 80, "rent_price": 64000, "population": 25000.0, "poi_count": 13, "type": "rent" }, "geometry": { "type": "Point", "coordinates": [ 4340063.971884139813483, 5628667.524537671357393 ] } },
{ "type": "Feature", "properties": { "ID": 1098, "Address": "улица Володи Головатого, 289", "lat": 45.040426, "long": 38.965189, "square": 65, "rent_price": 80000, "population": 12000.0, "poi_count": 31, "type": "rent" }, "geometry": { "type": "Point", "coordinates": [ 4337584.998143664561212, 5627887.979304477572441 ] } },
{ "type": "Feature", "properties": { "ID": 1099, "Address": "улица Володи Головатого, 291А", "lat": 45.040368, "long": 38.965602, "square": 80, "rent_price": 45000, "population": 12000.0, "poi_count": 36, "type": "rent" }, "geometry": { "type": "Point", "coordinates": [ 4337630.973093361593783, 5627878.841946866363287 ] } },
{ "type": "Feature", "properties": { "ID": 1100, "Address": "Северная улица, 324В", "lat": 45.040419, "long": 38.970642, "square": 60, "rent_price": 60000, "population": 39000.0, "poi_count": 123, "type": "rent" }, "geometry": { "type": "Point", "coordinates": [ 4338192.023326960392296, 5627886.876519449055195 ] } },
{ "type": "Feature", "properties": { "ID": 1101, "Address": "Октябрьская улица, 179", "lat": 45.0384, "long": 38.970354, "square": 58, "rent_price": 199999, "population": 21000.0, "poi_count": 140, "type": "rent" }, "geometry": { "type": "Point", "coordinates": [ 4338159.963313612155616, 5627568.807439733296633 ] } },
{ "type": "Feature", "properties": { "ID": 1102, "Address": "улица Кирова, 139", "lat": 45.03784, "long": 38.96801, "square": 50, "rent_price": 88750, "population": 21000.0, "poi_count": 79, "type": "rent" }, "geometry": { "type": "Point", "coordinates": [ 4337899.030427192337811, 5627480.588187383487821 ] } },
{ "type": "Feature", "properties": { "ID": 1103, "Address": "Северная улица, 378", "lat": 45.039126, "long": 38.981547, "square": 84, "rent_price": 168000, "population": 21000.0, "poi_count": 50, "type": "rent" }, "geometry": { "type": "Point", "coordinates": [ 4339405.962374062277377, 5627683.178684270940721 ] } },
{ "type": "Feature", "properties": { "ID": 1104, "Address": "улица Янковского, 170", "lat": 45.038521, "long": 38.984521, "square": 136, "rent_price": 109000, "population": 21000.0, "poi_count": 38, "type": "rent" }, "geometry": { "type": "Point", "coordinates": [ 4339737.026539680548012, 5627587.869213044643402 ] } },
{ "type": "Feature", "properties": { "ID": 1105, "Address": "улица Будённого, 129", "lat": 45.03705, "long": 38.972043, "square": 198, "rent_price": 198300, "population": 21000.0, "poi_count": 156, "type": "rent" }, "geometry": { "type": "Point", "coordinates": [ 4338347.98193356115371, 5627356.137495912611485 ] } },
{ "type": "Feature", "properties": { "ID": 1106, "Address": "улица Кубанская Набережная, 192", "lat": 45.031413, "long": 38.959467, "square": 56, "rent_price": 123860, "population": 12000.0, "poi_count": 14, "type": "rent" }, "geometry": { "type": "Point", "coordinates": [ 4336948.028017344884574, 5626468.176540894433856 ] } },
{ "type": "Feature", "properties": { "ID": 1107, "Address": "улица Кирова, 77", "lat": 45.03084, "long": 38.965683, "square": 39, "rent_price": 60000, "population": 12000.0, "poi_count": 36, "type": "rent" }, "geometry": { "type": "Point", "coordinates": [ 4337639.989972116425633, 5626377.920372244901955 ] } },
{ "type": "Feature", "properties": { "ID": 1108, "Address": "Октябрьская улица, 97", "lat": 45.02782, "long": 38.96686, "square": 115, "rent_price": 230000, "population": 21000.0, "poi_count": 109, "type": "rent" }, "geometry": { "type": "Point", "coordinates": [ 4337771.01301277987659, 5625902.239614791236818 ] } },
{ "type": "Feature", "properties": { "ID": 1109, "Address": "Гимназическая улица, 53", "lat": 45.026164, "long": 38.967453, "square": 120, "rent_price": 99000, "population": 21000.0, "poi_count": 138, "type": "rent" }, "geometry": { "type": "Point", "coordinates": [ 4337837.025470819324255, 5625641.413403086364269 ] } },
{ "type": "Feature", "properties": { "ID": 1110, "Address": "Карасунская улица, 82/2", "lat": 45.028056, "long": 38.972843, "square": 72, "rent_price": 72000, "population": 21000.0, "poi_count": 368, "type": "rent" }, "geometry": { "type": "Point", "coordinates": [ 4338437.03752619586885, 5625939.411114348098636 ] } },
{ "type": "Feature", "properties": { "ID": 1111, "Address": "Красноармейская улица, 62", "lat": 45.027183, "long": 38.974576, "square": 70, "rent_price": 60000, "population": 21000.0, "poi_count": 289, "type": "rent" }, "geometry": { "type": "Point", "coordinates": [ 4338629.954203741624951, 5625801.908832363784313 ] } },
{ "type": "Feature", "properties": { "ID": 1112, "Address": "улица Горького, 104", "lat": 45.031005, "long": 38.974199, "square": 32, "rent_price": 25000, "population": 21000.0, "poi_count": 223, "type": "rent" }, "geometry": { "type": "Point", "coordinates": [ 4338587.986755711957812, 5626403.910275817848742 ] } },
{ "type": "Feature", "properties": { "ID": 1113, "Address": "улица Горького, 104", "lat": 45.031005, "long": 38.974199, "square": 90, "rent_price": 135000, "population": 21000.0, "poi_count": 223, "type": "rent" }, "geometry": { "type": "Point", "coordinates": [ 4338587.986755711957812, 5626403.910275817848742 ] } },
{ "type": "Feature", "properties": { "ID": 1114, "Address": "Красноармейская улица, 80", "lat": 45.031668, "long": 38.975529, "square": 80, "rent_price": 150000, "population": 21000.0, "poi_count": 121, "type": "rent" }, "geometry": { "type": "Point", "coordinates": [ 4338736.04167846776545, 5626508.343189216218889 ] } },
{ "type": "Feature", "properties": { "ID": 1115, "Address": "Красная улица, 104", "lat": 45.0324, "long": 38.9734, "square": 40, "rent_price": 60000, "population": 21000.0, "poi_count": 142, "type": "rent" }, "geometry": { "type": "Point", "coordinates": [ 4338499.042482567951083, 5626623.646091572009027 ] } },
{ "type": "Feature", "properties": { "ID": 1116, "Address": "улица Кубанская Набережная, 5", "lat": 45.017977, "long": 38.958029, "square": 25, "rent_price": 50000, "population": 20000.0, "poi_count": 41, "type": "rent" }, "geometry": { "type": "Point", "coordinates": [ 4336787.950589584186673, 5624352.041042304597795 ] } },
{ "type": "Feature", "properties": { "ID": 1117, "Address": "Береговая улица, 146с18", "lat": 45.022405, "long": 38.955164, "square": 30, "rent_price": 50000, "population": 20000.0, "poi_count": 30, "type": "rent" }, "geometry": { "type": "Point", "coordinates": [ 4336469.020248462446034, 5625049.384804603643715 ] } },
{ "type": "Feature", "properties": { "ID": 1118, "Address": "улица Тургеневское шоссе, 13/1", "lat": 45.025234, "long": 38.942354, "square": 93, "rent_price": 65100, "population": 0.0, "poi_count": 0, "type": "rent" }, "geometry": { "type": "Point", "coordinates": [ 4335043.017571400851011, 5625494.938223239034414 ] } },
{ "type": "Feature", "properties": { "ID": 1119, "Address": "улица Тургеневское шоссе, 8", "lat": 45.024004, "long": 38.943046, "square": 91, "rent_price": 40950, "population": 0.0, "poi_count": 0, "type": "rent" }, "geometry": { "type": "Point", "coordinates": [ 4335120.050659029744565, 5625301.216640177182853 ] } },
{ "type": "Feature", "properties": { "ID": 1120, "Address": "улица Тургеневское шоссе, 8А", "lat": 45.023654, "long": 38.943728, "square": 62, "rent_price": 62000, "population": 0.0, "poi_count": 0, "type": "rent" }, "geometry": { "type": "Point", "coordinates": [ 4335195.97055175062269, 5625246.093373176641762 ] } },
{ "type": "Feature", "properties": { "ID": 1121, "Address": "улица Тургеневское шоссе, 19", "lat": 45.021698, "long": 38.939093, "square": 100, "rent_price": 145000, "population": 0.0, "poi_count": 0, "type": "rent" }, "geometry": { "type": "Point", "coordinates": [ 4334680.004711923189461, 5624938.039262375794351 ] } },
{ "type": "Feature", "properties": { "ID": 1122, "Address": "улица Тургеневское шоссе, 8", "lat": 45.024004, "long": 38.943046, "square": 62, "rent_price": 62000, "population": 0.0, "poi_count": 0, "type": "rent" }, "geometry": { "type": "Point", "coordinates": [ 4335120.050659029744565, 5625301.216640177182853 ] } },
{ "type": "Feature", "properties": { "ID": 1123, "Address": "улица Тургеневское шоссе, 8", "lat": 45.024004, "long": 38.943046, "square": 91, "rent_price": 40950, "population": 0.0, "poi_count": 0, "type": "rent" }, "geometry": { "type": "Point", "coordinates": [ 4335120.050659029744565, 5625301.216640177182853 ] } },
{ "type": "Feature", "properties": { "ID": 1124, "Address": "улица Тургеневское шоссе, 13/1", "lat": 45.025234, "long": 38.942354, "square": 93, "rent_price": 65100, "population": 0.0, "poi_count": 0, "type": "rent" }, "geometry": { "type": "Point", "coordinates": [ 4335043.017571400851011, 5625494.938223239034414 ] } },
{ "type": "Feature", "properties": { "ID": 1125, "Address": "улица Тургеневское шоссе, 33с1", "lat": 45.002958, "long": 38.92816, "square": 34, "rent_price": 51000, "population": 800.0, "poi_count": 0, "type": "rent" }, "geometry": { "type": "Point", "coordinates": [ 4333462.948719080537558, 5621987.174773884937167 ] } },
{ "type": "Feature", "properties": { "ID": 1126, "Address": "улица Тургеневское шоссе, 33с6", "lat": 45.001211, "long": 38.927568, "square": 34, "rent_price": 34000, "population": 800.0, "poi_count": 0, "type": "rent" }, "geometry": { "type": "Point", "coordinates": [ 4333397.047580530866981, 5621712.135372093878686 ] } },
{ "type": "Feature", "properties": { "ID": 1127, "Address": "Шоссейная улица, 73", "lat": 44.999452, "long": 38.935266, "square": 136, "rent_price": 47600, "population": 800.0, "poi_count": 0, "type": "rent" }, "geometry": { "type": "Point", "coordinates": [ 4334253.985020656138659, 5621435.215220197103918 ] } },
{ "type": "Feature", "properties": { "ID": 1128, "Address": "Шоссейная улица, 71/1", "lat": 44.997222, "long": 38.936632, "square": 100, "rent_price": 80000, "population": 800.0, "poi_count": 0, "type": "rent" }, "geometry": { "type": "Point", "coordinates": [ 4334406.047445081174374, 5621084.157549359835684 ] } },
{ "type": "Feature", "properties": { "ID": 1129, "Address": "Сквозная улица, 25", "lat": 44.98476, "long": 38.946558, "square": 91, "rent_price": 42000, "population": 0.0, "poi_count": 0, "type": "rent" }, "geometry": { "type": "Point", "coordinates": [ 4335511.004710695706308, 5619122.579097485169768 ] } },
{ "type": "Feature", "properties": { "ID": 1130, "Address": "Луговая улица, 1", "lat": 44.980443, "long": 38.930218, "square": 85, "rent_price": 40000, "population": 0.0, "poi_count": 0, "type": "rent" }, "geometry": { "type": "Point", "coordinates": [ 4333692.044231133535504, 5618443.162081493064761 ] } },
{ "type": "Feature", "properties": { "ID": 1131, "Address": "улица Тургеневское Шоссе, 2В", "lat": 44.984562, "long": 38.922672, "square": 106, "rent_price": 63600, "population": 0.0, "poi_count": 0, "type": "rent" }, "geometry": { "type": "Point", "coordinates": [ 4332852.02735360711813, 5619091.416391465812922 ] } },
{ "type": "Feature", "properties": { "ID": 1132, "Address": "улица Тургеневское Шоссе, 2/2", "lat": 45.026584, "long": 38.945318, "square": 90, "rent_price": 58500, "population": 12000.0, "poi_count": 0, "type": "rent" }, "geometry": { "type": "Point", "coordinates": [ 4335372.968542110174894, 5625707.564264331944287 ] } },
{ "type": "Feature", "properties": { "ID": 1133, "Address": "улица Тургеневское Шоссе, 2/2", "lat": 45.026877, "long": 38.945498, "square": 106, "rent_price": 68900, "population": 12000.0, "poi_count": 0, "type": "rent" }, "geometry": { "type": "Point", "coordinates": [ 4335393.006050454452634, 5625753.712652559392154 ] } },
{ "type": "Feature", "properties": { "ID": 1134, "Address": "Сквозная улица, 25", "lat": 45.024246, "long": 38.938195, "square": 91, "rent_price": 42000, "population": 0.0, "poi_count": 0, "type": "rent" }, "geometry": { "type": "Point", "coordinates": [ 4334580.039809190668166, 5625339.330639003776014 ] } },
{ "type": "Feature", "properties": { "ID": 1135, "Address": "Нефтеперегонная улица, 30", "lat": 44.990134, "long": 38.965153, "square": 25, "rent_price": 22000, "population": 50.0, "poi_count": 0, "type": "rent" }, "geometry": { "type": "Point", "coordinates": [ 4337580.990641996264458, 5619968.420116170309484 ] } },
{ "type": "Feature", "properties": { "ID": 1136, "Address": "Восточная улица, 39/1", "lat": 44.987966, "long": 38.963365, "square": 140, "rent_price": 140000, "population": 50.0, "poi_count": 0, "type": "rent" }, "geometry": { "type": "Point", "coordinates": [ 4337381.951392457820475, 5619627.178096927702427 ] } },
{ "type": "Feature", "properties": { "ID": 1137, "Address": "Товарная улица, 7", "lat": 45.017729, "long": 38.982104, "square": 46, "rent_price": 23000, "population": 7500.0, "poi_count": 23, "type": "rent" }, "geometry": { "type": "Point", "coordinates": [ 4339467.967330432496965, 5624312.986346872523427 ] } },
{ "type": "Feature", "properties": { "ID": 1138, "Address": "улица Вишняковой, 1/12", "lat": 45.00956, "long": 38.991429, "square": 188, "rent_price": 65800, "population": 7500.0, "poi_count": 2, "type": "rent" }, "geometry": { "type": "Point", "coordinates": [ 4340506.021582080051303, 5623026.638114020228386 ] } },
{ "type": "Feature", "properties": { "ID": 1139, "Address": "улица Вишняковой, 2А", "lat": 45.013096, "long": 38.996352, "square": 137, "rent_price": 100000, "population": 7500.0, "poi_count": 21, "type": "rent" }, "geometry": { "type": "Point", "coordinates": [ 4341054.047435255721211, 5623583.419037760235369 ] } },
{ "type": "Feature", "properties": { "ID": 1140, "Address": "Новороссийская улица, 2А", "lat": 45.022666, "long": 39.000601, "square": 36, "rent_price": 40000, "population": 25000.0, "poi_count": 42, "type": "rent" }, "geometry": { "type": "Point", "coordinates": [ 4341527.043951636180282, 5625090.490083537064493 ] } },
{ "type": "Feature", "properties": { "ID": 1141, "Address": "Озёрная улица, 17", "lat": 45.022354, "long": 39.003269, "square": 52, "rent_price": 50000, "population": 25000.0, "poi_count": 41, "type": "rent" }, "geometry": { "type": "Point", "coordinates": [ 4341824.044353072531521, 5625041.352760490961373 ] } },
{ "type": "Feature", "properties": { "ID": 1142, "Address": "Озёрная улица, 25", "lat": 45.022297, "long": 39.005784, "square": 120, "rent_price": 100000, "population": 25000.0, "poi_count": 43, "type": "rent" }, "geometry": { "type": "Point", "coordinates": [ 4342104.012872417457402, 5625032.375778482295573 ] } },
{ "type": "Feature", "properties": { "ID": 1143, "Address": "Озёрная улица, 15/3", "lat": 45.023647, "long": 39.005254, "square": 80, "rent_price": 75000, "population": 25000.0, "poi_count": 27, "type": "rent" }, "geometry": { "type": "Point", "coordinates": [ 4342045.013542296364903, 5625244.990911272354424 ] } },
{ "type": "Feature", "properties": { "ID": 1144, "Address": "Ставропольская улица, 105", "lat": 45.02166, "long": 39.016582, "square": 73, "rent_price": 155000, "population": 25000.0, "poi_count": 60, "type": "rent" }, "geometry": { "type": "Point", "coordinates": [ 4343306.040734003297985, 5624932.054675281047821 ] } },
{ "type": "Feature", "properties": { "ID": 1145, "Address": "Ставропольская улица, 204", "lat": 45.02101, "long": 39.015234, "square": 85, "rent_price": 85000, "population": 25000.0, "poi_count": 58, "type": "rent" }, "geometry": { "type": "Point", "coordinates": [ 4343155.982060412876308, 5624829.687353209592402 ] } },
{ "type": "Feature", "properties": { "ID": 1146, "Address": "Ставропольская улица, 210", "lat": 45.021048, "long": 39.016447, "square": 80, "rent_price": 64000, "population": 25000.0, "poi_count": 57, "type": "rent" }, "geometry": { "type": "Point", "coordinates": [ 4343291.012602746486664, 5624835.671872361563146 ] } },
{ "type": "Feature", "properties": { "ID": 1147, "Address": "Ставропольская улица, 212/1", "lat": 45.021086, "long": 39.016842, "square": 50, "rent_price": 100000, "population": 25000.0, "poi_count": 57, "type": "rent" }, "geometry": { "type": "Point", "coordinates": [ 4343334.983801607973874, 5624841.656395482830703 ] } },
{ "type": "Feature", "properties": { "ID": 1148, "Address": "Ставропольская улица, 212/5", "lat": 45.021137, "long": 39.017929, "square": 80, "rent_price": 64000, "population": 25000.0, "poi_count": 55, "type": "rent" }, "geometry": { "type": "Point", "coordinates": [ 4343455.988088102079928, 5624849.688261709176004 ] } },
{ "type": "Feature", "properties": { "ID": 1149, "Address": "улица Шевченко, 61", "lat": 45.016639, "long": 39.010231, "square": 75, "rent_price": 20000, "population": 25000.0, "poi_count": 2, "type": "rent" }, "geometry": { "type": "Point", "coordinates": [ 4342599.050647974945605, 5624141.336666759103537 ] } },
{ "type": "Feature", "properties": { "ID": 1150, "Address": "Воронежская улица, 24", "lat": 45.008993, "long": 39.014129, "square": 198, "rent_price": 158400, "population": 16000.0, "poi_count": 7, "type": "rent" }, "geometry": { "type": "Point", "coordinates": [ 4343032.974023086950183, 5622937.361112844198942 ] } },
{ "type": "Feature", "properties": { "ID": 1151, "Address": "улица Болотникова, 24/2", "lat": 45.008101, "long": 39.018738, "square": 81, "rent_price": 81000, "population": 16000.0, "poi_count": 4, "type": "rent" }, "geometry": { "type": "Point", "coordinates": [ 4343546.045556153170764, 5622796.913016168400645 ] } },
{ "type": "Feature", "properties": { "ID": 1152, "Address": "Обрывная улица, 133/2", "lat": 44.995526, "long": 39.024873, "square": 90, "rent_price": 45000, "population": 16000.0, "poi_count": 1, "type": "rent" }, "geometry": { "type": "Point", "coordinates": [ 4344228.990632170811296, 5620817.173955977894366 ] } },
{ "type": "Feature", "properties": { "ID": 1153, "Address": "Ставропольская улица, 226", "lat": 45.018487, "long": 39.031161, "square": 115, "rent_price": 280000, "population": 37000.0, "poi_count": 81, "type": "rent" }, "geometry": { "type": "Point", "coordinates": [ 4344928.967590278014541, 5624432.355665314011276 ] } },
{ "type": "Feature", "properties": { "ID": 1154, "Address": "Ставропольская улица, 151", "lat": 45.018678, "long": 39.034117, "square": 102, "rent_price": 163360, "population": 37000.0, "poi_count": 57, "type": "rent" }, "geometry": { "type": "Point", "coordinates": [ 4345258.02800506260246, 5624462.434463150799274 ] } },
{ "type": "Feature", "properties": { "ID": 1155, "Address": "улица Володарского, 91", "lat": 45.038419, "long": 39.006449, "square": 70, "rent_price": 50000, "population": 25000.0, "poi_count": 10, "type": "rent" }, "geometry": { "type": "Point", "coordinates": [ 4342178.040333795361221, 5627571.800608080811799 ] } },
{ "type": "Feature", "properties": { "ID": 1156, "Address": "Передовая улица, 36", "lat": 45.034069, "long": 39.012611, "square": 50, "rent_price": 50000, "population": 25000.0, "poi_count": 26, "type": "rent" }, "geometry": { "type": "Point", "coordinates": [ 4342863.991036063060164, 5626886.548524396494031 ] } },
{ "type": "Feature", "properties": { "ID": 1157, "Address": "Новороссийская улица, 3/6", "lat": 45.031177, "long": 39.020768, "square": 105, "rent_price": 80000, "population": 25000.0, "poi_count": 12, "type": "rent" }, "geometry": { "type": "Point", "coordinates": [ 4343772.02412246260792, 5626431.002861117944121 ] } },
{ "type": "Feature", "properties": { "ID": 1158, "Address": "Новороссийская улица, 3/4", "lat": 45.031515, "long": 39.021621, "square": 140, "rent_price": 126000, "population": 25000.0, "poi_count": 8, "type": "rent" }, "geometry": { "type": "Point", "coordinates": [ 4343866.979648111388087, 5626484.243178749457002 ] } },
{ "type": "Feature", "properties": { "ID": 1159, "Address": "Новороссийская улица, 172", "lat": 45.031559, "long": 39.023427, "square": 106, "rent_price": 92900, "population": 25000.0, "poi_count": 12, "type": "rent" }, "geometry": { "type": "Point", "coordinates": [ 4344068.022648482583463, 5626491.173894113861024 ] } },
{ "type": "Feature", "properties": { "ID": 1160, "Address": "улица Шишкина, 13", "lat": 45.029757, "long": 39.02349, "square": 50, "rent_price": 33500, "population": 25000.0, "poi_count": 18, "type": "rent" }, "geometry": { "type": "Point", "coordinates": [ 4344075.035776403732598, 5626207.333955901674926 ] } },
{ "type": "Feature", "properties": { "ID": 1161, "Address": "Новороссийская улица, 7Б", "lat": 45.033088, "long": 39.025331, "square": 100, "rent_price": 70000, "population": 25000.0, "poi_count": 10, "type": "rent" }, "geometry": { "type": "Point", "coordinates": [ 4344279.97495895344764, 5626732.019562828354537 ] } },
{ "type": "Feature", "properties": { "ID": 1162, "Address": "Новороссийская улица, 7Б", "lat": 45.033088, "long": 39.025331, "square": 220, "rent_price": 220000, "population": 25000.0, "poi_count": 10, "type": "rent" }, "geometry": { "type": "Point", "coordinates": [ 4344279.97495895344764, 5626732.019562828354537 ] } },
{ "type": "Feature", "properties": { "ID": 1163, "Address": "Уральская улица, 6", "lat": 45.030292, "long": 39.028969, "square": 175, "rent_price": 262500, "population": 25000.0, "poi_count": 23, "type": "rent" }, "geometry": { "type": "Point", "coordinates": [ 4344684.955266458913684, 5626291.602927129715681 ] } },
{ "type": "Feature", "properties": { "ID": 1164, "Address": "Уральская улица, 68", "lat": 45.031069, "long": 39.03594, "square": 120, "rent_price": 150000, "population": 37000.0, "poi_count": 9, "type": "rent" }, "geometry": { "type": "Point", "coordinates": [ 4345460.963436779566109, 5626413.991228275932372 ] } },
{ "type": "Feature", "properties": { "ID": 1165, "Address": "Новороссийская улица, 214", "lat": 45.03598, "long": 39.042965, "square": 100, "rent_price": 130000, "population": 25000.0, "poi_count": 13, "type": "rent" }, "geometry": { "type": "Point", "coordinates": [ 4346242.982859601266682, 5627187.580438104458153 ] } },
{ "type": "Feature", "properties": { "ID": 1166, "Address": "Новороссийская улица, 220/Р2", "lat": 45.036228, "long": 39.046172, "square": 226, "rent_price": 45000, "population": 25000.0, "poi_count": 16, "type": "rent" }, "geometry": { "type": "Point", "coordinates": [ 4346599.984466576017439, 5627226.647587725892663 ] } },
{ "type": "Feature", "properties": { "ID": 1167, "Address": "Новороссийская улица, 226", "lat": 45.036426, "long": 39.048732, "square": 47, "rent_price": 30000, "population": 9000.0, "poi_count": 40, "type": "rent" }, "geometry": { "type": "Point", "coordinates": [ 4346884.962363006547093, 5627257.838417442515492 ] } },
{ "type": "Feature", "properties": { "ID": 1168, "Address": "Новороссийская улица, 232", "lat": 45.036974, "long": 39.050197, "square": 50, "rent_price": 23000, "population": 9000.0, "poi_count": 59, "type": "rent" }, "geometry": { "type": "Point", "coordinates": [ 4347048.045417019166052, 5627344.165114927105606 ] } },
{ "type": "Feature", "properties": { "ID": 1169, "Address": "Уральская улица, 79/1к2", "lat": 45.035853, "long": 39.050807, "square": 55, "rent_price": 165000, "population": 9000.0, "poi_count": 74, "type": "rent" }, "geometry": { "type": "Point", "coordinates": [ 4347115.950306402519345, 5627167.574342359788716 ] } },
{ "type": "Feature", "properties": { "ID": 1170, "Address": "Уральская улица, 79/1к2", "lat": 45.035853, "long": 39.050807, "square": 55, "rent_price": 165000, "population": 9000.0, "poi_count": 74, "type": "rent" }, "geometry": { "type": "Point", "coordinates": [ 4347115.950306402519345, 5627167.574342359788716 ] } },
{ "type": "Feature", "properties": { "ID": 1171, "Address": "Уральская улица, 79/2", "lat": 45.034483, "long": 39.052631, "square": 107, "rent_price": 214000, "population": 9000.0, "poi_count": 76, "type": "rent" }, "geometry": { "type": "Point", "coordinates": [ 4347318.997057609260082, 5626951.76337640825659 ] } },
{ "type": "Feature", "properties": { "ID": 1172, "Address": "Уральская улица, 106", "lat": 45.032916, "long": 39.054086, "square": 121, "rent_price": 135000, "population": 9000.0, "poi_count": 69, "type": "rent" }, "geometry": { "type": "Point", "coordinates": [ 4347480.966916713863611, 5626704.926072873175144 ] } },
{ "type": "Feature", "properties": { "ID": 1173, "Address": "Уральская улица, 102", "lat": 45.032636, "long": 39.051787, "square": 100, "rent_price": 145000, "population": 9000.0, "poi_count": 83, "type": "rent" }, "geometry": { "type": "Point", "coordinates": [ 4347225.043407380580902, 5626660.820565725676715 ] } },
{ "type": "Feature", "properties": { "ID": 1174, "Address": "Уральская улица, 100/6", "lat": 45.031661, "long": 39.050628, "square": 149, "rent_price": 223500, "population": 37000.0, "poi_count": 70, "type": "rent" }, "geometry": { "type": "Point", "coordinates": [ 4347096.024117551743984, 5626507.240572953596711 ] } },
{ "type": "Feature", "properties": { "ID": 1175, "Address": "Уральская улица, 98/11", "lat": 45.02982, "long": 39.046235, "square": 147, "rent_price": 132300, "population": 37000.0, "poi_count": 64, "type": "rent" }, "geometry": { "type": "Point", "coordinates": [ 4346606.997594497166574, 5626217.257177016697824 ] } },
{ "type": "Feature", "properties": { "ID": 1176, "Address": "Уральская улица, 98/11", "lat": 45.02982, "long": 39.046235, "square": 53, "rent_price": 95400, "population": 37000.0, "poi_count": 64, "type": "rent" }, "geometry": { "type": "Point", "coordinates": [ 4346606.997594497166574, 5626217.257177016697824 ] } },
{ "type": "Feature", "properties": { "ID": 1177, "Address": "улица Стасова, 182/1", "lat": 45.02654, "long": 39.046298, "square": 60, "rent_price": 112680, "population": 37000.0, "poi_count": 38, "type": "rent" }, "geometry": { "type": "Point", "coordinates": [ 4346614.010722416453063, 5625700.634151346981525 ] } },
{ "type": "Feature", "properties": { "ID": 1178, "Address": "улица Селезнёва, 191/1", "lat": 45.022552, "long": 39.046675, "square": 121, "rent_price": 181500, "population": 37000.0, "poi_count": 40, "type": "rent" }, "geometry": { "type": "Point", "coordinates": [ 4346655.97817044518888, 5625072.536030608229339 ] } },
{ "type": "Feature", "properties": { "ID": 1179, "Address": "улица Селезнёва, 150", "lat": 45.022068, "long": 39.04566, "square": 37, "rent_price": 50000, "population": 37000.0, "poi_count": 34, "type": "rent" }, "geometry": { "type": "Point", "coordinates": [ 4346542.988887288607657, 5624996.310449606738985 ] } },
{ "type": "Feature", "properties": { "ID": 1180, "Address": "Старокубанская улица, 127А", "lat": 45.02001, "long": 39.049092, "square": 150, "rent_price": 220000, "population": 37000.0, "poi_count": 18, "type": "rent" }, "geometry": { "type": "Point", "coordinates": [ 4346925.037379693239927, 5624672.201434712857008 ] } },
{ "type": "Feature", "properties": { "ID": 1181, "Address": "Сормовская улица, 1/2к3", "lat": 45.024221, "long": 39.051876, "square": 150, "rent_price": 270000, "population": 37000.0, "poi_count": 28, "type": "rent" }, "geometry": { "type": "Point", "coordinates": [ 4347234.950842060148716, 5625335.393234969116747 ] } },
{ "type": "Feature", "properties": { "ID": 1182, "Address": "Сормовская улица, 1/4к1", "lat": 45.025055, "long": 39.052586, "square": 92, "rent_price": 137700, "population": 37000.0, "poi_count": 26, "type": "rent" }, "geometry": { "type": "Point", "coordinates": [ 4347313.987680523656309, 5625466.745961709879339 ] } },
{ "type": "Feature", "properties": { "ID": 1183, "Address": "улица Лизы Чайкиной, 2/3", "lat": 45.027298, "long": 39.057796, "square": 247, "rent_price": 100000, "population": 37000.0, "poi_count": 17, "type": "rent" }, "geometry": { "type": "Point", "coordinates": [ 4347893.962227557785809, 5625820.021842364221811 ] } },
{ "type": "Feature", "properties": { "ID": 1184, "Address": "Трамвайная улица, 4/1", "lat": 45.013122, "long": 39.058605, "square": 170, "rent_price": 170000, "population": 10000.0, "poi_count": 38, "type": "rent" }, "geometry": { "type": "Point", "coordinates": [ 4347984.019695607945323, 5623587.513142454437912 ] } },
{ "type": "Feature", "properties": { "ID": 1185, "Address": "улица Автолюбителей, 13/1", "lat": 45.00464, "long": 39.067687, "square": 90, "rent_price": 135000, "population": 10000.0, "poi_count": 26, "type": "rent" }, "geometry": { "type": "Point", "coordinates": [ 4348995.023310993798077, 5622251.988808585330844 ] } },
{ "type": "Feature", "properties": { "ID": 1186, "Address": "улица Автолюбителей, 15/1", "lat": 45.00508, "long": 39.067651, "square": 25, "rent_price": 35000, "population": 10000.0, "poi_count": 31, "type": "rent" }, "geometry": { "type": "Point", "coordinates": [ 4348991.01580932457, 5622321.26367973536253 ] } },
{ "type": "Feature", "properties": { "ID": 1187, "Address": "Сормовская улица, 12/12", "lat": 45.022711, "long": 39.063932, "square": 34, "rent_price": 23800, "population": 28000.0, "poi_count": 25, "type": "rent" }, "geometry": { "type": "Point", "coordinates": [ 4348577.018623065203428, 5625097.577219532802701 ] } },
{ "type": "Feature", "properties": { "ID": 1188, "Address": "Сормовская улица, 7/6", "lat": 45.024374, "long": 39.065225, "square": 35, "rent_price": 70000, "population": 28000.0, "poi_count": 42, "type": "rent" }, "geometry": { "type": "Point", "coordinates": [ 4348720.954724659211934, 5625359.490174602717161 ] } },
{ "type": "Feature", "properties": { "ID": 1189, "Address": "Краевая улица, 10", "lat": 45.014906, "long": 39.073661, "square": 25, "rent_price": 37500, "population": 28000.0, "poi_count": 19, "type": "rent" }, "geometry": { "type": "Point", "coordinates": [ 4349660.045948992483318, 5623868.436149981804192 ] } },
{ "type": "Feature", "properties": { "ID": 1190, "Address": "Магистральная улица, 1", "lat": 45.03133, "long": 39.063132, "square": 36, "rent_price": 30000, "population": 9000.0, "poi_count": 7, "type": "rent" }, "geometry": { "type": "Point", "coordinates": [ 4348487.963030430488288, 5626455.102729262784123 ] } },
{ "type": "Feature", "properties": { "ID": 1191, "Address": "Уральская улица, 87/1", "lat": 45.035935, "long": 39.066995, "square": 48, "rent_price": 79500, "population": 9000.0, "poi_count": 25, "type": "rent" }, "geometry": { "type": "Point", "coordinates": [ 4348917.990223364904523, 5627180.491658940911293 ] } },
{ "type": "Feature", "properties": { "ID": 1192, "Address": "Новороссийская улица, 240А", "lat": 45.037604, "long": 39.067732, "square": 113, "rent_price": 124300, "population": 9000.0, "poi_count": 21, "type": "rent" }, "geometry": { "type": "Point", "coordinates": [ 4349000.032688079401851, 5627443.41033248975873 ] } },
{ "type": "Feature", "properties": { "ID": 1193, "Address": "улица Дежнёва, 37", "lat": 45.03954, "long": 39.074227, "square": 52, "rent_price": 40000, "population": 9000.0, "poi_count": 1, "type": "rent" }, "geometry": { "type": "Point", "coordinates": [ 4349723.052780781872571, 5627748.399299884214997 ] } },
{ "type": "Feature", "properties": { "ID": 1194, "Address": "Уральская улица, 138", "lat": 45.036426, "long": 39.078871, "square": 150, "rent_price": 175000, "population": 29000.0, "poi_count": 10, "type": "rent" }, "geometry": { "type": "Point", "coordinates": [ 4350240.020496025681496, 5627257.838417442515492 ] } },
{ "type": "Feature", "properties": { "ID": 1195, "Address": "Новороссийская улица, 250/1", "lat": 45.040158, "long": 39.079832, "square": 34, "rent_price": 20400, "population": 29000.0, "poi_count": 8, "type": "rent" }, "geometry": { "type": "Point", "coordinates": [ 4350346.998526678420603, 5627845.758488163352013 ] } },
{ "type": "Feature", "properties": { "ID": 1196, "Address": "Уральская улица, 97литЭ", "lat": 45.0377, "long": 39.082473, "square": 72, "rent_price": 100800, "population": 29000.0, "poi_count": 17, "type": "rent" }, "geometry": { "type": "Point", "coordinates": [ 4350640.993301862850785, 5627458.53350920137018 ] } },
{ "type": "Feature", "properties": { "ID": 1197, "Address": "Уральская улица, 97литД", "lat": 45.037942, "long": 39.083731, "square": 190, "rent_price": 190000, "population": 29000.0, "poi_count": 29, "type": "rent" }, "geometry": { "type": "Point", "coordinates": [ 4350781.033221281133592, 5627496.656629752367735 ] } },
{ "type": "Feature", "properties": { "ID": 1198, "Address": "Уральская улица, 97Б", "lat": 45.038674, "long": 39.083039, "square": 216, "rent_price": 169000, "population": 29000.0, "poi_count": 24, "type": "rent" }, "geometry": { "type": "Point", "coordinates": [ 4350704.000133651308715, 5627611.97217420488596 ] } },
{ "type": "Feature", "properties": { "ID": 1199, "Address": "улица имени Мецената Лю Трахова, 14", "lat": 44.999236, "long": 39.085509, "square": 50, "rent_price": 75000, "population": 36000.0, "poi_count": 3, "type": "rent" }, "geometry": { "type": "Point", "coordinates": [ 4350978.959275911562145, 5621401.210830259136856 ] } },
{ "type": "Feature", "properties": { "ID": 1200, "Address": "Бородинская улица, 131А", "lat": 45.012587, "long": 39.099685, "square": 221, "rent_price": 250000, "population": 14000.0, "poi_count": 15, "type": "rent" }, "geometry": { "type": "Point", "coordinates": [ 4352557.024377395398915, 5623503.269439481198788 ] } },
{ "type": "Feature", "properties": { "ID": 1201, "Address": "улица имени В.Н. Мачуги, 166/1", "lat": 45.014836, "long": 39.094933, "square": 44, "rent_price": 44000, "population": 14000.0, "poi_count": 13, "type": "rent" }, "geometry": { "type": "Point", "coordinates": [ 4352028.034157146699727, 5623857.413221279159188 ] } },
{ "type": "Feature", "properties": { "ID": 1202, "Address": "улица Кирова, 198", "lat": 45.021418, "long": 39.096074, "square": 56, "rent_price": 33600, "population": 14000.0, "poi_count": 10, "type": "rent" }, "geometry": { "type": "Point", "coordinates": [ 4352155.049696142785251, 5624893.942398032173514 ] } },
{ "type": "Feature", "properties": { "ID": 1204, "Address": "Крылатая улица, 2", "lat": 45.01144, "long": 39.122574, "square": 100, "rent_price": 80000, "population": 400.0, "poi_count": 69, "type": "rent" }, "geometry": { "type": "Point", "coordinates": [ 4355105.016202163882554, 5623322.659891089424491 ] } },
{ "type": "Feature", "properties": { "ID": 1205, "Address": "Криничная улица, 173", "lat": 45.013294, "long": 39.118657, "square": 128, "rent_price": 100000, "population": 14000.0, "poi_count": 20, "type": "rent" }, "geometry": { "type": "Point", "coordinates": [ 4354668.977756726555526, 5623614.597266474738717 ] } }
]
}
