{
"type": "FeatureCollection",
"name": "hex_centers",
"crs": { "type": "name", "properties": { "name": "urn:ogc:def:crs:EPSG::3857" } },
"features": [
{ "type": "Feature", "properties": { "hex_id": 4 }, "geometry": { "type": "Point", "coordinates": [ 4331275.76810163911432, 5625816.563832987099886 ] } },
{ "type": "Feature", "properties": { "hex_id": 5 }, "geometry": { "type": "Point", "coordinates": [ 4329375.964934096671641, 5630129.432399301789701 ] } },
{ "type": "Feature", "properties": { "hex_id": 6 }, "geometry": { "type": "Point", "coordinates": [ 4328975.994003674946725, 5630666.725180273875594 ] } },
{ "type": "Feature", "properties": { "hex_id": 11 }, "geometry": { "type": "Point", "coordinates": [ 4334220.336849241517484, 5624840.454367416910827 ] } },
{ "type": "Feature", "properties": { "hex_id": 12 }, "geometry": { "type": "Point", "coordinates": [ 4332610.254264160059392, 5627474.166096981614828 ] } },
{ "type": "Feature", "properties": { "hex_id": 13 }, "geometry": { "type": "Point", "coordinates": [ 4331654.797362074255943, 5631424.368060186505318 ] } },
{ "type": "Feature", "properties": { "hex_id": 14 }, "geometry": { "type": "Point", "coordinates": [ 4330552.273540529422462, 5634159.394468868151307 ] } },
{ "type": "Feature", "properties": { "hex_id": 15 }, "geometry": { "type": "Point", "coordinates": [ 4330645.174108374863863, 5637049.469006950967014 ] } },
{ "type": "Feature", "properties": { "hex_id": 19 }, "geometry": { "type": "Point", "coordinates": [ 4337426.558702697046101, 5624335.638171992264688 ] } },
{ "type": "Feature", "properties": { "hex_id": 20 }, "geometry": { "type": "Point", "coordinates": [ 4336079.027997196651995, 5627257.317068357020617 ] } },
{ "type": "Feature", "properties": { "hex_id": 21 }, "geometry": { "type": "Point", "coordinates": [ 4335181.000500228255987, 5630542.17681395355612 ] } },
{ "type": "Feature", "properties": { "hex_id": 22 }, "geometry": { "type": "Point", "coordinates": [ 4333554.509000257588923, 5632294.214175637811422 ] } },
{ "type": "Feature", "properties": { "hex_id": 23 }, "geometry": { "type": "Point", "coordinates": [ 4331941.243085503578186, 5637010.531615184620023 ] } },
{ "type": "Feature", "properties": { "hex_id": 25 }, "geometry": { "type": "Point", "coordinates": [ 4340534.333839237689972, 5620493.406660133041441 ] } },
{ "type": "Feature", "properties": { "hex_id": 26 }, "geometry": { "type": "Point", "coordinates": [ 4340615.392981784418225, 5623887.900483725592494 ] } },
{ "type": "Feature", "properties": { "hex_id": 27 }, "geometry": { "type": "Point", "coordinates": [ 4339113.813158854842186, 5626538.241877967491746 ] } },
{ "type": "Feature", "properties": { "hex_id": 28 }, "geometry": { "type": "Point", "coordinates": [ 4338200.953933109529316, 5629784.145557628944516 ] } },
{ "type": "Feature", "properties": { "hex_id": 29 }, "geometry": { "type": "Point", "coordinates": [ 4337318.481327949091792, 5632518.899783372879028 ] } },
{ "type": "Feature", "properties": { "hex_id": 30 }, "geometry": { "type": "Point", "coordinates": [ 4335605.162446656264365, 5637488.898899956606328 ] } },
{ "type": "Feature", "properties": { "hex_id": 31 }, "geometry": { "type": "Point", "coordinates": [ 4334340.782417906448245, 5639624.238964178599417 ] } },
{ "type": "Feature", "properties": { "hex_id": 32 }, "geometry": { "type": "Point", "coordinates": [ 4334804.014624667353928, 5642029.215109555050731 ] } },
{ "type": "Feature", "properties": { "hex_id": 34 }, "geometry": { "type": "Point", "coordinates": [ 4344357.26583908777684, 5622706.132394006475806 ] } },
{ "type": "Feature", "properties": { "hex_id": 35 }, "geometry": { "type": "Point", "coordinates": [ 4343214.277294754981995, 5625578.275777461007237 ] } },
{ "type": "Feature", "properties": { "hex_id": 36 }, "geometry": { "type": "Point", "coordinates": [ 4341842.606878161430359, 5629027.28255860041827 ] } },
{ "type": "Feature", "properties": { "hex_id": 37 }, "geometry": { "type": "Point", "coordinates": [ 4340661.316553255543113, 5632044.138728160411119 ] } },
{ "type": "Feature", "properties": { "hex_id": 38 }, "geometry": { "type": "Point", "coordinates": [ 4339238.06872776709497, 5636262.418574235402048 ] } },
{ "type": "Feature", "properties": { "hex_id": 39 }, "geometry": { "type": "Point", "coordinates": [ 4337921.815502967685461, 5638539.939652882516384 ] } },
{ "type": "Feature", "properties": { "hex_id": 40 }, "geometry": { "type": "Point", "coordinates": [ 4337198.628431028686464, 5641640.513470131903887 ] } },
{ "type": "Feature", "properties": { "hex_id": 41 }, "geometry": { "type": "Point", "coordinates": [ 4348216.603218373842537, 5622346.500014640390873 ] } },
{ "type": "Feature", "properties": { "hex_id": 42 }, "geometry": { "type": "Point", "coordinates": [ 4346072.623312045820057, 5625163.357472249306738 ] } },
{ "type": "Feature", "properties": { "hex_id": 43 }, "geometry": { "type": "Point", "coordinates": [ 4344888.042497482150793, 5629027.373494301922619 ] } },
{ "type": "Feature", "properties": { "hex_id": 44 }, "geometry": { "type": "Point", "coordinates": [ 4344182.673160961829126, 5631641.300386753864586 ] } },
{ "type": "Feature", "properties": { "hex_id": 45 }, "geometry": { "type": "Point", "coordinates": [ 4342631.045321621932089, 5635349.977267476730049 ] } },
{ "type": "Feature", "properties": { "hex_id": 46 }, "geometry": { "type": "Point", "coordinates": [ 4342085.161344803869724, 5637740.089297757484019 ] } },
{ "type": "Feature", "properties": { "hex_id": 47 }, "geometry": { "type": "Point", "coordinates": [ 4340248.376902157440782, 5641810.455226720310748 ] } },
{ "type": "Feature", "properties": { "hex_id": 48 }, "geometry": { "type": "Point", "coordinates": [ 4340465.761032909154892, 5644232.979146582074463 ] } },
{ "type": "Feature", "properties": { "hex_id": 49 }, "geometry": { "type": "Point", "coordinates": [ 4350310.539597968570888, 5621501.292023527435958 ] } },
{ "type": "Feature", "properties": { "hex_id": 50 }, "geometry": { "type": "Point", "coordinates": [ 4349483.214937867596745, 5624003.678891546092927 ] } },
{ "type": "Feature", "properties": { "hex_id": 51 }, "geometry": { "type": "Point", "coordinates": [ 4348271.573843113146722, 5627008.547498881816864 ] } },
{ "type": "Feature", "properties": { "hex_id": 52 }, "geometry": { "type": "Point", "coordinates": [ 4346934.213286290876567, 5631273.198198912665248 ] } },
{ "type": "Feature", "properties": { "hex_id": 53 }, "geometry": { "type": "Point", "coordinates": [ 4345934.399930195882916, 5634100.427014162763953 ] } },
{ "type": "Feature", "properties": { "hex_id": 54 }, "geometry": { "type": "Point", "coordinates": [ 4345075.942059152759612, 5637027.27571097202599 ] } },
{ "type": "Feature", "properties": { "hex_id": 55 }, "geometry": { "type": "Point", "coordinates": [ 4343808.297150387428701, 5639866.270940413698554 ] } },
{ "type": "Feature", "properties": { "hex_id": 56 }, "geometry": { "type": "Point", "coordinates": [ 4342170.5077149188146, 5644203.538861467503011 ] } },
{ "type": "Feature", "properties": { "hex_id": 57 }, "geometry": { "type": "Point", "coordinates": [ 4352831.098529704846442, 5623864.794258749112487 ] } },
{ "type": "Feature", "properties": { "hex_id": 58 }, "geometry": { "type": "Point", "coordinates": [ 4351702.378583339042962, 5627074.72579353209585 ] } },
{ "type": "Feature", "properties": { "hex_id": 60 }, "geometry": { "type": "Point", "coordinates": [ 4349267.177202085964382, 5633095.790877866558731 ] } },
{ "type": "Feature", "properties": { "hex_id": 61 }, "geometry": { "type": "Point", "coordinates": [ 4348234.627699256874621, 5637296.945856022648513 ] } },
{ "type": "Feature", "properties": { "hex_id": 62 }, "geometry": { "type": "Point", "coordinates": [ 4346350.121685074642301, 5639905.506120718084276 ] } },
{ "type": "Feature", "properties": { "hex_id": 64 }, "geometry": { "type": "Point", "coordinates": [ 4343793.453124441206455, 5646826.311712186783552 ] } },
{ "type": "Feature", "properties": { "hex_id": 65 }, "geometry": { "type": "Point", "coordinates": [ 4355105.016202163882554, 5623322.659891089424491 ] } },
{ "type": "Feature", "properties": { "hex_id": 66 }, "geometry": { "type": "Point", "coordinates": [ 4354785.944856352172792, 5627154.067528443410993 ] } },
{ "type": "Feature", "properties": { "hex_id": 67 }, "geometry": { "type": "Point", "coordinates": [ 4354709.319940189830959, 5629582.020178356207907 ] } },
{ "type": "Feature", "properties": { "hex_id": 74 }, "geometry": { "type": "Point", "coordinates": [ 4357827.334349513985217, 5630299.674346166662872 ] } },
{ "type": "Feature", "properties": { "hex_id": 75 }, "geometry": { "type": "Point", "coordinates": [ 4356534.497613312676549, 5631500.806060499511659 ] } }
]
}
