{
"type": "FeatureCollection",
"name": "krasnodar_hex_grid_updated",
"crs": { "type": "name", "properties": { "name": "urn:ogc:def:crs:OGC:1.3:CRS84" } },
"features": [
{ "type": "Feature", "properties": { "id": 1, "geometry_y": "POLYGON ((38.91394910119737 44.95674787581145, 38.91737723393525 44.96922661567391, 38.934364709692844 44.97336473652846, 38.947924052712565 44.96502561940748, 38.94449591997467 44.95254596570414, 38.927508444217075 44.948406342963004, 38.91394910119737 44.95674787581145))", "population": null, "Pedestrian traffic": null, "car traffic": null }, "geometry": { "type": "Polygon", "coordinates": [ [ [ 38.913949101197367, 44.956747875811452 ], [ 38.917377233935248, 44.969226615673911 ], [ 38.934364709692844, 44.97336473652846 ], [ 38.947924052712565, 44.965025619407477 ], [ 38.944495919974671, 44.95254596570414 ], [ 38.927508444217075, 44.948406342963004 ], [ 38.913949101197367, 44.956747875811452 ] ] ] } },
{ "type": "Feature", "properties": { "id": 2, "geometry_y": "POLYGON ((38.90381789091554 44.977565122039785, 38.90724602365342 44.99003933353115, 38.92423349941102 44.994175952498026, 38.93779284243074 44.98583986186137, 38.934364709692844 44.97336473652846, 38.91737723393525 44.96922661567391, 38.90381789091554 44.977565122039785))", "population": null, "Pedestrian traffic": null, "car traffic": null }, "geometry": { "type": "Polygon", "coordinates": [ [ [ 38.903817890915541, 44.977565122039785 ], [ 38.907246023653421, 44.990039333531151 ], [ 38.924233499411017, 44.994175952498026 ], [ 38.937792842430738, 44.985839861861372 ], [ 38.934364709692844, 44.97336473652846 ], [ 38.917377233935248, 44.969226615673911 ], [ 38.903817890915541, 44.977565122039785 ] ] ] } },
{ "type": "Feature", "properties": { "id": 3, "geometry_y": "POLYGON ((38.893686680633714 44.998374813412404, 38.897114813371594 45.010844496530815, 38.91410228912919 45.01497961360971, 38.92766163214891 45.006646549458154, 38.92423349941102 44.994175952498026, 38.90724602365342 44.99003933353114, 38.893686680633714 44.998374813412404))", "population": null, "Pedestrian traffic": null, "car traffic": null }, "geometry": { "type": "Polygon", "coordinates": [ [ [ 38.893686680633714, 44.998374813412404 ], [ 38.897114813371594, 45.010844496530815 ], [ 38.91410228912919, 45.014979613609711 ], [ 38.927661632148912, 45.006646549458154 ], [ 38.924233499411017, 44.994175952498026 ], [ 38.907246023653421, 44.990039333531143 ], [ 38.893686680633714, 44.998374813412404 ] ] ] } },
{ "type": "Feature", "properties": { "id": 4, "geometry_y": "POLYGON ((38.883555470351894 45.01917694992701, 38.886983603089774 45.03164210467298, 38.90397107884738 45.035775719864404, 38.917530421867085 45.02744568219711, 38.914102289129204 45.01497961360971, 38.89711481337161 45.010844496530815, 38.883555470351894 45.01917694992701))", "population": 15000.0, "Pedestrian traffic": 11000.0, "car traffic": 3800.0 }, "geometry": { "type": "Polygon", "coordinates": [ [ [ 38.883555470351894, 45.019176949927008 ], [ 38.886983603089774, 45.031642104672983 ], [ 38.903971078847377, 45.035775719864404 ], [ 38.917530421867085, 45.027445682197111 ], [ 38.914102289129204, 45.014979613609711 ], [ 38.897114813371608, 45.010844496530815 ], [ 38.883555470351894, 45.019176949927008 ] ] ] } },
{ "type": "Feature", "properties": { "id": 5, "geometry_y": "POLYGON ((38.873424260070074 45.03997153158528, 38.87685239280795 45.05243215796174, 38.89383986856555 45.05656427126697, 38.90739921158525 45.048237260081514, 38.90397107884738 45.0357757198644, 38.886983603089774 45.031642104672976, 38.873424260070074 45.03997153158528))", "population": 3000.0, "Pedestrian traffic": 2600.0, "car traffic": 12000.0 }, "geometry": { "type": "Polygon", "coordinates": [ [ [ 38.873424260070074, 45.03997153158528 ], [ 38.876852392807947, 45.052432157961739 ], [ 38.89383986856555, 45.056564271266971 ], [ 38.90739921158525, 45.048237260081514 ], [ 38.903971078847377, 45.035775719864397 ], [ 38.886983603089774, 45.031642104672976 ], [ 38.873424260070074, 45.03997153158528 ] ] ] } },
{ "type": "Feature", "properties": { "id": 6, "geometry_y": "POLYGON ((38.86329304978824 45.06075855839287, 38.86672118252612 45.07321465640512, 38.88370865828372 45.07734526782621, 38.89726800130344 45.06902128311858, 38.89383986856555 45.05656427126696, 38.87685239280795 45.05243215796173, 38.86329304978824 45.06075855839287))", "population": 600.0, "Pedestrian traffic": 1900.0, "car traffic": 12000.0 }, "geometry": { "type": "Polygon", "coordinates": [ [ [ 38.86329304978824, 45.06075855839287 ], [ 38.866721182526121, 45.073214656405121 ], [ 38.883708658283723, 45.07734526782621 ], [ 38.897268001303438, 45.06902128311858 ], [ 38.89383986856555, 45.056564271266957 ], [ 38.876852392807947, 45.052432157961732 ], [ 38.86329304978824, 45.06075855839287 ] ] ] } },
{ "type": "Feature", "properties": { "id": 7, "geometry_y": "POLYGON ((38.85316183950641 45.081538030359425, 38.856589972244294 45.09398960001513, 38.87357744800189 45.09811870955496, 38.88713679102161 45.08979775131956, 38.88370865828372 45.077345267826196, 38.86672118252612 45.07321465640511, 38.85316183950641 45.081538030359425))", "population": null, "Pedestrian traffic": null, "car traffic": null }, "geometry": { "type": "Polygon", "coordinates": [ [ [ 38.853161839506413, 45.081538030359425 ], [ 38.856589972244294, 45.093989600015128 ], [ 38.873577448001889, 45.09811870955496 ], [ 38.887136791021611, 45.089797751319558 ], [ 38.883708658283723, 45.077345267826196 ], [ 38.866721182526121, 45.073214656405113 ], [ 38.853161839506413, 45.081538030359425 ] ] ] } },
{ "type": "Feature", "properties": { "id": 8, "geometry_y": "POLYGON ((38.843030629224586 45.102309947498554, 38.84645876196247 45.11475698880778, 38.86344623772006 45.11888459646999, 38.877005580739784 45.11056666469961, 38.8735774480019 45.09811870955496, 38.85658997224431 45.09398960001513, 38.843030629224586 45.102309947498554))", "population": null, "Pedestrian traffic": null, "car traffic": null }, "geometry": { "type": "Polygon", "coordinates": [ [ [ 38.843030629224586, 45.102309947498554 ], [ 38.846458761962467, 45.114756988807777 ], [ 38.863446237720062, 45.118884596469989 ], [ 38.877005580739784, 45.110566664699611 ], [ 38.873577448001903, 45.09811870955496 ], [ 38.856589972244308, 45.093989600015128 ], [ 38.843030629224586, 45.102309947498554 ] ] ] } },
{ "type": "Feature", "properties": { "id": 9, "geometry_y": "POLYGON ((38.934364709692844 44.97336473652846, 38.937792842430724 44.98583986186137, 38.95478031818832 44.98997678391455, 38.968339661208034 44.98164008252254, 38.96491152847015 44.96916404334818, 38.947924052712565 44.96502561940748, 38.934364709692844 44.97336473652846))", "population": null, "Pedestrian traffic": null, "car traffic": null }, "geometry": { "type": "Polygon", "coordinates": [ [ [ 38.934364709692844, 44.97336473652846 ], [ 38.937792842430724, 44.985839861861372 ], [ 38.95478031818832, 44.98997678391455 ], [ 38.968339661208034, 44.981640082522539 ], [ 38.964911528470147, 44.969164043348179 ], [ 38.947924052712565, 44.965025619407477 ], [ 38.934364709692844, 44.97336473652846 ] ] ] } },
{ "type": "Feature", "properties": { "id": 10, "geometry_y": "POLYGON ((38.92423349941102 44.994175952498026, 38.92766163214891 45.006646549458154, 38.9446491079065 45.01078196962335, 38.958208450926215 45.00244829471641, 38.95478031818832 44.989976783914535, 38.93779284243074 44.98583986186137, 38.92423349941102 44.994175952498026))", "population": 800.0, "Pedestrian traffic": 1800.0, "car traffic": 350.0 }, "geometry": { "type": "Polygon", "coordinates": [ [ [ 38.924233499411017, 44.994175952498026 ], [ 38.927661632148912, 45.006646549458154 ], [ 38.9446491079065, 45.010781969623352 ], [ 38.958208450926215, 45.002448294716409 ], [ 38.95478031818832, 44.989976783914535 ], [ 38.937792842430738, 44.985839861861372 ], [ 38.924233499411017, 44.994175952498026 ] ] ] } },
{ "type": "Feature", "properties": { "id": 11, "geometry_y": "POLYGON ((38.91410228912919 45.01497961360971, 38.917530421867085 45.02744568219711, 38.93451789762467 45.031579600474664, 38.94807724064439 45.023248952052285, 38.9446491079065 45.01078196962335, 38.92766163214891 45.006646549458154, 38.91410228912919 45.01497961360971))", "population": null, "Pedestrian traffic": null, "car traffic": null }, "geometry": { "type": "Polygon", "coordinates": [ [ [ 38.91410228912919, 45.014979613609711 ], [ 38.917530421867085, 45.027445682197111 ], [ 38.934517897624673, 45.031579600474664 ], [ 38.948077240644388, 45.023248952052285 ], [ 38.9446491079065, 45.010781969623352 ], [ 38.927661632148912, 45.006646549458154 ], [ 38.91410228912919, 45.014979613609711 ] ] ] } },
{ "type": "Feature", "properties": { "id": 12, "geometry_y": "POLYGON ((38.90397107884738 45.035775719864404, 38.90739921158525 45.048237260081514, 38.92438668734285 45.052369676472544, 38.93794603036256 45.04404205453261, 38.93451789762468 45.031579600474664, 38.917530421867085 45.02744568219711, 38.90397107884738 45.035775719864404))", "population": 31000.0, "Pedestrian traffic": 25000.0, "car traffic": 15000.0 }, "geometry": { "type": "Polygon", "coordinates": [ [ [ 38.903971078847377, 45.035775719864404 ], [ 38.90739921158525, 45.048237260081514 ], [ 38.924386687342853, 45.052369676472544 ], [ 38.937946030362561, 45.044042054532611 ], [ 38.93451789762468, 45.031579600474664 ], [ 38.917530421867085, 45.027445682197111 ], [ 38.903971078847377, 45.035775719864404 ] ] ] } },
{ "type": "Feature", "properties": { "id": 13, "geometry_y": "POLYGON ((38.89383986856555 45.05656427126697, 38.89726800130342 45.06902128311859, 38.914255477061026 45.073152197625, 38.927814820080734 45.064827602163845, 38.92438668734285 45.052369676472544, 38.90739921158525 45.048237260081514, 38.89383986856555 45.05656427126697))", "population": 13000.0, "Pedestrian traffic": 9500.0, "car traffic": 13000.0 }, "geometry": { "type": "Polygon", "coordinates": [ [ [ 38.89383986856555, 45.056564271266971 ], [ 38.897268001303424, 45.069021283118587 ], [ 38.914255477061026, 45.073152197624999 ], [ 38.927814820080734, 45.064827602163845 ], [ 38.924386687342853, 45.052369676472544 ], [ 38.90739921158525, 45.048237260081514 ], [ 38.89383986856555, 45.056564271266971 ] ] ] } },
{ "type": "Feature", "properties": { "id": 14, "geometry_y": "POLYGON ((38.88370865828372 45.07734526782621, 38.887136791021604 45.08979775131957, 38.9041242667792 45.09392716394407, 38.917683609798914 45.08560559495639, 38.914255477061026 45.073152197625, 38.89726800130344 45.06902128311858, 38.88370865828372 45.07734526782621))", "population": 30000.0, "Pedestrian traffic": 14000.0, "car traffic": 12000.0 }, "geometry": { "type": "Polygon", "coordinates": [ [ [ 38.883708658283723, 45.07734526782621 ], [ 38.887136791021604, 45.089797751319573 ], [ 38.904124266779199, 45.093927163944073 ], [ 38.917683609798914, 45.085605594956391 ], [ 38.914255477061026, 45.073152197624999 ], [ 38.897268001303438, 45.06902128311858 ], [ 38.883708658283723, 45.07734526782621 ] ] ] } },
{ "type": "Feature", "properties": { "id": 15, "geometry_y": "POLYGON ((38.87357744800189 45.09811870955496, 38.877005580739784 45.110566664699626, 38.89399305649737 45.11469457544572, 38.90755239951709 45.106376032924636, 38.9041242667792 45.09392716394407, 38.88713679102161 45.08979775131956, 38.87357744800189 45.09811870955496))", "population": 8500.0, "Pedestrian traffic": 1400.0, "car traffic": 1600.0 }, "geometry": { "type": "Polygon", "coordinates": [ [ [ 38.873577448001889, 45.09811870955496 ], [ 38.877005580739784, 45.110566664699626 ], [ 38.893993056497372, 45.114694575445718 ], [ 38.907552399517087, 45.106376032924636 ], [ 38.904124266779199, 45.093927163944073 ], [ 38.887136791021611, 45.089797751319558 ], [ 38.873577448001889, 45.09811870955496 ] ] ] } },
{ "type": "Feature", "properties": { "id": 16, "geometry_y": "POLYGON ((38.86344623772006 45.11888459646999, 38.86687437045796 45.1313280232779, 38.883861846215545 45.13545443214987, 38.89742118923526 45.12713891608693, 38.89399305649737 45.11469457544571, 38.877005580739784 45.11056666469961, 38.86344623772006 45.11888459646999))", "population": null, "Pedestrian traffic": null, "car traffic": null }, "geometry": { "type": "Polygon", "coordinates": [ [ [ 38.863446237720062, 45.118884596469989 ], [ 38.866874370457957, 45.131328023277902 ], [ 38.883861846215545, 45.135454432149871 ], [ 38.89742118923526, 45.127138916086928 ], [ 38.893993056497372, 45.114694575445711 ], [ 38.877005580739784, 45.110566664699611 ], [ 38.863446237720062, 45.118884596469989 ] ] ] } },
{ "type": "Feature", "properties": { "id": 17, "geometry_y": "POLYGON ((38.96491152847015 44.96916404334818, 38.968339661208034 44.98164008252254, 38.98532713696563 44.985777307661984, 38.998886479985345 44.97743999551465, 38.995458347247464 44.96496304249896, 38.97847087148987 44.96082431547217, 38.96491152847015 44.96916404334818))", "population": null, "Pedestrian traffic": null, "car traffic": null }, "geometry": { "type": "Polygon", "coordinates": [ [ [ 38.964911528470147, 44.969164043348179 ], [ 38.968339661208034, 44.981640082522539 ], [ 38.98532713696563, 44.985777307661984 ], [ 38.998886479985345, 44.977439995514651 ], [ 38.995458347247464, 44.964963042498958 ], [ 38.978470871489868, 44.960824315472173 ], [ 38.964911528470147, 44.969164043348179 ] ] ] } },
{ "type": "Feature", "properties": { "id": 18, "geometry_y": "POLYGON ((38.95478031818832 44.989976783914535, 38.958208450926215 45.00244829471641, 38.97519592668381 45.00658401796791, 38.98875526970352 44.99824973230555, 38.98532713696564 44.98577730766198, 38.96833966120804 44.98164008252253, 38.95478031818832 44.989976783914535))", "population": 50.0, "Pedestrian traffic": 2400.0, "car traffic": 9500.0 }, "geometry": { "type": "Polygon", "coordinates": [ [ [ 38.95478031818832, 44.989976783914535 ], [ 38.958208450926215, 45.002448294716409 ], [ 38.97519592668381, 45.00658401796791 ], [ 38.988755269703518, 44.998249732305553 ], [ 38.985327136965637, 44.985777307661976 ], [ 38.968339661208041, 44.981640082522532 ], [ 38.95478031818832, 44.989976783914535 ] ] ] } },
{ "type": "Feature", "properties": { "id": 19, "geometry_y": "POLYGON ((38.9446491079065 45.01078196962335, 38.94807724064439 45.023248952052285, 38.96506471640198 45.02738317341601, 38.9786240594217 45.01905191423844, 38.97519592668381 45.0065840179679, 38.958208450926215 45.0024482947164, 38.9446491079065 45.01078196962335))", "population": 20000.0, "Pedestrian traffic": 46000.0, "car traffic": 29000.0 }, "geometry": { "type": "Polygon", "coordinates": [ [ [ 38.9446491079065, 45.010781969623352 ], [ 38.948077240644388, 45.023248952052285 ], [ 38.965064716401983, 45.027383173416013 ], [ 38.978624059421698, 45.019051914238439 ], [ 38.97519592668381, 45.006584017967903 ], [ 38.958208450926215, 45.002448294716402 ], [ 38.9446491079065, 45.010781969623352 ] ] ] } },
{ "type": "Feature", "properties": { "id": 20, "geometry_y": "POLYGON ((38.93451789762468 45.031579600474664, 38.93794603036256 45.04404205453261, 38.954933506120156 45.048174774009524, 38.96849284913987 45.03984654131497, 38.96506471640198 45.02738317341601, 38.94807724064439 45.023248952052285, 38.93451789762468 45.031579600474664))", "population": 12000.0, "Pedestrian traffic": 35000.0, "car traffic": 35000.0 }, "geometry": { "type": "Polygon", "coordinates": [ [ [ 38.93451789762468, 45.031579600474664 ], [ 38.937946030362561, 45.044042054532611 ], [ 38.954933506120156, 45.048174774009524 ], [ 38.968492849139871, 45.039846541314972 ], [ 38.965064716401983, 45.027383173416013 ], [ 38.948077240644388, 45.023248952052285 ], [ 38.93451789762468, 45.031579600474664 ] ] ] } },
{ "type": "Feature", "properties": { "id": 21, "geometry_y": "POLYGON ((38.92438668734285 45.052369676472544, 38.927814820080734 45.064827602163845, 38.944802295838336 45.0689588197557, 38.95836163885804 45.06063361354079, 38.954933506120156 45.04817477400952, 38.93794603036256 45.04404205453261, 38.92438668734285 45.052369676472544))", "population": 21000.0, "Pedestrian traffic": 35000.0, "car traffic": 28000.0 }, "geometry": { "type": "Polygon", "coordinates": [ [ [ 38.924386687342853, 45.052369676472544 ], [ 38.927814820080734, 45.064827602163845 ], [ 38.944802295838336, 45.0689588197557 ], [ 38.958361638858037, 45.060633613540787 ], [ 38.954933506120156, 45.048174774009517 ], [ 38.937946030362561, 45.044042054532611 ], [ 38.924386687342853, 45.052369676472544 ] ] ] } },
{ "type": "Feature", "properties": { "id": 22, "geometry_y": "POLYGON ((38.914255477061026 45.073152197625, 38.917683609798914 45.08560559495639, 38.93467108555651 45.08973531066573, 38.94823042857622 45.08141313092549, 38.94480229583834 45.0689588197557, 38.92781482008074 45.064827602163845, 38.914255477061026 45.073152197625))", "population": 3600.0, "Pedestrian traffic": 3600.0, "car traffic": 4200.0 }, "geometry": { "type": "Polygon", "coordinates": [ [ [ 38.914255477061026, 45.073152197624999 ], [ 38.917683609798914, 45.085605594956391 ], [ 38.934671085556509, 45.089735310665731 ], [ 38.948230428576217, 45.08141313092549 ], [ 38.944802295838343, 45.0689588197557 ], [ 38.927814820080741, 45.064827602163845 ], [ 38.914255477061026, 45.073152197624999 ] ] ] } },
{ "type": "Feature", "properties": { "id": 23, "geometry_y": "POLYGON ((38.9041242667792 45.09392716394407, 38.90755239951709 45.106376032924636, 38.92453987527468 45.110504246754786, 38.9380992182944 45.102185093482674, 38.93467108555651 45.08973531066572, 38.917683609798914 45.085605594956384, 38.9041242667792 45.09392716394407))", "population": 26000.0, "Pedestrian traffic": 10000.0, "car traffic": 11000.0 }, "geometry": { "type": "Polygon", "coordinates": [ [ [ 38.904124266779199, 45.093927163944073 ], [ 38.907552399517087, 45.106376032924636 ], [ 38.924539875274682, 45.110504246754786 ], [ 38.938099218294397, 45.102185093482674 ], [ 38.934671085556509, 45.089735310665723 ], [ 38.917683609798914, 45.085605594956384 ], [ 38.904124266779199, 45.093927163944073 ] ] ] } },
{ "type": "Feature", "properties": { "id": 24, "geometry_y": "POLYGON ((38.89399305649737 45.11469457544571, 38.89742118923526 45.12713891608693, 38.914408664992855 45.13126562804202, 38.92796800801257 45.122949501229876, 38.92453987527468 45.11050424675478, 38.90755239951709 45.10637603292463, 38.89399305649737 45.11469457544571))", "population": 4400.0, "Pedestrian traffic": 4200.0, "car traffic": 9000.0 }, "geometry": { "type": "Polygon", "coordinates": [ [ [ 38.893993056497372, 45.114694575445711 ], [ 38.89742118923526, 45.127138916086928 ], [ 38.914408664992855, 45.131265628042023 ], [ 38.92796800801257, 45.122949501229876 ], [ 38.924539875274682, 45.110504246754779 ], [ 38.907552399517087, 45.106376032924629 ], [ 38.893993056497372, 45.114694575445711 ] ] ] } },
{ "type": "Feature", "properties": { "id": 25, "geometry_y": "POLYGON ((38.98532713696563 44.985777307661984, 38.98875526970351 44.99824973230556, 39.005742745461106 45.00238575864337, 39.01930208848083 44.994050862225606, 39.01587395574294 44.981577523740356, 38.998886479985345 44.97743999551465, 38.98532713696563 44.985777307661984))", "population": null, "Pedestrian traffic": null, "car traffic": null }, "geometry": { "type": "Polygon", "coordinates": [ [ [ 38.98532713696563, 44.985777307661984 ], [ 38.98875526970351, 44.99824973230556 ], [ 39.005742745461106, 45.002385758643371 ], [ 39.019302088480828, 44.994050862225606 ], [ 39.01587395574294, 44.981577523740356 ], [ 38.998886479985345, 44.977439995514651 ], [ 38.98532713696563, 44.985777307661984 ] ] ] } },
{ "type": "Feature", "properties": { "id": 26, "geometry_y": "POLYGON ((38.97519592668381 45.00658401796791, 38.9786240594217 45.01905191423846, 38.99561153517929 45.0231864386884, 39.009170878199 45.01485456875558, 39.00574274546111 45.00238575864337, 38.98875526970352 44.99824973230555, 38.97519592668381 45.00658401796791))", "population": 7500.0, "Pedestrian traffic": 20000.0, "car traffic": 20000.0 }, "geometry": { "type": "Polygon", "coordinates": [ [ [ 38.97519592668381, 45.00658401796791 ], [ 38.978624059421698, 45.01905191423846 ], [ 38.995611535179293, 45.023186438688398 ], [ 39.009170878199001, 45.014854568755581 ], [ 39.005742745461113, 45.002385758643371 ], [ 38.988755269703518, 44.998249732305553 ], [ 38.97519592668381, 45.00658401796791 ] ] ] } },
{ "type": "Feature", "properties": { "id": 27, "geometry_y": "POLYGON ((38.96506471640198 45.02738317341601, 38.96849284913987 45.039846541314986, 38.985480324897466 45.043979563877855, 38.999039667917174 45.03565072042854, 38.99561153517929 45.02318643868839, 38.9786240594217 45.01905191423844, 38.96506471640198 45.02738317341601))", "population": 21000.0, "Pedestrian traffic": 95000.0, "car traffic": 52000.0 }, "geometry": { "type": "Polygon", "coordinates": [ [ [ 38.965064716401983, 45.027383173416013 ], [ 38.968492849139871, 45.039846541314986 ], [ 38.985480324897466, 45.043979563877855 ], [ 38.999039667917174, 45.035650720428542 ], [ 38.995611535179293, 45.023186438688391 ], [ 38.978624059421698, 45.019051914238439 ], [ 38.965064716401983, 45.027383173416013 ] ] ] } },
{ "type": "Feature", "properties": { "id": 28, "geometry_y": "POLYGON ((38.954933506120156 45.048174774009524, 38.95836163885804 45.06063361354079, 38.97534911461564 45.064765134218185, 38.988908457635354 45.05643931724932, 38.985480324897466 45.043979563877855, 38.96849284913987 45.03984654131497, 38.954933506120156 45.048174774009524))", "population": 39000.0, "Pedestrian traffic": 95000.0, "car traffic": 51000.0 }, "geometry": { "type": "Polygon", "coordinates": [ [ [ 38.954933506120156, 45.048174774009524 ], [ 38.958361638858037, 45.060633613540787 ], [ 38.975349114615639, 45.064765134218185 ], [ 38.988908457635354, 45.056439317249321 ], [ 38.985480324897466, 45.043979563877855 ], [ 38.968492849139871, 45.039846541314972 ], [ 38.954933506120156, 45.048174774009524 ] ] ] } },
{ "type": "Feature", "properties": { "id": 29, "geometry_y": "POLYGON ((38.944802295838336 45.0689588197557, 38.94823042857621 45.08141313092549, 38.96521790433381 45.0855431497198, 38.97877724735353 45.077220359226736, 38.97534911461564 45.064765134218185, 38.95836163885804 45.06063361354079, 38.944802295838336 45.0689588197557))", "population": 48000.0, "Pedestrian traffic": 44000.0, "car traffic": 25000.0 }, "geometry": { "type": "Polygon", "coordinates": [ [ [ 38.944802295838336, 45.0689588197557 ], [ 38.94823042857621, 45.08141313092549 ], [ 38.965217904333812, 45.085543149719797 ], [ 38.978777247353527, 45.077220359226736 ], [ 38.975349114615639, 45.064765134218185 ], [ 38.958361638858037, 45.060633613540787 ], [ 38.944802295838336, 45.0689588197557 ] ] ] } },
{ "type": "Feature", "properties": { "id": 30, "geometry_y": "POLYGON ((38.93467108555651 45.08973531066573, 38.93809921829438 45.102185093482674, 38.955086694051985 45.10631361039706, 38.9686460370717 45.09799384637357, 38.96521790433382 45.0855431497198, 38.94823042857622 45.08141313092549, 38.93467108555651 45.08973531066573))", "population": 11000.0, "Pedestrian traffic": 3400.0, "car traffic": 2600.0 }, "geometry": { "type": "Polygon", "coordinates": [ [ [ 38.934671085556509, 45.089735310665731 ], [ 38.938099218294383, 45.102185093482674 ], [ 38.955086694051985, 45.106313610397059 ], [ 38.9686460370717, 45.097993846373569 ], [ 38.965217904333819, 45.085543149719797 ], [ 38.948230428576217, 45.08141313092549 ], [ 38.934671085556509, 45.089735310665731 ] ] ] } },
{ "type": "Feature", "properties": { "id": 31, "geometry_y": "POLYGON ((38.92453987527468 45.110504246754786, 38.92796800801257 45.122949501229876, 38.944955483770165 45.12707651626831, 38.95851482678987 45.118759778706554, 38.95508669405199 45.10631361039705, 38.9380992182944 45.102185093482674, 38.92453987527468 45.110504246754786))", "population": 13000.0, "Pedestrian traffic": 9500.0, "car traffic": 13000.0 }, "geometry": { "type": "Polygon", "coordinates": [ [ [ 38.924539875274682, 45.110504246754786 ], [ 38.92796800801257, 45.122949501229876 ], [ 38.944955483770165, 45.127076516268311 ], [ 38.958514826789873, 45.118759778706554 ], [ 38.955086694051992, 45.106313610397052 ], [ 38.938099218294397, 45.102185093482674 ], [ 38.924539875274682, 45.110504246754786 ] ] ] } },
{ "type": "Feature", "properties": { "id": 32, "geometry_y": "POLYGON ((38.914408664992855 45.13126562804202, 38.91783679773074 45.14370635418863, 38.93482427348834 45.147831867355855, 38.948383616508046 45.13951815624644, 38.944955483770165 45.1270765162683, 38.92796800801257 45.122949501229876, 38.914408664992855 45.13126562804202))", "population": 1900.0, "Pedestrian traffic": 1400.0, "car traffic": 700.0 }, "geometry": { "type": "Polygon", "coordinates": [ [ [ 38.914408664992855, 45.131265628042023 ], [ 38.917836797730743, 45.14370635418863 ], [ 38.934824273488339, 45.147831867355855 ], [ 38.948383616508046, 45.139518156246439 ], [ 38.944955483770165, 45.127076516268303 ], [ 38.92796800801257, 45.122949501229876 ], [ 38.914408664992855, 45.131265628042023 ] ] ] } },
{ "type": "Feature", "properties": { "id": 33, "geometry_y": "POLYGON ((39.01587395574294 44.981577523740356, 39.01930208848083 44.994050862225606, 39.036289564238416 44.99818719164974, 39.04984890725813 44.989851684476555, 39.04642077452025 44.97737743214968, 39.029433298762655 44.97323960083776, 39.01587395574294 44.981577523740356))", "population": null, "Pedestrian traffic": null, "car traffic": null }, "geometry": { "type": "Polygon", "coordinates": [ [ [ 39.01587395574294, 44.981577523740356 ], [ 39.019302088480828, 44.994050862225606 ], [ 39.036289564238416, 44.998187191649741 ], [ 39.049848907258131, 44.989851684476555 ], [ 39.04642077452025, 44.97737743214968 ], [ 39.029433298762655, 44.973239600837758 ], [ 39.01587395574294, 44.981577523740356 ] ] ] } },
{ "type": "Feature", "properties": { "id": 34, "geometry_y": "POLYGON ((39.00574274546111 45.00238575864337, 39.009170878199 45.01485456875558, 39.026158353956596 45.01898939629177, 39.039717696976304 45.01065691560364, 39.03628956423842 44.998187191649734, 39.01930208848083 44.9940508622256, 39.00574274546111 45.00238575864337))", "population": 16000.0, "Pedestrian traffic": 13000.0, "car traffic": 6500.0 }, "geometry": { "type": "Polygon", "coordinates": [ [ [ 39.005742745461113, 45.002385758643371 ], [ 39.009170878199001, 45.014854568755581 ], [ 39.026158353956596, 45.018989396291772 ], [ 39.039717696976304, 45.01065691560364 ], [ 39.036289564238423, 44.998187191649734 ], [ 39.019302088480828, 44.994050862225599 ], [ 39.005742745461113, 45.002385758643371 ] ] ] } },
{ "type": "Feature", "properties": { "id": 35, "geometry_y": "POLYGON ((38.99561153517929 45.02318643868839, 38.999039667917174 45.03565072042854, 39.01602714367477 45.039784046077436, 39.02958648669448 45.031454591873235, 39.026158353956596 45.018989396291765, 39.009170878199 45.014854568755574, 38.99561153517929 45.02318643868839))", "population": 25000.0, "Pedestrian traffic": 50000.0, "car traffic": 47000.0 }, "geometry": { "type": "Polygon", "coordinates": [ [ [ 38.995611535179293, 45.023186438688391 ], [ 38.999039667917174, 45.035650720428542 ], [ 39.016027143674769, 45.039784046077436 ], [ 39.029586486694477, 45.031454591873235 ], [ 39.026158353956596, 45.018989396291765 ], [ 39.009170878199001, 45.014854568755574 ], [ 38.995611535179293, 45.023186438688391 ] ] ] } },
{ "type": "Feature", "properties": { "id": 36, "geometry_y": "POLYGON ((38.985480324897466 45.043979563877855, 38.988908457635354 45.05643931724932, 39.00589593339294 45.06057114101235, 39.019455276412664 45.05224471328934, 39.01602714367477 45.039784046077436, 38.99903966791718 45.03565072042854, 38.985480324897466 45.043979563877855))", "population": 25000.0, "Pedestrian traffic": 52000.0, "car traffic": 41000.0 }, "geometry": { "type": "Polygon", "coordinates": [ [ [ 38.985480324897466, 45.043979563877855 ], [ 38.988908457635354, 45.056439317249321 ], [ 39.005895933392942, 45.060571141012353 ], [ 39.019455276412664, 45.05224471328934 ], [ 39.016027143674769, 45.039784046077436 ], [ 38.999039667917181, 45.035650720428542 ], [ 38.985480324897466, 45.043979563877855 ] ] ] } },
{ "type": "Feature", "properties": { "id": 37, "geometry_y": "POLYGON ((38.97534911461564 45.064765134218185, 38.97877724735353 45.077220359226736, 38.995764723111115 45.08135068110613, 39.00932406613083 45.073027279859986, 39.00589593339294 45.060571141012346, 38.988908457635354 45.05643931724932, 38.97534911461564 45.064765134218185))", "population": 25000.0, "Pedestrian traffic": 58000.0, "car traffic": 39000.0 }, "geometry": { "type": "Polygon", "coordinates": [ [ [ 38.975349114615639, 45.064765134218185 ], [ 38.978777247353527, 45.077220359226736 ], [ 38.995764723111115, 45.08135068110613 ], [ 39.00932406613083, 45.073027279859986 ], [ 39.005895933392942, 45.060571141012346 ], [ 38.988908457635354, 45.056439317249321 ], [ 38.975349114615639, 45.064765134218185 ] ] ] } },
{ "type": "Feature", "properties": { "id": 38, "geometry_y": "POLYGON ((38.96521790433382 45.0855431497198, 38.9686460370717 45.09799384637357, 38.985633512829295 45.102122666372345, 38.999192855849 45.09380229159715, 38.99576472311113 45.08135068110613, 38.97877724735353 45.07722035922673, 38.96521790433382 45.0855431497198))", "population": 9500.0, "Pedestrian traffic": 19000.0, "car traffic": 29000.0 }, "geometry": { "type": "Polygon", "coordinates": [ [ [ 38.965217904333819, 45.085543149719797 ], [ 38.9686460370717, 45.097993846373569 ], [ 38.985633512829295, 45.102122666372345 ], [ 38.999192855849003, 45.09380229159715 ], [ 38.99576472311113, 45.08135068110613 ], [ 38.978777247353527, 45.077220359226729 ], [ 38.965217904333819, 45.085543149719797 ] ] ] } },
{ "type": "Feature", "properties": { "id": 39, "geometry_y": "POLYGON ((38.95508669405199 45.10631361039705, 38.95851482678987 45.118759778706554, 38.97550230254747 45.122887096828514, 38.989061645567176 45.11456974851678, 38.985633512829295 45.10212266637233, 38.9686460370717 45.09799384637357, 38.95508669405199 45.10631361039705))", "population": 26000.0, "Pedestrian traffic": 21000.0, "car traffic": 26000.0 }, "geometry": { "type": "Polygon", "coordinates": [ [ [ 38.955086694051992, 45.106313610397052 ], [ 38.958514826789873, 45.118759778706554 ], [ 38.975502302547469, 45.122887096828514 ], [ 38.989061645567176, 45.114569748516779 ], [ 38.985633512829295, 45.102122666372331 ], [ 38.9686460370717, 45.097993846373569 ], [ 38.955086694051992, 45.106313610397052 ] ] ] } },
{ "type": "Feature", "properties": { "id": 40, "geometry_y": "POLYGON ((38.944955483770165 45.1270765162683, 38.948383616508046 45.13951815624644, 38.96537109226564 45.143643972496164, 38.97893043528535 45.13532965063879, 38.97550230254747 45.12288709682851, 38.95851482678988 45.118759778706554, 38.944955483770165 45.1270765162683))", "population": 5000.0, "Pedestrian traffic": 7000.0, "car traffic": 4600.0 }, "geometry": { "type": "Polygon", "coordinates": [ [ [ 38.944955483770165, 45.127076516268303 ], [ 38.948383616508046, 45.139518156246439 ], [ 38.965371092265642, 45.143643972496164 ], [ 38.978930435285349, 45.135329650638788 ], [ 38.975502302547469, 45.122887096828507 ], [ 38.95851482678988, 45.118759778706554 ], [ 38.944955483770165, 45.127076516268303 ] ] ] } },
{ "type": "Feature", "properties": { "id": 41, "geometry_y": "POLYGON ((39.036289564238416 44.99818719164974, 39.039717696976304 45.01065691560365, 39.0567051727339 45.01479204622611, 39.07026451575361 45.00645895478264, 39.066836383015726 44.99398831698699, 39.04984890725813 44.989851684476555, 39.036289564238416 44.99818719164974))", "population": 10000.0, "Pedestrian traffic": 9000.0, "car traffic": 5000.0 }, "geometry": { "type": "Polygon", "coordinates": [ [ [ 39.036289564238416, 44.998187191649741 ], [ 39.039717696976304, 45.010656915603647 ], [ 39.056705172733899, 45.014792046226113 ], [ 39.070264515753607, 45.006458954782637 ], [ 39.066836383015726, 44.993988316986993 ], [ 39.049848907258131, 44.989851684476555 ], [ 39.036289564238416, 44.998187191649741 ] ] ] } },
{ "type": "Feature", "properties": { "id": 42, "geometry_y": "POLYGON ((39.026158353956596 45.01898939629177, 39.02958648669448 45.03145459187324, 39.04657396245207 45.03558822060822, 39.06013330547178 45.02725815564902, 39.0567051727339 45.01479204622611, 39.039717696976304 45.01065691560364, 39.026158353956596 45.01898939629177))", "population": 37000.0, "Pedestrian traffic": 49000.0, "car traffic": 36000.0 }, "geometry": { "type": "Polygon", "coordinates": [ [ [ 39.026158353956596, 45.018989396291772 ], [ 39.029586486694477, 45.031454591873242 ], [ 39.046573962452072, 45.035588220608219 ], [ 39.06013330547178, 45.027258155649022 ], [ 39.056705172733899, 45.014792046226113 ], [ 39.039717696976304, 45.01065691560364 ], [ 39.026158353956596, 45.018989396291772 ] ] ] } },
{ "type": "Feature", "properties": { "id": 43, "geometry_y": "POLYGON ((39.01602714367477 45.039784046077436, 39.01945527641265 45.05224471328934, 39.036442752170245 45.056376840138114, 39.05000209518996 45.04804980166078, 39.04657396245207 45.03558822060822, 39.02958648669448 45.031454591873235, 39.01602714367477 45.039784046077436))", "population": 25000.0, "Pedestrian traffic": 41000.0, "car traffic": 42000.0 }, "geometry": { "type": "Polygon", "coordinates": [ [ [ 39.016027143674769, 45.039784046077436 ], [ 39.01945527641265, 45.05224471328934 ], [ 39.036442752170245, 45.056376840138114 ], [ 39.05000209518996, 45.048049801660781 ], [ 39.046573962452072, 45.035588220608219 ], [ 39.029586486694477, 45.031454591873235 ], [ 39.016027143674769, 45.039784046077436 ] ] ] } },
{ "type": "Feature", "properties": { "id": 44, "geometry_y": "POLYGON ((39.00589593339294 45.06057114101235, 39.00932406613083 45.073027279859986, 39.02631154188843 45.07715790482462, 39.03987088490814 45.068833892825154, 39.03644275217026 45.056376840138114, 39.019455276412664 45.05224471328934, 39.00589593339294 45.06057114101235))", "population": 85000.0, "Pedestrian traffic": 78000.0, "car traffic": 34000.0 }, "geometry": { "type": "Polygon", "coordinates": [ [ [ 39.005895933392942, 45.060571141012353 ], [ 39.00932406613083, 45.073027279859986 ], [ 39.026311541888433, 45.077157904824617 ], [ 39.03987088490814, 45.068833892825154 ], [ 39.036442752170259, 45.056376840138114 ], [ 39.019455276412664, 45.05224471328934 ], [ 39.005895933392942, 45.060571141012353 ] ] ] } },
{ "type": "Feature", "properties": { "id": 45, "geometry_y": "POLYGON ((38.995764723111115 45.08135068110613, 38.999192855849 45.09380229159716, 39.016180331606606 45.097931414680474, 39.029739674626306 45.08961042915329, 39.02631154188843 45.07715790482462, 39.00932406613083 45.073027279859986, 38.995764723111115 45.08135068110613))", "population": 46000.0, "Pedestrian traffic": 46000.0, "car traffic": 29000.0 }, "geometry": { "type": "Polygon", "coordinates": [ [ [ 38.995764723111115, 45.08135068110613 ], [ 38.999192855849003, 45.093802291597157 ], [ 39.016180331606606, 45.097931414680474 ], [ 39.029739674626306, 45.089610429153289 ], [ 39.026311541888433, 45.077157904824617 ], [ 39.00932406613083, 45.073027279859986 ], [ 38.995764723111115, 45.08135068110613 ] ] ] } },
{ "type": "Feature", "properties": { "id": 46, "geometry_y": "POLYGON ((38.985633512829295 45.102122666372345, 38.989061645567176 45.11456974851678, 39.00604912132477 45.118697369722454, 39.01960846434448 45.110379410660364, 39.016180331606606 45.09793141468047, 38.999192855849 45.09380229159715, 38.985633512829295 45.102122666372345))", "population": 38000.0, "Pedestrian traffic": 37000.0, "car traffic": 38000.0 }, "geometry": { "type": "Polygon", "coordinates": [ [ [ 38.985633512829295, 45.102122666372345 ], [ 38.989061645567176, 45.114569748516779 ], [ 39.006049121324772, 45.118697369722454 ], [ 39.019608464344479, 45.110379410660364 ], [ 39.016180331606606, 45.097931414680467 ], [ 38.999192855849003, 45.09380229159715 ], [ 38.985633512829295, 45.102122666372345 ] ] ] } },
{ "type": "Feature", "properties": { "id": 47, "geometry_y": "POLYGON ((38.97550230254747 45.122887096828514, 38.97893043528535 45.1353296506388, 38.995917911042945 45.13945576997125, 39.00947725406266 45.13114083736548, 39.00604912132477 45.11869736972245, 38.989061645567176 45.11456974851678, 38.97550230254747 45.122887096828514))", "population": 7000.0, "Pedestrian traffic": 15000.0, "car traffic": 26000.0 }, "geometry": { "type": "Polygon", "coordinates": [ [ [ 38.975502302547469, 45.122887096828514 ], [ 38.978930435285349, 45.135329650638802 ], [ 38.995917911042945, 45.139455769971249 ], [ 39.009477254062659, 45.131140837365479 ], [ 39.006049121324772, 45.118697369722447 ], [ 38.989061645567176, 45.114569748516779 ], [ 38.975502302547469, 45.122887096828514 ] ] ] } },
{ "type": "Feature", "properties": { "id": 48, "geometry_y": "POLYGON ((38.96537109226564 45.143643972496164, 38.96879922500352 45.156081997987066, 38.98578670076112 45.160206615451514, 38.99934604378083 45.15189470929172, 38.995917911042945 45.13945576997124, 38.97893043528535 45.13532965063879, 38.96537109226564 45.143643972496164))", "population": 9000.0, "Pedestrian traffic": 5000.0, "car traffic": 2200.0 }, "geometry": { "type": "Polygon", "coordinates": [ [ [ 38.965371092265642, 45.143643972496164 ], [ 38.968799225003522, 45.156081997987066 ], [ 38.985786700761118, 45.160206615451514 ], [ 38.999346043780832, 45.151894709291717 ], [ 38.995917911042945, 45.139455769971242 ], [ 38.978930435285349, 45.135329650638788 ], [ 38.965371092265642, 45.143643972496164 ] ] ] } },
{ "type": "Feature", "properties": { "id": 49, "geometry_y": "POLYGON ((39.066836383015726 44.99398831698699, 39.07026451575361 45.00645895478264, 39.0872519915112 45.010594388491405, 39.100811334530924 45.00226068629253, 39.097383201793036 44.989789134655155, 39.080395726035434 44.985652199058414, 39.066836383015726 44.99398831698699))", "population": 36000.0, "Pedestrian traffic": 21000.0, "car traffic": 6500.0 }, "geometry": { "type": "Polygon", "coordinates": [ [ [ 39.066836383015726, 44.993988316986993 ], [ 39.070264515753607, 45.006458954782637 ], [ 39.087251991511202, 45.010594388491405 ], [ 39.100811334530924, 45.00226068629253 ], [ 39.097383201793036, 44.989789134655155 ], [ 39.080395726035434, 44.985652199058414 ], [ 39.066836383015726, 44.993988316986993 ] ] ] } },
{ "type": "Feature", "properties": { "id": 50, "geometry_y": "POLYGON ((39.0567051727339 45.01479204622611, 39.06013330547178 45.02725815564902, 39.077120781229375 45.03139208747013, 39.0906801242491 45.02306141175582, 39.0872519915112 45.0105943884914, 39.07026451575361 45.00645895478263, 39.0567051727339 45.01479204622611))", "population": 28000.0, "Pedestrian traffic": 34000.0, "car traffic": 24000.0 }, "geometry": { "type": "Polygon", "coordinates": [ [ [ 39.056705172733899, 45.014792046226113 ], [ 39.06013330547178, 45.027258155649022 ], [ 39.077120781229375, 45.031392087470131 ], [ 39.090680124249097, 45.023061411755819 ], [ 39.087251991511202, 45.010594388491398 ], [ 39.070264515753607, 45.00645895478263 ], [ 39.056705172733899, 45.014792046226113 ] ] ] } },
{ "type": "Feature", "properties": { "id": 51, "geometry_y": "POLYGON ((39.04657396245207 45.03558822060822, 39.05000209518996 45.04804980166078, 39.066989570947555 45.05218223159536, 39.08054891396727 45.04385458236354, 39.077120781229375 45.03139208747013, 39.06013330547178 45.027258155649015, 39.04657396245207 45.03558822060822))", "population": 9000.0, "Pedestrian traffic": 22000.0, "car traffic": 24000.0 }, "geometry": { "type": "Polygon", "coordinates": [ [ [ 39.046573962452072, 45.035588220608219 ], [ 39.05000209518996, 45.048049801660781 ], [ 39.066989570947555, 45.05218223159536 ], [ 39.08054891396727, 45.043854582363537 ], [ 39.077120781229375, 45.031392087470131 ], [ 39.06013330547178, 45.027258155649015 ], [ 39.046573962452072, 45.035588220608219 ] ] ] } },
{ "type": "Feature", "properties": { "id": 52, "geometry_y": "POLYGON ((39.03644275217026 45.056376840138114, 39.03987088490814 45.068833892825154, 39.056858360665736 45.07296482087509, 39.07041770368544 45.064640198122085, 39.06698957094756 45.05218223159536, 39.05000209518997 45.04804980166078, 39.03644275217026 45.056376840138114))", "population": 18000.0, "Pedestrian traffic": 14000.0, "car traffic": 9500.0 }, "geometry": { "type": "Polygon", "coordinates": [ [ [ 39.036442752170259, 45.056376840138114 ], [ 39.03987088490814, 45.068833892825154 ], [ 39.056858360665736, 45.072964820875093 ], [ 39.070417703685443, 45.064640198122085 ], [ 39.066989570947563, 45.05218223159536 ], [ 39.050002095189967, 45.048049801660781 ], [ 39.036442752170259, 45.056376840138114 ] ] ] } },
{ "type": "Feature", "properties": { "id": 53, "geometry_y": "POLYGON ((39.02631154188843 45.07715790482462, 39.029739674626306 45.08961042915329, 39.04672715038391 45.0937398553213, 39.060286493403616 45.08541825904183, 39.056858360665736 45.072964820875086, 39.03987088490814 45.06883389282514, 39.02631154188843 45.07715790482462))", "population": 45000.0, "Pedestrian traffic": 25000.0, "car traffic": 14000.0 }, "geometry": { "type": "Polygon", "coordinates": [ [ [ 39.026311541888433, 45.077157904824617 ], [ 39.029739674626306, 45.089610429153289 ], [ 39.046727150383909, 45.093739855321303 ], [ 39.060286493403616, 45.08541825904183 ], [ 39.056858360665736, 45.072964820875086 ], [ 39.03987088490814, 45.06883389282514 ], [ 39.026311541888433, 45.077157904824617 ] ] ] } },
{ "type": "Feature", "properties": { "id": 54, "geometry_y": "POLYGON ((39.016180331606606 45.09793141468047, 39.01960846434448 45.110379410660364, 39.03659594010208 45.11450733494993, 39.050155283121796 45.10618876513712, 39.04672715038391 45.093739855321296, 39.029739674626306 45.08961042915329, 39.016180331606606 45.09793141468047))", "population": 26000.0, "Pedestrian traffic": 15000.0, "car traffic": 13000.0 }, "geometry": { "type": "Polygon", "coordinates": [ [ [ 39.016180331606606, 45.097931414680467 ], [ 39.019608464344479, 45.110379410660364 ], [ 39.036595940102082, 45.114507334949927 ], [ 39.050155283121796, 45.106188765137119 ], [ 39.046727150383909, 45.093739855321296 ], [ 39.029739674626306, 45.089610429153289 ], [ 39.016180331606606, 45.097931414680467 ] ] ] } },
{ "type": "Feature", "properties": { "id": 55, "geometry_y": "POLYGON ((39.00604912132477 45.11869736972245, 39.00947725406266 45.13114083736548, 39.026464729820255 45.13526725978086, 39.04002407283997 45.126951716426284, 39.03659594010208 45.11450733494992, 39.01960846434448 45.11037941066036, 39.00604912132477 45.11869736972245))", "population": 10000.0, "Pedestrian traffic": 15000.0, "car traffic": 22000.0 }, "geometry": { "type": "Polygon", "coordinates": [ [ [ 39.006049121324772, 45.118697369722447 ], [ 39.009477254062659, 45.131140837365479 ], [ 39.026464729820255, 45.135267259780861 ], [ 39.040024072839969, 45.126951716426284 ], [ 39.036595940102082, 45.11450733494992 ], [ 39.019608464344479, 45.110379410660357 ], [ 39.006049121324772, 45.118697369722447 ] ] ] } },
{ "type": "Feature", "properties": { "id": 56, "geometry_y": "POLYGON ((38.995917911042945 45.13945576997124, 38.99934604378083 45.15189470929172, 39.01633351953843 45.156019629838, 39.02989286255814 45.147707112931585, 39.02646472982026 45.13526725978085, 39.009477254062666 45.131140837365464, 38.995917911042945 45.13945576997124))", "population": 12000.0, "Pedestrian traffic": 13000.0, "car traffic": 23000.0 }, "geometry": { "type": "Polygon", "coordinates": [ [ [ 38.995917911042945, 45.139455769971242 ], [ 38.999346043780832, 45.151894709291717 ], [ 39.016333519538428, 45.156019629837999 ], [ 39.029892862558142, 45.147707112931585 ], [ 39.026464729820262, 45.135267259780854 ], [ 39.009477254062666, 45.131140837365464 ], [ 38.995917911042945, 45.139455769971242 ] ] ] } },
{ "type": "Feature", "properties": { "id": 57, "geometry_y": "POLYGON ((39.0872519915112 45.010594388491405, 39.09068012424909 45.023061411755826, 39.107667600006685 45.027195646663124, 39.12122694302639 45.01886436019364, 39.11779881028851 45.0063964230876, 39.100811334530924 45.00226068629253, 39.0872519915112 45.010594388491405))", "population": 14000.0, "Pedestrian traffic": 14000.0, "car traffic": 30000.0 }, "geometry": { "type": "Polygon", "coordinates": [ [ [ 39.087251991511202, 45.010594388491405 ], [ 39.09068012424909, 45.023061411755826 ], [ 39.107667600006685, 45.027195646663124 ], [ 39.121226943026393, 45.018864360193639 ], [ 39.117798810288512, 45.006396423087601 ], [ 39.100811334530924, 45.00226068629253 ], [ 39.087251991511202, 45.010594388491405 ] ] ] } },
{ "type": "Feature", "properties": { "id": 58, "geometry_y": "POLYGON ((39.077120781229375 45.03139208747013, 39.08054891396727 45.043854582363544, 39.09753638972486 45.04798731538402, 39.11109573274457 45.03965905539757, 39.107667600006685 45.027195646663124, 39.0906801242491 45.02306141175582, 39.077120781229375 45.03139208747013))", "population": 29000.0, "Pedestrian traffic": 29000.0, "car traffic": 20000.0 }, "geometry": { "type": "Polygon", "coordinates": [ [ [ 39.077120781229375, 45.031392087470131 ], [ 39.08054891396727, 45.043854582363544 ], [ 39.097536389724858, 45.04798731538402 ], [ 39.111095732744573, 45.039659055397571 ], [ 39.107667600006685, 45.027195646663124 ], [ 39.090680124249097, 45.023061411755819 ], [ 39.077120781229375, 45.031392087470131 ] ] ] } },
{ "type": "Feature", "properties": { "id": 59, "geometry_y": "POLYGON ((39.066989570947555 45.05218223159536, 39.07041770368544 45.06464019812209, 39.08740517944303 45.06877142925748, 39.10096452246275 45.0604461957507, 39.09753638972486 45.04798731538401, 39.08054891396727 45.04385458236354, 39.066989570947555 45.05218223159536))", "population": 400.0, "Pedestrian traffic": 7000.0, "car traffic": 6000.0 }, "geometry": { "type": "Polygon", "coordinates": [ [ [ 39.066989570947555, 45.05218223159536 ], [ 39.070417703685443, 45.064640198122092 ], [ 39.087405179443031, 45.068771429257481 ], [ 39.100964522462753, 45.0604461957507 ], [ 39.097536389724858, 45.047987315384013 ], [ 39.08054891396727, 45.043854582363537 ], [ 39.066989570947555, 45.05218223159536 ] ] ] } },
{ "type": "Feature", "properties": { "id": 60, "geometry_y": "POLYGON ((39.056858360665736 45.07296482087509, 39.060286493403616 45.08541825904183, 39.07727396916121 45.089547988294676, 39.090833312180926 45.081225781262624, 39.08740517944304 45.068771429257474, 39.07041770368544 45.064640198122085, 39.056858360665736 45.07296482087509))", "population": 6500.0, "Pedestrian traffic": 2200.0, "car traffic": 2400.0 }, "geometry": { "type": "Polygon", "coordinates": [ [ [ 39.056858360665736, 45.072964820875093 ], [ 39.060286493403616, 45.08541825904183 ], [ 39.077273969161212, 45.089547988294676 ], [ 39.090833312180926, 45.081225781262624 ], [ 39.087405179443039, 45.068771429257474 ], [ 39.070417703685443, 45.064640198122085 ], [ 39.056858360665736, 45.072964820875093 ] ] ] } },
{ "type": "Feature", "properties": { "id": 61, "geometry_y": "POLYGON ((39.04672715038391 45.0937398553213, 39.05015528312179 45.10618876513713, 39.06714275887939 45.110316992510754, 39.08070210189909 45.10199781194689, 39.07727396916121 45.089547988294676, 39.060286493403616 45.08541825904183, 39.04672715038391 45.0937398553213))", "population": 11000.0, "Pedestrian traffic": 4400.0, "car traffic": 7500.0 }, "geometry": { "type": "Polygon", "coordinates": [ [ [ 39.046727150383909, 45.093739855321303 ], [ 39.050155283121789, 45.106188765137126 ], [ 39.067142758879392, 45.110316992510754 ], [ 39.080702101899092, 45.101997811946887 ], [ 39.077273969161212, 45.089547988294676 ], [ 39.060286493403616, 45.08541825904183 ], [ 39.046727150383909, 45.093739855321303 ] ] ] } },
{ "type": "Feature", "properties": { "id": 62, "geometry_y": "POLYGON ((39.03659594010208 45.11450733494993, 39.04002407283996 45.126951716426284, 39.057011548597565 45.131078441924814, 39.07057089161727 45.12276228782101, 39.06714275887939 45.11031699251075, 39.050155283121796 45.10618876513712, 39.03659594010208 45.11450733494993))", "population": 7000.0, "Pedestrian traffic": 3200.0, "car traffic": 1100.0 }, "geometry": { "type": "Polygon", "coordinates": [ [ [ 39.036595940102082, 45.114507334949927 ], [ 39.040024072839962, 45.126951716426284 ], [ 39.057011548597565, 45.131078441924814 ], [ 39.070570891617272, 45.122762287821011 ], [ 39.067142758879392, 45.110316992510747 ], [ 39.050155283121796, 45.106188765137119 ], [ 39.036595940102082, 45.114507334949927 ] ] ] } },
{ "type": "Feature", "properties": { "id": 63, "geometry_y": "POLYGON ((39.026464729820255 45.13526725978086, 39.02989286255814 45.14770711293159, 39.04688033831573 45.15183233655993, 39.060439681335446 45.14351920890646, 39.057011548597565 45.13107844192481, 39.04002407283997 45.126951716426284, 39.026464729820255 45.13526725978086))", "population": 4200.0, "Pedestrian traffic": 3200.0, "car traffic": 11000.0 }, "geometry": { "type": "Polygon", "coordinates": [ [ [ 39.026464729820255, 45.135267259780861 ], [ 39.029892862558142, 45.147707112931592 ], [ 39.046880338315731, 45.151832336559927 ], [ 39.060439681335446, 45.143519208906461 ], [ 39.057011548597565, 45.131078441924807 ], [ 39.040024072839969, 45.126951716426284 ], [ 39.026464729820255, 45.135267259780861 ] ] ] } },
{ "type": "Feature", "properties": { "id": 64, "geometry_y": "POLYGON ((39.01633351953843 45.156019629838, 39.019761652276316 45.16845495467929, 39.036749128033904 45.1725786764431, 39.050308471053626 45.164268575228675, 39.04688033831573 45.15183233655992, 39.02989286255814 45.147707112931585, 39.01633351953843 45.156019629838))", "population": 1000.0, "Pedestrian traffic": null, "car traffic": null }, "geometry": { "type": "Polygon", "coordinates": [ [ [ 39.016333519538428, 45.156019629837999 ], [ 39.019761652276316, 45.168454954679291 ], [ 39.036749128033904, 45.172578676443102 ], [ 39.050308471053626, 45.164268575228675 ], [ 39.046880338315731, 45.15183233655992 ], [ 39.029892862558142, 45.147707112931585 ], [ 39.016333519538428, 45.156019629837999 ] ] ] } },
{ "type": "Feature", "properties": { "id": 65, "geometry_y": "POLYGON ((39.11779881028851 45.0063964230876, 39.12122694302639 45.01886436019364, 39.13821441878399 45.022998898187154, 39.1517737618037 45.01466700096242, 39.14834562906582 45.002198150014706, 39.13135815330823 44.998062110133304, 39.11779881028851 45.0063964230876))", "population": 400.0, "Pedestrian traffic": 2800.0, "car traffic": 9500.0 }, "geometry": { "type": "Polygon", "coordinates": [ [ [ 39.117798810288512, 45.006396423087601 ], [ 39.121226943026393, 45.018864360193639 ], [ 39.138214418783988, 45.022998898187154 ], [ 39.151773761803703, 45.014667000962419 ], [ 39.148345629065822, 45.002198150014706 ], [ 39.131358153308227, 44.998062110133304 ], [ 39.117798810288512, 45.006396423087601 ] ] ] } },
{ "type": "Feature", "properties": { "id": 66, "geometry_y": "POLYGON ((39.107667600006685 45.027195646663124, 39.11109573274457 45.03965905539757, 39.12808320850217 45.043792091504, 39.14164255152188 45.03546322076278, 39.138214418783996 45.02299889818715, 39.1212269430264 45.01886436019363, 39.107667600006685 45.027195646663124))", "population": 6500.0, "Pedestrian traffic": 9500.0, "car traffic": 21000.0 }, "geometry": { "type": "Polygon", "coordinates": [ [ [ 39.107667600006685, 45.027195646663124 ], [ 39.111095732744573, 45.039659055397571 ], [ 39.128083208502169, 45.043792091504002 ], [ 39.141642551521883, 45.035463220762779 ], [ 39.138214418783996, 45.022998898187147 ], [ 39.1212269430264, 45.018864360193632 ], [ 39.107667600006685, 45.027195646663124 ] ] ] } },
{ "type": "Feature", "properties": { "id": 67, "geometry_y": "POLYGON ((39.09753638972486 45.04798731538401, 39.10096452246275 45.0604461957507, 39.11795199822035 45.064577729971646, 39.131511341240056 45.056251885710914, 39.12808320850217 45.043792091503995, 39.11109573274457 45.03965905539756, 39.09753638972486 45.04798731538401))", "population": 24000.0, "Pedestrian traffic": 19000.0, "car traffic": 27000.0 }, "geometry": { "type": "Polygon", "coordinates": [ [ [ 39.097536389724858, 45.047987315384013 ], [ 39.100964522462753, 45.0604461957507 ], [ 39.117951998220349, 45.064577729971646 ], [ 39.131511341240056, 45.056251885710914 ], [ 39.128083208502169, 45.043792091503995 ], [ 39.111095732744573, 45.039659055397557 ], [ 39.097536389724858, 45.047987315384013 ] ] ] } },
{ "type": "Feature", "properties": { "id": 68, "geometry_y": "POLYGON ((39.08740517944304 45.068771429257474, 39.090833312180926 45.081225781262624, 39.10782078793852 45.08535581360045, 39.12138013095823 45.077032995815564, 39.11795199822035 45.064577729971646, 39.10096452246275 45.0604461957507, 39.08740517944304 45.068771429257474))", "population": 2400.0, "Pedestrian traffic": 1100.0, "car traffic": 500.0 }, "geometry": { "type": "Polygon", "coordinates": [ [ [ 39.087405179443039, 45.068771429257474 ], [ 39.090833312180926, 45.081225781262624 ], [ 39.107820787938522, 45.085355813600451 ], [ 39.121380130958229, 45.077032995815564 ], [ 39.117951998220349, 45.064577729971646 ], [ 39.100964522462753, 45.0604461957507 ], [ 39.087405179443039, 45.068771429257474 ] ] ] } },
{ "type": "Feature", "properties": { "id": 69, "geometry_y": "POLYGON ((39.07727396916121 45.089547988294676, 39.08070210189909 45.10199781194689, 39.097689577656695 45.106126342404764, 39.1112489206764 45.097806551089505, 39.10782078793852 45.085355813600444, 39.090833312180926 45.081225781262624, 39.07727396916121 45.089547988294676))", "population": 400.0, "Pedestrian traffic": 1600.0, "car traffic": 400.0 }, "geometry": { "type": "Polygon", "coordinates": [ [ [ 39.077273969161212, 45.089547988294676 ], [ 39.080702101899092, 45.101997811946887 ], [ 39.097689577656695, 45.106126342404764 ], [ 39.111248920676402, 45.097806551089505 ], [ 39.107820787938522, 45.085355813600444 ], [ 39.090833312180926, 45.081225781262624 ], [ 39.077273969161212, 45.089547988294676 ] ] ] } },
{ "type": "Feature", "properties": { "id": 70, "geometry_y": "POLYGON ((39.06714275887939 45.11031699251075, 39.07057089161727 45.12276228782101, 39.087558367374875 45.12688931640289, 39.10111771039458 45.118572551549455, 39.0976895776567 45.10612634240476, 39.0807021018991 45.10199781194689, 39.06714275887939 45.11031699251075))", "population": 500.0, "Pedestrian traffic": 1300.0, "car traffic": 5500.0 }, "geometry": { "type": "Polygon", "coordinates": [ [ [ 39.067142758879392, 45.110316992510747 ], [ 39.070570891617272, 45.122762287821011 ], [ 39.087558367374875, 45.126889316402888 ], [ 39.101117710394583, 45.118572551549455 ], [ 39.097689577656702, 45.106126342404757 ], [ 39.080702101899099, 45.101997811946887 ], [ 39.067142758879392, 45.110316992510747 ] ] ] } },
{ "type": "Feature", "properties": { "id": 71, "geometry_y": "POLYGON ((39.057011548597565 45.13107844192481, 39.060439681335446 45.14351920890646, 39.07742715709304 45.14764473561708, 39.090986500112756 45.13933099721607, 39.087558367374875 45.126889316402874, 39.07057089161727 45.12276228782101, 39.057011548597565 45.13107844192481))", "population": 100.0, "Pedestrian traffic": 100.0, "car traffic": null }, "geometry": { "type": "Polygon", "coordinates": [ [ [ 39.057011548597565, 45.131078441924807 ], [ 39.060439681335446, 45.143519208906461 ], [ 39.077427157093041, 45.147644735617078 ], [ 39.090986500112756, 45.139330997216071 ], [ 39.087558367374875, 45.126889316402874 ], [ 39.070570891617272, 45.122762287821011 ], [ 39.057011548597565, 45.131078441924807 ] ] ] } },
{ "type": "Feature", "properties": { "id": 72, "geometry_y": "POLYGON ((39.04688033831573 45.15183233655992, 39.050308471053626 45.164268575228675, 39.06729594681122 45.168392600073574, 39.08085528983093 45.160081888114014, 39.07742715709304 45.147644735617064, 39.060439681335446 45.14351920890645, 39.04688033831573 45.15183233655992))", "population": 2600.0, "Pedestrian traffic": null, "car traffic": null }, "geometry": { "type": "Polygon", "coordinates": [ [ [ 39.046880338315731, 45.15183233655992 ], [ 39.050308471053626, 45.164268575228675 ], [ 39.067295946811221, 45.168392600073574 ], [ 39.080855289830929, 45.160081888114014 ], [ 39.077427157093041, 45.147644735617064 ], [ 39.060439681335446, 45.143519208906447 ], [ 39.046880338315731, 45.15183233655992 ] ] ] } },
{ "type": "Feature", "properties": { "id": 73, "geometry_y": "POLYGON ((39.13821441878399 45.022998898187154, 39.14164255152187 45.035463220762786, 39.158630027279465 45.039596559955235, 39.172189370299186 45.03126707845913, 39.168761237561306 45.01880184204218, 39.1517737618037 45.01466700096242, 39.13821441878399 45.022998898187154))", "population": null, "Pedestrian traffic": null, "car traffic": null }, "geometry": { "type": "Polygon", "coordinates": [ [ [ 39.138214418783988, 45.022998898187154 ], [ 39.141642551521869, 45.035463220762786 ], [ 39.158630027279465, 45.039596559955235 ], [ 39.172189370299186, 45.03126707845913 ], [ 39.168761237561306, 45.01880184204218 ], [ 39.151773761803703, 45.014667000962419 ], [ 39.138214418783988, 45.022998898187154 ] ] ] } },
{ "type": "Feature", "properties": { "id": 74, "geometry_y": "POLYGON ((39.12808320850217 45.043792091504, 39.131511341240056 45.056251885710914, 39.14849881699765 45.06038372301749, 39.16205816001736 45.0520572680026, 39.15863002727948 45.039596559955235, 39.14164255152188 45.03546322076278, 39.12808320850217 45.043792091504))", "population": null, "Pedestrian traffic": null, "car traffic": null }, "geometry": { "type": "Polygon", "coordinates": [ [ [ 39.128083208502169, 45.043792091504002 ], [ 39.131511341240056, 45.056251885710914 ], [ 39.148498816997652, 45.060383723017488 ], [ 39.162058160017359, 45.052057268002599 ], [ 39.158630027279479, 45.039596559955235 ], [ 39.141642551521883, 45.035463220762779 ], [ 39.128083208502169, 45.043792091504002 ] ] ] } },
{ "type": "Feature", "properties": { "id": 75, "geometry_y": "POLYGON ((39.11795199822035 45.064577729971646, 39.12138013095823 45.07703299581557, 39.138367606715825 45.08116333123849, 39.15192694973553 45.072839902700515, 39.14849881699765 45.06038372301748, 39.131511341240056 45.056251885710914, 39.11795199822035 45.064577729971646))", "population": 1700.0, "Pedestrian traffic": 4600.0, "car traffic": 20000.0 }, "geometry": { "type": "Polygon", "coordinates": [ [ [ 39.117951998220349, 45.064577729971646 ], [ 39.121380130958229, 45.077032995815571 ], [ 39.138367606715825, 45.081163331238493 ], [ 39.151926949735532, 45.072839902700515 ], [ 39.148498816997652, 45.06038372301748 ], [ 39.131511341240056, 45.056251885710914 ], [ 39.117951998220349, 45.064577729971646 ] ] ] } },
{ "type": "Feature", "properties": { "id": 76, "geometry_y": "POLYGON ((39.10782078793852 45.08535581360045, 39.1112489206764 45.097806551089505, 39.128236396434 45.10193538463177, 39.14179573945372 45.093614982564816, 39.138367606715825 45.081163331238486, 39.12138013095823 45.077032995815564, 39.10782078793852 45.08535581360045))", "population": null, "Pedestrian traffic": null, "car traffic": null }, "geometry": { "type": "Polygon", "coordinates": [ [ [ 39.107820787938522, 45.085355813600451 ], [ 39.111248920676402, 45.097806551089505 ], [ 39.128236396433998, 45.101935384631773 ], [ 39.14179573945372, 45.093614982564816 ], [ 39.138367606715825, 45.081163331238486 ], [ 39.121380130958229, 45.077032995815564 ], [ 39.107820787938522, 45.085355813600451 ] ] ] } },
{ "type": "Feature", "properties": { "id": 77, "geometry_y": "POLYGON ((39.097689577656695 45.106126342404764, 39.10111771039457 45.11857255154946, 39.11810518615217 45.122699883214864, 39.131664529171886 45.11438250761143, 39.128236396434 45.10193538463177, 39.1112489206764 45.097806551089505, 39.097689577656695 45.106126342404764))", "population": null, "Pedestrian traffic": null, "car traffic": null }, "geometry": { "type": "Polygon", "coordinates": [ [ [ 39.097689577656695, 45.106126342404764 ], [ 39.101117710394568, 45.118572551549462 ], [ 39.118105186152171, 45.122699883214864 ], [ 39.131664529171886, 45.114382507611431 ], [ 39.128236396433998, 45.101935384631773 ], [ 39.111248920676402, 45.097806551089505 ], [ 39.097689577656695, 45.106126342404764 ] ] ] } },
{ "type": "Feature", "properties": { "id": 78, "geometry_y": "POLYGON ((39.087558367374875 45.12688931640289, 39.09098650011274 45.13933099721608, 39.107973975870344 45.14345682700922, 39.12153331889006 45.13514247786023, 39.118105186152185 45.12269988321486, 39.10111771039458 45.118572551549455, 39.087558367374875 45.12688931640289))", "population": null, "Pedestrian traffic": null, "car traffic": null }, "geometry": { "type": "Polygon", "coordinates": [ [ [ 39.087558367374875, 45.126889316402888 ], [ 39.090986500112741, 45.139330997216078 ], [ 39.107973975870344, 45.143456827009217 ], [ 39.121533318890059, 45.135142477860228 ], [ 39.118105186152185, 45.122699883214857 ], [ 39.101117710394583, 45.118572551549455 ], [ 39.087558367374875, 45.126889316402888 ] ] ] } },
{ "type": "Feature", "properties": { "id": 79, "geometry_y": "POLYGON ((39.07742715709304 45.14764473561708, 39.08085528983093 45.16008188811402, 39.097842765588524 45.16420621604025, 39.11140210860823 45.15589489333505, 39.10797397587035 45.14345682700921, 39.090986500112756 45.13933099721607, 39.07742715709304 45.14764473561708))", "population": null, "Pedestrian traffic": null, "car traffic": null }, "geometry": { "type": "Polygon", "coordinates": [ [ [ 39.077427157093041, 45.147644735617078 ], [ 39.080855289830929, 45.160081888114021 ], [ 39.097842765588524, 45.164206216040249 ], [ 39.111402108608232, 45.155894893335052 ], [ 39.107973975870351, 45.14345682700921 ], [ 39.090986500112756, 45.139330997216071 ], [ 39.077427157093041, 45.147644735617078 ] ] ] } },
{ "type": "Feature", "properties": { "id": 80, "geometry_y": "POLYGON ((39.06729594681122 45.168392600073574, 39.0707240795491 45.18082522427188, 39.0877115553067 45.184948050337354, 39.101270898326405 45.17663975406371, 39.097842765588524 45.16420621604024, 39.08085528983093 45.160081888114014, 39.06729594681122 45.168392600073574))", "population": 1800.0, "Pedestrian traffic": null, "car traffic": null }, "geometry": { "type": "Polygon", "coordinates": [ [ [ 39.067295946811221, 45.168392600073574 ], [ 39.070724079549102, 45.180825224271878 ], [ 39.087711555306697, 45.184948050337354 ], [ 39.101270898326405, 45.176639754063707 ], [ 39.097842765588524, 45.164206216040242 ], [ 39.080855289830929, 45.160081888114014 ], [ 39.067295946811221, 45.168392600073574 ] ] ] } }
]
}
