{
"type": "FeatureCollection",
"name": "krasnodar_hex_filtered",
"crs": { "type": "name", "properties": { "name": "urn:ogc:def:crs:EPSG::3857" } },
"features": [
{ "type": "Feature", "properties": { "id": 4, "geometry_y": "POLYGON ((38.883555470351894 45.01917694992701, 38.886983603089774 45.03164210467298, 38.90397107884738 45.035775719864404, 38.917530421867085 45.02744568219711, 38.914102289129204 45.01497961360971, 38.89711481337161 45.010844496530815, 38.883555470351894 45.01917694992701))", "population": 15000.0, "Pedestrian traffic": 11000.0, "car traffic": 3800.0, "GiZScore": 0.18216071826035865 }, "geometry": { "type": "Polygon", "coordinates": [ [ [ 4328497.595191579312086, 5624541.009878889657557 ], [ 4328879.213182332925498, 5626504.2642457857728 ], [ 4330770.250333531759679, 5627155.40055469982326 ], [ 4332279.669493976980448, 5625843.282496718689799 ], [ 4331898.051503224298358, 5623880.028129824437201 ], [ 4330007.0143520263955, 5623228.891820909455419 ], [ 4328497.595191579312086, 5624541.009878889657557 ] ] ] } },
{ "type": "Feature", "properties": { "id": 5, "geometry_y": "POLYGON ((38.873424260070074 45.03997153158528, 38.87685239280795 45.05243215796174, 38.89383986856555 45.05656427126697, 38.90739921158525 45.048237260081514, 38.90397107884738 45.0357757198644, 38.886983603089774 45.031642104672976, 38.873424260070074 45.03997153158528))", "population": 3000.0, "Pedestrian traffic": 2600.0, "car traffic": 12000.0, "GiZScore": 0.59294955811125305 }, "geometry": { "type": "Polygon", "coordinates": [ [ [ 4327369.794021888636053, 5627816.382303765974939 ], [ 4327751.41201264038682, 5629779.636670663021505 ], [ 4329642.449163839221001, 5630430.77297957893461 ], [ 4331151.868324283510447, 5629118.654921596869826 ], [ 4330770.250333531759679, 5627155.400554698891938 ], [ 4328879.213182332925498, 5626504.264245783910155 ], [ 4327369.794021888636053, 5627816.382303765974939 ] ] ] } },
{ "type": "Feature", "properties": { "id": 6, "geometry_y": "POLYGON ((38.86329304978824 45.06075855839287, 38.86672118252612 45.07321465640512, 38.88370865828372 45.07734526782621, 38.89726800130344 45.06902128311858, 38.89383986856555 45.05656427126696, 38.87685239280795 45.05243215796173, 38.86329304978824 45.06075855839287))", "population": 600.0, "Pedestrian traffic": 1900.0, "car traffic": 12000.0, "GiZScore": 1.1096804612572708 }, "geometry": { "type": "Polygon", "coordinates": [ [ [ 4326241.992852195166051, 5631091.754728642292321 ], [ 4326623.610842947848141, 5633055.009095539338887 ], [ 4328514.647994146682322, 5633706.145404453389347 ], [ 4330024.067154592834413, 5632394.02734647039324 ], [ 4329642.449163839221001, 5630430.772979576140642 ], [ 4327751.41201264038682, 5629779.63667066115886 ], [ 4326241.992852195166051, 5631091.754728642292321 ] ] ] } },
{ "type": "Feature", "properties": { "id": 7, "geometry_y": "POLYGON ((38.85316183950641 45.081538030359425, 38.856589972244294 45.09398960001513, 38.87357744800189 45.09811870955496, 38.88713679102161 45.08979775131956, 38.88370865828372 45.077345267826196, 38.86672118252612 45.07321465640511, 38.85316183950641 45.081538030359425))", "population": 0.0, "Pedestrian traffic": null, "car traffic": null, "GiZScore": -0.28268516272526628 }, "geometry": { "type": "Polygon", "coordinates": [ [ [ 4325114.191682502627373, 5634367.127153518609703 ], [ 4325495.80967325437814, 5636330.381520412862301 ], [ 4327386.846824453212321, 5636981.517829328775406 ], [ 4328896.265984900295734, 5635669.399771347641945 ], [ 4328514.647994146682322, 5633706.145404451526701 ], [ 4326623.610842947848141, 5633055.009095536544919 ], [ 4325114.191682502627373, 5634367.127153518609703 ] ] ] } },
{ "type": "Feature", "properties": { "id": 11, "geometry_y": "POLYGON ((38.91410228912919 45.01497961360971, 38.917530421867085 45.02744568219711, 38.93451789762467 45.031579600474664, 38.94807724064439 45.023248952052285, 38.9446491079065 45.01078196962335, 38.92766163214891 45.006646549458154, 38.91410228912919 45.01497961360971))", "population": 0.0, "Pedestrian traffic": null, "car traffic": null, "GiZScore": 0.017364691983172292 }, "geometry": { "type": "Polygon", "coordinates": [ [ [ 4331898.051503222435713, 5623880.028129824437201 ], [ 4332279.669493976980448, 5625843.282496718689799 ], [ 4334170.706645174883306, 5626494.418805633671582 ], [ 4335680.125805620104074, 5625182.300747654400766 ], [ 4335298.507814867421985, 5623219.046380758285522 ], [ 4333407.470663669519126, 5622567.910071842372417 ], [ 4331898.051503222435713, 5623880.028129824437201 ] ] ] } },
{ "type": "Feature", "properties": { "id": 12, "geometry_y": "POLYGON ((38.90397107884738 45.035775719864404, 38.90739921158525 45.048237260081514, 38.92438668734285 45.052369676472544, 38.93794603036256 45.04404205453261, 38.93451789762468 45.031579600474664, 38.917530421867085 45.02744568219711, 38.90397107884738 45.035775719864404))", "population": 31000.0, "Pedestrian traffic": 25000.0, "car traffic": 15000.0, "GiZScore": -0.11751107972806706 }, "geometry": { "type": "Polygon", "coordinates": [ [ [ 4330770.250333531759679, 5627155.40055469982326 ], [ 4331151.868324283510447, 5629118.654921596869826 ], [ 4333042.905475482344627, 5629769.791230510920286 ], [ 4334552.324635928496718, 5628457.67317252792418 ], [ 4334170.706645175814629, 5626494.418805633671582 ], [ 4332279.669493976980448, 5625843.282496718689799 ], [ 4330770.250333531759679, 5627155.40055469982326 ] ] ] } },
{ "type": "Feature", "properties": { "id": 13, "geometry_y": "POLYGON ((38.89383986856555 45.05656427126697, 38.89726800130342 45.06902128311859, 38.914255477061026 45.073152197625, 38.927814820080734 45.064827602163845, 38.92438668734285 45.052369676472544, 38.90739921158525 45.048237260081514, 38.89383986856555 45.05656427126697))", "population": 13000.0, "Pedestrian traffic": 9500.0, "car traffic": 13000.0, "GiZScore": 0.32364872788216392 }, "geometry": { "type": "Polygon", "coordinates": [ [ [ 4329642.449163839221001, 5630430.77297957893461 ], [ 4330024.067154590971768, 5632394.027346471324563 ], [ 4331915.104305790737271, 5633045.163655385375023 ], [ 4333424.52346623595804, 5631733.045597404241562 ], [ 4333042.905475482344627, 5629769.791230510920286 ], [ 4331151.868324283510447, 5629118.654921596869826 ], [ 4329642.449163839221001, 5630430.77297957893461 ] ] ] } },
{ "type": "Feature", "properties": { "id": 14, "geometry_y": "POLYGON ((38.88370865828372 45.07734526782621, 38.887136791021604 45.08979775131957, 38.9041242667792 45.09392716394407, 38.917683609798914 45.08560559495639, 38.914255477061026 45.073152197625, 38.89726800130344 45.06902128311858, 38.88370865828372 45.07734526782621))", "population": 30000.0, "Pedestrian traffic": 14000.0, "car traffic": 12000.0, "GiZScore": -0.13945390595659737 }, "geometry": { "type": "Polygon", "coordinates": [ [ [ 4328514.647994146682322, 5633706.145404453389347 ], [ 4328896.265984899364412, 5635669.399771350435913 ], [ 4330787.303136098198593, 5636320.536080262623727 ], [ 4332296.722296544350684, 5635008.418022282421589 ], [ 4331915.104305790737271, 5633045.163655385375023 ], [ 4330024.067154592834413, 5632394.02734647039324 ], [ 4328514.647994146682322, 5633706.145404453389347 ] ] ] } },
{ "type": "Feature", "properties": { "id": 15, "geometry_y": "POLYGON ((38.87357744800189 45.09811870955496, 38.877005580739784 45.110566664699626, 38.89399305649737 45.11469457544572, 38.90755239951709 45.106376032924636, 38.9041242667792 45.09392716394407, 38.88713679102161 45.08979775131956, 38.87357744800189 45.09811870955496))", "population": 8500.0, "Pedestrian traffic": 1400.0, "car traffic": 1600.0, "GiZScore": 0.38119558502010814 }, "geometry": { "type": "Polygon", "coordinates": [ [ [ 4327386.846824453212321, 5636981.517829328775406 ], [ 4327768.464815207757056, 5638944.772196225821972 ], [ 4329659.501966405659914, 5639595.908505140803754 ], [ 4331168.921126850880682, 5638283.790447158738971 ], [ 4330787.303136098198593, 5636320.536080262623727 ], [ 4328896.265984900295734, 5635669.399771347641945 ], [ 4327386.846824453212321, 5636981.517829328775406 ] ] ] } },
{ "type": "Feature", "properties": { "id": 19, "geometry_y": "POLYGON ((38.9446491079065 45.01078196962335, 38.94807724064439 45.023248952052285, 38.96506471640198 45.02738317341601, 38.9786240594217 45.01905191423844, 38.97519592668381 45.0065840179679, 38.958208450926215 45.0024482947164, 38.9446491079065 45.01078196962335))", "population": 20000.0, "Pedestrian traffic": 46000.0, "car traffic": 29000.0, "GiZScore": -0.2687481615263807 }, "geometry": { "type": "Polygon", "coordinates": [ [ [ 4335298.507814867421985, 5623219.046380758285522 ], [ 4335680.125805620104074, 5625182.300747654400766 ], [ 4337571.162956818938255, 5625833.437056567519903 ], [ 4339080.582117265090346, 5624521.318998584523797 ], [ 4338698.964126512408257, 5622558.064631689339876 ], [ 4336807.926975313574076, 5621906.928322776220739 ], [ 4335298.507814867421985, 5623219.046380758285522 ] ] ] } },
{ "type": "Feature", "properties": { "id": 20, "geometry_y": "POLYGON ((38.93451789762468 45.031579600474664, 38.93794603036256 45.04404205453261, 38.954933506120156 45.048174774009524, 38.96849284913987 45.03984654131497, 38.96506471640198 45.02738317341601, 38.94807724064439 45.023248952052285, 38.93451789762468 45.031579600474664))", "population": 12000.0, "Pedestrian traffic": 35000.0, "car traffic": 35000.0, "GiZScore": 0.59881339504570874 }, "geometry": { "type": "Polygon", "coordinates": [ [ [ 4334170.706645175814629, 5626494.418805633671582 ], [ 4334552.324635928496718, 5628457.67317252792418 ], [ 4336443.361787126399577, 5629108.80948144197464 ], [ 4337952.78094757348299, 5627796.691423460841179 ], [ 4337571.162956818938255, 5625833.437056567519903 ], [ 4335680.125805620104074, 5625182.300747654400766 ], [ 4334170.706645175814629, 5626494.418805633671582 ] ] ] } },
{ "type": "Feature", "properties": { "id": 21, "geometry_y": "POLYGON ((38.92438668734285 45.052369676472544, 38.927814820080734 45.064827602163845, 38.944802295838336 45.0689588197557, 38.95836163885804 45.06063361354079, 38.954933506120156 45.04817477400952, 38.93794603036256 45.04404205453261, 38.92438668734285 45.052369676472544))", "population": 21000.0, "Pedestrian traffic": 35000.0, "car traffic": 28000.0, "GiZScore": 1.0336153945586071 }, "geometry": { "type": "Polygon", "coordinates": [ [ [ 4333042.905475482344627, 5629769.791230510920286 ], [ 4333424.52346623595804, 5631733.045597404241562 ], [ 4335315.560617434792221, 5632384.181906319223344 ], [ 4336824.979777880012989, 5631072.063848338089883 ], [ 4336443.361787126399577, 5629108.809481441043317 ], [ 4334552.324635928496718, 5628457.67317252792418 ], [ 4333042.905475482344627, 5629769.791230510920286 ] ] ] } },
{ "type": "Feature", "properties": { "id": 22, "geometry_y": "POLYGON ((38.914255477061026 45.073152197625, 38.917683609798914 45.08560559495639, 38.93467108555651 45.08973531066573, 38.94823042857622 45.08141313092549, 38.94480229583834 45.0689588197557, 38.92781482008074 45.064827602163845, 38.914255477061026 45.073152197625))", "population": 3600.0, "Pedestrian traffic": 3600.0, "car traffic": 4200.0, "GiZScore": 0.81944079936165326 }, "geometry": { "type": "Polygon", "coordinates": [ [ [ 4331915.104305790737271, 5633045.163655385375023 ], [ 4332296.722296544350684, 5635008.418022282421589 ], [ 4334187.759447743184865, 5635659.554331196472049 ], [ 4335697.17860818747431, 5634347.436273213475943 ], [ 4335315.560617435723543, 5632384.181906319223344 ], [ 4333424.523466236889362, 5631733.045597404241562 ], [ 4331915.104305790737271, 5633045.163655385375023 ] ] ] } },
{ "type": "Feature", "properties": { "id": 23, "geometry_y": "POLYGON ((38.9041242667792 45.09392716394407, 38.90755239951709 45.106376032924636, 38.92453987527468 45.110504246754786, 38.9380992182944 45.102185093482674, 38.93467108555651 45.08973531066572, 38.917683609798914 45.085605594956384, 38.9041242667792 45.09392716394407))", "population": 26000.0, "Pedestrian traffic": 10000.0, "car traffic": 11000.0, "GiZScore": 0.29999622687648358 }, "geometry": { "type": "Polygon", "coordinates": [ [ [ 4330787.303136098198593, 5636320.536080262623727 ], [ 4331168.921126850880682, 5638283.790447158738971 ], [ 4333059.958278049714863, 5638934.926756070926785 ], [ 4334569.377438495866954, 5637622.808698090724647 ], [ 4334187.759447743184865, 5635659.554331193678081 ], [ 4332296.722296544350684, 5635008.418022280558944 ], [ 4330787.303136098198593, 5636320.536080262623727 ] ] ] } },
{ "type": "Feature", "properties": { "id": 25, "geometry_y": "POLYGON ((38.98532713696563 44.985777307661984, 38.98875526970351 44.99824973230556, 39.005742745461106 45.00238575864337, 39.01930208848083 44.994050862225606, 39.01587395574294 44.981577523740356, 38.998886479985345 44.97743999551465, 38.98532713696563 44.985777307661984))", "population": 0.0, "Pedestrian traffic": null, "car traffic": null, "GiZScore": -0.45267743652591036 }, "geometry": { "type": "Polygon", "coordinates": [ [ [ 4339826.765296204015613, 5619282.692206814885139 ], [ 4340208.383286956697702, 5621245.946573711931705 ], [ 4342099.420438155531883, 5621897.08288262411952 ], [ 4343608.839598601683974, 5620584.964824643917382 ], [ 4343227.221607848070562, 5618621.710457749664783 ], [ 4341336.184456649236381, 5617970.574148834683001 ], [ 4339826.765296204015613, 5619282.692206814885139 ] ] ] } },
{ "type": "Feature", "properties": { "id": 26, "geometry_y": "POLYGON ((38.97519592668381 45.00658401796791, 38.9786240594217 45.01905191423846, 38.99561153517929 45.0231864386884, 39.009170878199 45.01485456875558, 39.00574274546111 45.00238575864337, 38.98875526970352 44.99824973230555, 38.97519592668381 45.00658401796791))", "population": 7500.0, "Pedestrian traffic": 20000.0, "car traffic": 20000.0, "GiZScore": -0.47880242183536825 }, "geometry": { "type": "Polygon", "coordinates": [ [ [ 4338698.964126512408257, 5622558.064631690271199 ], [ 4339080.582117265090346, 5624521.318998587317765 ], [ 4340971.619268463924527, 5625172.455307502299547 ], [ 4342481.038428909145296, 5623860.337249519303441 ], [ 4342099.420438155531883, 5621897.08288262411952 ], [ 4340208.383286956697702, 5621245.94657371006906 ], [ 4338698.964126512408257, 5622558.064631690271199 ] ] ] } },
{ "type": "Feature", "properties": { "id": 27, "geometry_y": "POLYGON ((38.96506471640198 45.02738317341601, 38.96849284913987 45.039846541314986, 38.985480324897466 45.043979563877855, 38.999039667917174 45.03565072042854, 38.99561153517929 45.02318643868839, 38.9786240594217 45.01905191423844, 38.96506471640198 45.02738317341601))", "population": 21000.0, "Pedestrian traffic": 95000.0, "car traffic": 52000.0, "GiZScore": 0.74938240444858628 }, "geometry": { "type": "Polygon", "coordinates": [ [ [ 4337571.162956818938255, 5625833.437056567519903 ], [ 4337952.78094757348299, 5627796.691423463635147 ], [ 4339843.818098771385849, 5628447.827732375822961 ], [ 4341353.237259216606617, 5627135.709674396552145 ], [ 4340971.619268463924527, 5625172.455307501368225 ], [ 4339080.582117265090346, 5624521.318998584523797 ], [ 4337571.162956818938255, 5625833.437056567519903 ] ] ] } },
{ "type": "Feature", "properties": { "id": 28, "geometry_y": "POLYGON ((38.954933506120156 45.048174774009524, 38.95836163885804 45.06063361354079, 38.97534911461564 45.064765134218185, 38.988908457635354 45.05643931724932, 38.985480324897466 45.043979563877855, 38.96849284913987 45.03984654131497, 38.954933506120156 45.048174774009524))", "population": 39000.0, "Pedestrian traffic": 95000.0, "car traffic": 51000.0, "GiZScore": 0.85161444342843573 }, "geometry": { "type": "Polygon", "coordinates": [ [ [ 4336443.361787126399577, 5629108.80948144197464 ], [ 4336824.979777880012989, 5631072.063848338089883 ], [ 4338716.01692907884717, 5631723.200157253071666 ], [ 4340225.436089524999261, 5630411.082099272869527 ], [ 4339843.818098771385849, 5628447.827732375822961 ], [ 4337952.78094757348299, 5627796.691423460841179 ], [ 4336443.361787126399577, 5629108.80948144197464 ] ] ] } },
{ "type": "Feature", "properties": { "id": 29, "geometry_y": "POLYGON ((38.944802295838336 45.0689588197557, 38.94823042857621 45.08141313092549, 38.96521790433381 45.0855431497198, 38.97877724735353 45.077220359226736, 38.97534911461564 45.064765134218185, 38.95836163885804 45.06063361354079, 38.944802295838336 45.0689588197557))", "population": 48000.0, "Pedestrian traffic": 44000.0, "car traffic": 25000.0, "GiZScore": 0.39544352679001737 }, "geometry": { "type": "Polygon", "coordinates": [ [ [ 4335315.560617434792221, 5632384.181906319223344 ], [ 4335697.17860818747431, 5634347.436273213475943 ], [ 4337588.215759386308491, 5634998.572582129389048 ], [ 4339097.634919832460582, 5633686.454524147324264 ], [ 4338716.01692907884717, 5631723.200157253071666 ], [ 4336824.979777880012989, 5631072.063848338089883 ], [ 4335315.560617434792221, 5632384.181906319223344 ] ] ] } },
{ "type": "Feature", "properties": { "id": 30, "geometry_y": "POLYGON ((38.93467108555651 45.08973531066573, 38.93809921829438 45.102185093482674, 38.955086694051985 45.10631361039706, 38.9686460370717 45.09799384637357, 38.96521790433382 45.0855431497198, 38.94823042857622 45.08141313092549, 38.93467108555651 45.08973531066573))", "population": 11000.0, "Pedestrian traffic": 3400.0, "car traffic": 2600.0, "GiZScore": 0.58352648539590113 }, "geometry": { "type": "Polygon", "coordinates": [ [ [ 4334187.759447743184865, 5635659.554331196472049 ], [ 4334569.377438494935632, 5637622.808698090724647 ], [ 4336460.414589693769813, 5638273.945007006637752 ], [ 4337969.833750139921904, 5636961.826949025504291 ], [ 4337588.215759387239814, 5634998.572582129389048 ], [ 4335697.17860818747431, 5634347.436273213475943 ], [ 4334187.759447743184865, 5635659.554331196472049 ] ] ] } },
{ "type": "Feature", "properties": { "id": 31, "geometry_y": "POLYGON ((38.92453987527468 45.110504246754786, 38.92796800801257 45.122949501229876, 38.944955483770165 45.12707651626831, 38.95851482678987 45.118759778706554, 38.95508669405199 45.10631361039705, 38.9380992182944 45.102185093482674, 38.92453987527468 45.110504246754786))", "population": 13000.0, "Pedestrian traffic": 9500.0, "car traffic": 13000.0, "GiZScore": -0.0026200096247490294 }, "geometry": { "type": "Polygon", "coordinates": [ [ [ 4333059.958278049714863, 5638934.926756070926785 ], [ 4333441.576268803328276, 5640898.181122967042029 ], [ 4335332.613420002162457, 5641549.317431882023811 ], [ 4336842.032580447383225, 5640237.199373899027705 ], [ 4336460.414589694701135, 5638273.945007004775107 ], [ 4334569.377438495866954, 5637622.808698090724647 ], [ 4333059.958278049714863, 5638934.926756070926785 ] ] ] } },
{ "type": "Feature", "properties": { "id": 32, "geometry_y": "POLYGON ((38.914408664992855 45.13126562804202, 38.91783679773074 45.14370635418863, 38.93482427348834 45.147831867355855, 38.948383616508046 45.13951815624644, 38.944955483770165 45.1270765162683, 38.92796800801257 45.122949501229876, 38.914408664992855 45.13126562804202))", "population": 1900.0, "Pedestrian traffic": 1400.0, "car traffic": 700.0, "GiZScore": -0.34762815934017777 }, "geometry": { "type": "Polygon", "coordinates": [ [ [ 4331932.157108357176185, 5642210.299180947244167 ], [ 4332313.775099110789597, 5644173.553547844290733 ], [ 4334204.812250309623778, 5644824.689856757409871 ], [ 4335714.231410754844546, 5643512.571798777207732 ], [ 4335332.613420002162457, 5641549.317431880161166 ], [ 4333441.576268803328276, 5640898.181122967042029 ], [ 4331932.157108357176185, 5642210.299180947244167 ] ] ] } },
{ "type": "Feature", "properties": { "id": 33, "geometry_y": "POLYGON ((39.01587395574294 44.981577523740356, 39.01930208848083 44.994050862225606, 39.036289564238416 44.99818719164974, 39.04984890725813 44.989851684476555, 39.04642077452025 44.97737743214968, 39.029433298762655 44.97323960083776, 39.01587395574294 44.981577523740356))", "population": 0.0, "Pedestrian traffic": null, "car traffic": null, "GiZScore": -0.27189200248395567 }, "geometry": { "type": "Polygon", "coordinates": [ [ [ 4343227.221607848070562, 5618621.710457749664783 ], [ 4343608.839598601683974, 5620584.964824643917382 ], [ 4345499.876749799586833, 5621236.101133557967842 ], [ 4347009.295910245738924, 5619923.983075577765703 ], [ 4346627.677919493056834, 5617960.728708680719137 ], [ 4344736.640768294222653, 5617309.592399768531322 ], [ 4343227.221607848070562, 5618621.710457749664783 ] ] ] } },
{ "type": "Feature", "properties": { "id": 34, "geometry_y": "POLYGON ((39.00574274546111 45.00238575864337, 39.009170878199 45.01485456875558, 39.026158353956596 45.01898939629177, 39.039717696976304 45.01065691560364, 39.03628956423842 44.998187191649734, 39.01930208848083 44.9940508622256, 39.00574274546111 45.00238575864337))", "population": 16000.0, "Pedestrian traffic": 13000.0, "car traffic": 6500.0, "GiZScore": -0.09917666055365941 }, "geometry": { "type": "Polygon", "coordinates": [ [ [ 4342099.420438155531883, 5621897.08288262411952 ], [ 4342481.038428909145296, 5623860.337249519303441 ], [ 4344372.075580107979476, 5624511.473558434285223 ], [ 4345881.494740553200245, 5623199.355500451289117 ], [ 4345499.876749800518155, 5621236.101133557967842 ], [ 4343608.839598601683974, 5620584.964824643917382 ], [ 4342099.420438155531883, 5621897.08288262411952 ] ] ] } },
{ "type": "Feature", "properties": { "id": 35, "geometry_y": "POLYGON ((38.99561153517929 45.02318643868839, 38.999039667917174 45.03565072042854, 39.01602714367477 45.039784046077436, 39.02958648669448 45.031454591873235, 39.026158353956596 45.018989396291765, 39.009170878199 45.014854568755574, 38.99561153517929 45.02318643868839))", "population": 25000.0, "Pedestrian traffic": 50000.0, "car traffic": 47000.0, "GiZScore": 0.93559202718059653 }, "geometry": { "type": "Polygon", "coordinates": [ [ [ 4340971.619268463924527, 5625172.455307501368225 ], [ 4341353.237259216606617, 5627135.709674396552145 ], [ 4343244.274410415440798, 5627786.845983309671283 ], [ 4344753.693570860661566, 5626474.727925328537822 ], [ 4344372.075580107979476, 5624511.473558432422578 ], [ 4342481.038428909145296, 5623860.337249518372118 ], [ 4340971.619268463924527, 5625172.455307501368225 ] ] ] } },
{ "type": "Feature", "properties": { "id": 36, "geometry_y": "POLYGON ((38.985480324897466 45.043979563877855, 38.988908457635354 45.05643931724932, 39.00589593339294 45.06057114101235, 39.019455276412664 45.05224471328934, 39.01602714367477 45.039784046077436, 38.99903966791718 45.03565072042854, 38.985480324897466 45.043979563877855))", "population": 25000.0, "Pedestrian traffic": 52000.0, "car traffic": 41000.0, "GiZScore": 1.5614234507840787 }, "geometry": { "type": "Polygon", "coordinates": [ [ [ 4339843.818098771385849, 5628447.827732375822961 ], [ 4340225.436089524999261, 5630411.082099272869527 ], [ 4342116.473240722902119, 5631062.218408185988665 ], [ 4343625.892401169985533, 5629750.100350204855204 ], [ 4343244.274410415440798, 5627786.845983309671283 ], [ 4341353.23725921753794, 5627135.709674396552145 ], [ 4339843.818098771385849, 5628447.827732375822961 ] ] ] } },
{ "type": "Feature", "properties": { "id": 37, "geometry_y": "POLYGON ((38.97534911461564 45.064765134218185, 38.97877724735353 45.077220359226736, 38.995764723111115 45.08135068110613, 39.00932406613083 45.073027279859986, 39.00589593339294 45.060571141012346, 38.988908457635354 45.05643931724932, 38.97534911461564 45.064765134218185))", "population": 25000.0, "Pedestrian traffic": 58000.0, "car traffic": 39000.0, "GiZScore": 1.9121048519412021 }, "geometry": { "type": "Polygon", "coordinates": [ [ [ 4338716.01692907884717, 5631723.200157253071666 ], [ 4339097.634919832460582, 5633686.454524147324264 ], [ 4340988.672071029432118, 5634337.590833062306046 ], [ 4342498.091231476515532, 5633025.472775080241263 ], [ 4342116.473240722902119, 5631062.218408184126019 ], [ 4340225.436089524999261, 5630411.082099272869527 ], [ 4338716.01692907884717, 5631723.200157253071666 ] ] ] } },
{ "type": "Feature", "properties": { "id": 38, "geometry_y": "POLYGON ((38.96521790433382 45.0855431497198, 38.9686460370717 45.09799384637357, 38.985633512829295 45.102122666372345, 38.999192855849 45.09380229159715, 38.99576472311113 45.08135068110613, 38.97877724735353 45.07722035922673, 38.96521790433382 45.0855431497198))", "population": 9500.0, "Pedestrian traffic": 19000.0, "car traffic": 29000.0, "GiZScore": 1.0871092322489448 }, "geometry": { "type": "Polygon", "coordinates": [ [ [ 4337588.215759387239814, 5634998.572582129389048 ], [ 4337969.833750139921904, 5636961.826949025504291 ], [ 4339860.870901338756084, 5637612.963257940486073 ], [ 4341370.290061783976853, 5636300.845199957489967 ], [ 4340988.672071032226086, 5634337.590833062306046 ], [ 4339097.634919832460582, 5633686.454524147324264 ], [ 4337588.215759387239814, 5634998.572582129389048 ] ] ] } },
{ "type": "Feature", "properties": { "id": 39, "geometry_y": "POLYGON ((38.95508669405199 45.10631361039705, 38.95851482678987 45.118759778706554, 38.97550230254747 45.122887096828514, 38.989061645567176 45.11456974851678, 38.985633512829295 45.10212266637233, 38.9686460370717 45.09799384637357, 38.95508669405199 45.10631361039705))", "population": 26000.0, "Pedestrian traffic": 21000.0, "car traffic": 26000.0, "GiZScore": 0.08944258547905172 }, "geometry": { "type": "Polygon", "coordinates": [ [ [ 4336460.414589694701135, 5638273.945007004775107 ], [ 4336842.032580447383225, 5640237.199373899027705 ], [ 4338733.069731646217406, 5640888.33568281494081 ], [ 4340242.488892091438174, 5639576.217624832876027 ], [ 4339860.870901338756084, 5637612.963257937692106 ], [ 4337969.833750139921904, 5636961.826949025504291 ], [ 4336460.414589694701135, 5638273.945007004775107 ] ] ] } },
{ "type": "Feature", "properties": { "id": 40, "geometry_y": "POLYGON ((38.944955483770165 45.1270765162683, 38.948383616508046 45.13951815624644, 38.96537109226564 45.143643972496164, 38.97893043528535 45.13532965063879, 38.97550230254747 45.12288709682851, 38.95851482678988 45.118759778706554, 38.944955483770165 45.1270765162683))", "population": 5000.0, "Pedestrian traffic": 7000.0, "car traffic": 4600.0, "GiZScore": -0.021111796571477267 }, "geometry": { "type": "Polygon", "coordinates": [ [ [ 4335332.613420002162457, 5641549.317431880161166 ], [ 4335714.231410754844546, 5643512.571798777207732 ], [ 4337605.268561953678727, 5644163.708107690326869 ], [ 4339114.687722397968173, 5642851.590049708262086 ], [ 4338733.069731646217406, 5640888.335682814009488 ], [ 4336842.032580447383225, 5640237.199373899027705 ], [ 4335332.613420002162457, 5641549.317431880161166 ] ] ] } },
{ "type": "Feature", "properties": { "id": 41, "geometry_y": "POLYGON ((39.036289564238416 44.99818719164974, 39.039717696976304 45.01065691560365, 39.0567051727339 45.01479204622611, 39.07026451575361 45.00645895478264, 39.066836383015726 44.99398831698699, 39.04984890725813 44.989851684476555, 39.036289564238416 44.99818719164974))", "population": 10000.0, "Pedestrian traffic": 9000.0, "car traffic": 5000.0, "GiZScore": 0.80688981835559281 }, "geometry": { "type": "Polygon", "coordinates": [ [ [ 4345499.876749799586833, 5621236.101133557967842 ], [ 4345881.494740553200245, 5623199.35550045222044 ], [ 4347772.531891752034426, 5623850.491809367202222 ], [ 4349281.951052196323872, 5622538.373751387000084 ], [ 4348900.333061444573104, 5620575.11938449088484 ], [ 4347009.295910245738924, 5619923.983075577765703 ], [ 4345499.876749799586833, 5621236.101133557967842 ] ] ] } },
{ "type": "Feature", "properties": { "id": 42, "geometry_y": "POLYGON ((39.026158353956596 45.01898939629177, 39.02958648669448 45.03145459187324, 39.04657396245207 45.03558822060822, 39.06013330547178 45.02725815564902, 39.0567051727339 45.01479204622611, 39.039717696976304 45.01065691560364, 39.026158353956596 45.01898939629177))", "population": 37000.0, "Pedestrian traffic": 49000.0, "car traffic": 36000.0, "GiZScore": 0.42171056155829501 }, "geometry": { "type": "Polygon", "coordinates": [ [ [ 4344372.075580107979476, 5624511.473558434285223 ], [ 4344753.693570860661566, 5626474.727925328537822 ], [ 4346644.730722059495747, 5627125.864234244450927 ], [ 4348154.149882503785193, 5625813.746176265180111 ], [ 4347772.531891752034426, 5623850.491809367202222 ], [ 4345881.494740553200245, 5623199.355500451289117 ], [ 4344372.075580107979476, 5624511.473558434285223 ] ] ] } },
{ "type": "Feature", "properties": { "id": 43, "geometry_y": "POLYGON ((39.01602714367477 45.039784046077436, 39.01945527641265 45.05224471328934, 39.036442752170245 45.056376840138114, 39.05000209518996 45.04804980166078, 39.04657396245207 45.03558822060822, 39.02958648669448 45.031454591873235, 39.01602714367477 45.039784046077436))", "population": 25000.0, "Pedestrian traffic": 41000.0, "car traffic": 42000.0, "GiZScore": 0.74136848192434346 }, "geometry": { "type": "Polygon", "coordinates": [ [ [ 4343244.274410415440798, 5627786.845983309671283 ], [ 4343625.892401167191565, 5629750.100350204855204 ], [ 4345516.929552366025746, 5630401.236659119836986 ], [ 4347026.348712812177837, 5629089.118601138703525 ], [ 4346644.730722059495747, 5627125.864234244450927 ], [ 4344753.693570860661566, 5626474.727925328537822 ], [ 4343244.274410415440798, 5627786.845983309671283 ] ] ] } },
{ "type": "Feature", "properties": { "id": 44, "geometry_y": "POLYGON ((39.00589593339294 45.06057114101235, 39.00932406613083 45.073027279859986, 39.02631154188843 45.07715790482462, 39.03987088490814 45.068833892825154, 39.03644275217026 45.056376840138114, 39.019455276412664 45.05224471328934, 39.00589593339294 45.06057114101235))", "population": 85000.0, "Pedestrian traffic": 78000.0, "car traffic": 34000.0, "GiZScore": 1.5190961556791152 }, "geometry": { "type": "Polygon", "coordinates": [ [ [ 4342116.473240722902119, 5631062.218408185988665 ], [ 4342498.091231476515532, 5633025.472775080241263 ], [ 4344389.128382675349712, 5633676.60908399708569 ], [ 4345898.547543120570481, 5632364.491026016883552 ], [ 4345516.929552367888391, 5630401.236659119836986 ], [ 4343625.892401169985533, 5629750.100350204855204 ], [ 4342116.473240722902119, 5631062.218408185988665 ] ] ] } },
{ "type": "Feature", "properties": { "id": 45, "geometry_y": "POLYGON ((38.995764723111115 45.08135068110613, 38.999192855849 45.09380229159716, 39.016180331606606 45.097931414680474, 39.029739674626306 45.08961042915329, 39.02631154188843 45.07715790482462, 39.00932406613083 45.073027279859986, 38.995764723111115 45.08135068110613))", "population": 46000.0, "Pedestrian traffic": 46000.0, "car traffic": 29000.0, "GiZScore": 2.1914356882049666 }, "geometry": { "type": "Polygon", "coordinates": [ [ [ 4340988.672071029432118, 5634337.590833062306046 ], [ 4341370.290061783976853, 5636300.84519995842129 ], [ 4343261.327212982811034, 5636951.98150887247175 ], [ 4344770.74637342710048, 5635639.863450892269611 ], [ 4344389.128382675349712, 5633676.60908399708569 ], [ 4342498.091231476515532, 5633025.472775080241263 ], [ 4340988.672071029432118, 5634337.590833062306046 ] ] ] } },
{ "type": "Feature", "properties": { "id": 46, "geometry_y": "POLYGON ((38.985633512829295 45.102122666372345, 38.989061645567176 45.11456974851678, 39.00604912132477 45.118697369722454, 39.01960846434448 45.110379410660364, 39.016180331606606 45.09793141468047, 38.999192855849 45.09380229159715, 38.985633512829295 45.102122666372345))", "population": 38000.0, "Pedestrian traffic": 37000.0, "car traffic": 38000.0, "GiZScore": 0.31103690930387662 }, "geometry": { "type": "Polygon", "coordinates": [ [ [ 4339860.870901338756084, 5637612.963257940486073 ], [ 4340242.488892091438174, 5639576.217624832876027 ], [ 4342133.526043290272355, 5640227.353933747857809 ], [ 4343642.945203734561801, 5638915.235875767655671 ], [ 4343261.327212982811034, 5636951.981508870609105 ], [ 4341370.290061783976853, 5636300.845199957489967 ], [ 4339860.870901338756084, 5637612.963257940486073 ] ] ] } },
{ "type": "Feature", "properties": { "id": 47, "geometry_y": "POLYGON ((38.97550230254747 45.122887096828514, 38.97893043528535 45.1353296506388, 38.995917911042945 45.13945576997125, 39.00947725406266 45.13114083736548, 39.00604912132477 45.11869736972245, 38.989061645567176 45.11456974851678, 38.97550230254747 45.122887096828514))", "population": 7000.0, "Pedestrian traffic": 15000.0, "car traffic": 26000.0, "GiZScore": 0.76733635608957396 }, "geometry": { "type": "Polygon", "coordinates": [ [ [ 4338733.069731646217406, 5640888.33568281494081 ], [ 4339114.687722397968173, 5642851.590049710124731 ], [ 4341005.724873596802354, 5643502.726358626037836 ], [ 4342515.144034042954445, 5642190.60830064304173 ], [ 4342133.526043290272355, 5640227.353933746926486 ], [ 4340242.488892091438174, 5639576.217624832876027 ], [ 4338733.069731646217406, 5640888.33568281494081 ] ] ] } },
{ "type": "Feature", "properties": { "id": 48, "geometry_y": "POLYGON ((38.96537109226564 45.143643972496164, 38.96879922500352 45.156081997987066, 38.98578670076112 45.160206615451514, 38.99934604378083 45.15189470929172, 38.995917911042945 45.13945576997124, 38.97893043528535 45.13532965063879, 38.96537109226564 45.143643972496164))", "population": 9000.0, "Pedestrian traffic": 5000.0, "car traffic": 2200.0, "GiZScore": -0.27422122085020084 }, "geometry": { "type": "Polygon", "coordinates": [ [ [ 4337605.268561953678727, 5644163.708107690326869 ], [ 4337986.886552705429494, 5646126.962474586442113 ], [ 4339877.923703904263675, 5646778.09878349956125 ], [ 4341387.342864350415766, 5645465.980725518427789 ], [ 4341005.724873596802354, 5643502.726358624175191 ], [ 4339114.687722397968173, 5642851.590049708262086 ], [ 4337605.268561953678727, 5644163.708107690326869 ] ] ] } },
{ "type": "Feature", "properties": { "id": 49, "geometry_y": "POLYGON ((39.066836383015726 44.99398831698699, 39.07026451575361 45.00645895478264, 39.0872519915112 45.010594388491405, 39.100811334530924 45.00226068629253, 39.097383201793036 44.989789134655155, 39.080395726035434 44.985652199058414, 39.066836383015726 44.99398831698699))", "population": 36000.0, "Pedestrian traffic": 21000.0, "car traffic": 6500.0, "GiZScore": -0.026794405843501169 }, "geometry": { "type": "Polygon", "coordinates": [ [ [ 4348900.333061444573104, 5620575.11938449088484 ], [ 4349281.951052196323872, 5622538.373751387000084 ], [ 4351172.988203395158052, 5623189.510060301981866 ], [ 4352682.407363842241466, 5621877.392002320848405 ], [ 4352300.789373088628054, 5619914.137635423801839 ], [ 4350409.752221889793873, 5619263.001326509751379 ], [ 4348900.333061444573104, 5620575.11938449088484 ] ] ] } },
{ "type": "Feature", "properties": { "id": 50, "geometry_y": "POLYGON ((39.0567051727339 45.01479204622611, 39.06013330547178 45.02725815564902, 39.077120781229375 45.03139208747013, 39.0906801242491 45.02306141175582, 39.0872519915112 45.0105943884914, 39.07026451575361 45.00645895478263, 39.0567051727339 45.01479204622611))", "population": 28000.0, "Pedestrian traffic": 34000.0, "car traffic": 24000.0, "GiZScore": 0.56705106652161419 }, "geometry": { "type": "Polygon", "coordinates": [ [ [ 4347772.531891752034426, 5623850.491809367202222 ], [ 4348154.149882503785193, 5625813.746176265180111 ], [ 4350045.187033702619374, 5626464.882485177367926 ], [ 4351554.606194149702787, 5625152.764427195303142 ], [ 4351172.988203395158052, 5623189.510060300119221 ], [ 4349281.951052196323872, 5622538.373751385137439 ], [ 4347772.531891752034426, 5623850.491809367202222 ] ] ] } },
{ "type": "Feature", "properties": { "id": 51, "geometry_y": "POLYGON ((39.04657396245207 45.03558822060822, 39.05000209518996 45.04804980166078, 39.066989570947555 45.05218223159536, 39.08054891396727 45.04385458236354, 39.077120781229375 45.03139208747013, 39.06013330547178 45.027258155649015, 39.04657396245207 45.03558822060822))", "population": 9000.0, "Pedestrian traffic": 22000.0, "car traffic": 24000.0, "GiZScore": 0.71784150881307462 }, "geometry": { "type": "Polygon", "coordinates": [ [ [ 4346644.730722059495747, 5627125.864234244450927 ], [ 4347026.348712812177837, 5629089.118601138703525 ], [ 4348917.385864011012018, 5629740.254910052753985 ], [ 4350426.805024457164109, 5628428.136852071620524 ], [ 4350045.187033702619374, 5626464.882485177367926 ], [ 4348154.149882503785193, 5625813.746176262386143 ], [ 4346644.730722059495747, 5627125.864234244450927 ] ] ] } },
{ "type": "Feature", "properties": { "id": 52, "geometry_y": "POLYGON ((39.03644275217026 45.056376840138114, 39.03987088490814 45.068833892825154, 39.056858360665736 45.07296482087509, 39.07041770368544 45.064640198122085, 39.06698957094756 45.05218223159536, 39.05000209518997 45.04804980166078, 39.03644275217026 45.056376840138114))", "population": 18000.0, "Pedestrian traffic": 14000.0, "car traffic": 9500.0, "GiZScore": 2.1366961461690868 }, "geometry": { "type": "Polygon", "coordinates": [ [ [ 4345516.929552367888391, 5630401.236659119836986 ], [ 4345898.547543120570481, 5632364.491026016883552 ], [ 4347789.584694319404662, 5633015.627334929071367 ], [ 4349299.003854763694108, 5631703.509276947006583 ], [ 4348917.38586401194334, 5629740.254910052753985 ], [ 4347026.348712813109159, 5629089.118601138703525 ], [ 4345516.929552367888391, 5630401.236659119836986 ] ] ] } },
{ "type": "Feature", "properties": { "id": 53, "geometry_y": "POLYGON ((39.02631154188843 45.07715790482462, 39.029739674626306 45.08961042915329, 39.04672715038391 45.0937398553213, 39.060286493403616 45.08541825904183, 39.056858360665736 45.072964820875086, 39.03987088490814 45.06883389282514, 39.02631154188843 45.07715790482462))", "population": 45000.0, "Pedestrian traffic": 25000.0, "car traffic": 14000.0, "GiZScore": 1.4998107406190244 }, "geometry": { "type": "Polygon", "coordinates": [ [ [ 4344389.128382675349712, 5633676.60908399708569 ], [ 4344770.74637342710048, 5635639.863450892269611 ], [ 4346661.783524626865983, 5636290.999759806320071 ], [ 4348171.202685072086751, 5634978.88170182518661 ], [ 4347789.584694319404662, 5633015.627334928140044 ], [ 4345898.547543120570481, 5632364.491026014089584 ], [ 4344389.128382675349712, 5633676.60908399708569 ] ] ] } },
{ "type": "Feature", "properties": { "id": 54, "geometry_y": "POLYGON ((39.016180331606606 45.09793141468047, 39.01960846434448 45.110379410660364, 39.03659594010208 45.11450733494993, 39.050155283121796 45.10618876513712, 39.04672715038391 45.093739855321296, 39.029739674626306 45.08961042915329, 39.016180331606606 45.09793141468047))", "population": 26000.0, "Pedestrian traffic": 15000.0, "car traffic": 13000.0, "GiZScore": 1.3905561130888218 }, "geometry": { "type": "Polygon", "coordinates": [ [ [ 4343261.327212982811034, 5636951.981508870609105 ], [ 4343642.945203734561801, 5638915.235875767655671 ], [ 4345533.982354934327304, 5639566.372184681706131 ], [ 4347043.401515380479395, 5638254.25412670057267 ], [ 4346661.783524626865983, 5636290.999759804457426 ], [ 4344770.74637342710048, 5635639.863450892269611 ], [ 4343261.327212982811034, 5636951.981508870609105 ] ] ] } },
{ "type": "Feature", "properties": { "id": 55, "geometry_y": "POLYGON ((39.00604912132477 45.11869736972245, 39.00947725406266 45.13114083736548, 39.026464729820255 45.13526725978086, 39.04002407283997 45.126951716426284, 39.03659594010208 45.11450733494992, 39.01960846434448 45.11037941066036, 39.00604912132477 45.11869736972245))", "population": 10000.0, "Pedestrian traffic": 15000.0, "car traffic": 22000.0, "GiZScore": -0.46038599055204016 }, "geometry": { "type": "Polygon", "coordinates": [ [ [ 4342133.526043290272355, 5640227.353933746926486 ], [ 4342515.144034042954445, 5642190.60830064304173 ], [ 4344406.181185241788626, 5642841.744609556160867 ], [ 4345915.600345687940717, 5641529.626551576890051 ], [ 4345533.982354934327304, 5639566.372184680774808 ], [ 4343642.945203734561801, 5638915.235875766724348 ], [ 4342133.526043290272355, 5640227.353933746926486 ] ] ] } },
{ "type": "Feature", "properties": { "id": 56, "geometry_y": "POLYGON ((38.995917911042945 45.13945576997124, 38.99934604378083 45.15189470929172, 39.01633351953843 45.156019629838, 39.02989286255814 45.147707112931585, 39.02646472982026 45.13526725978085, 39.009477254062666 45.131140837365464, 38.995917911042945 45.13945576997124))", "population": 12000.0, "Pedestrian traffic": 13000.0, "car traffic": 23000.0, "GiZScore": -0.49735833472514479 }, "geometry": { "type": "Polygon", "coordinates": [ [ [ 4341005.724873596802354, 5643502.726358624175191 ], [ 4341387.342864350415766, 5645465.980725518427789 ], [ 4343278.380015549249947, 5646117.117034433409572 ], [ 4344787.799175994470716, 5644804.998976451344788 ], [ 4344406.181185242719948, 5642841.744609555229545 ], [ 4342515.144034043885767, 5642190.608300641179085 ], [ 4341005.724873596802354, 5643502.726358624175191 ] ] ] } },
{ "type": "Feature", "properties": { "id": 57, "geometry_y": "POLYGON ((39.0872519915112 45.010594388491405, 39.09068012424909 45.023061411755826, 39.107667600006685 45.027195646663124, 39.12122694302639 45.01886436019364, 39.11779881028851 45.0063964230876, 39.100811334530924 45.00226068629253, 39.0872519915112 45.010594388491405))", "population": 14000.0, "Pedestrian traffic": 14000.0, "car traffic": 30000.0, "GiZScore": 0.34092178343887791 }, "geometry": { "type": "Polygon", "coordinates": [ [ [ 4351172.988203395158052, 5623189.510060301981866 ], [ 4351554.606194148771465, 5625152.764427195303142 ], [ 4353445.643345347605646, 5625803.900736111216247 ], [ 4354955.062505792826414, 5624491.782678130082786 ], [ 4354573.444515040144324, 5622528.528311233967543 ], [ 4352682.407363842241466, 5621877.392002320848405 ], [ 4351172.988203395158052, 5623189.510060301981866 ] ] ] } },
{ "type": "Feature", "properties": { "id": 58, "geometry_y": "POLYGON ((39.077120781229375 45.03139208747013, 39.08054891396727 45.043854582363544, 39.09753638972486 45.04798731538402, 39.11109573274457 45.03965905539757, 39.107667600006685 45.027195646663124, 39.0906801242491 45.02306141175582, 39.077120781229375 45.03139208747013))", "population": 29000.0, "Pedestrian traffic": 29000.0, "car traffic": 20000.0, "GiZScore": 0.07480546244369482 }, "geometry": { "type": "Polygon", "coordinates": [ [ [ 4350045.187033702619374, 5626464.882485177367926 ], [ 4350426.805024457164109, 5628428.136852071620524 ], [ 4352317.842175655066967, 5629079.273160986602306 ], [ 4353827.261336100287735, 5627767.155103005468845 ], [ 4353445.643345347605646, 5625803.900736111216247 ], [ 4351554.606194149702787, 5625152.764427195303142 ], [ 4350045.187033702619374, 5626464.882485177367926 ] ] ] } },
{ "type": "Feature", "properties": { "id": 59, "geometry_y": "POLYGON ((39.066989570947555 45.05218223159536, 39.07041770368544 45.06464019812209, 39.08740517944303 45.06877142925748, 39.10096452246275 45.0604461957507, 39.09753638972486 45.04798731538401, 39.08054891396727 45.04385458236354, 39.066989570947555 45.05218223159536))", "population": 400.0, "Pedestrian traffic": 7000.0, "car traffic": 6000.0, "GiZScore": 0.085450658940142407 }, "geometry": { "type": "Polygon", "coordinates": [ [ [ 4348917.385864011012018, 5629740.254910052753985 ], [ 4349299.003854763694108, 5631703.509276948869228 ], [ 4351190.041005962528288, 5632354.645585861988366 ], [ 4352699.460166408680379, 5631042.527527880854905 ], [ 4352317.842175655066967, 5629079.273160986602306 ], [ 4350426.805024457164109, 5628428.136852071620524 ], [ 4348917.385864011012018, 5629740.254910052753985 ] ] ] } },
{ "type": "Feature", "properties": { "id": 60, "geometry_y": "POLYGON ((39.056858360665736 45.07296482087509, 39.060286493403616 45.08541825904183, 39.07727396916121 45.089547988294676, 39.090833312180926 45.081225781262624, 39.08740517944304 45.068771429257474, 39.07041770368544 45.064640198122085, 39.056858360665736 45.07296482087509))", "population": 6500.0, "Pedestrian traffic": 2200.0, "car traffic": 2400.0, "GiZScore": 0.0054060747063565473 }, "geometry": { "type": "Polygon", "coordinates": [ [ [ 4347789.584694319404662, 5633015.627334929071367 ], [ 4348171.202685072086751, 5634978.88170182518661 ], [ 4350062.23983626998961, 5635630.018010737374425 ], [ 4351571.658996717073023, 5634317.899952756240964 ], [ 4351190.041005962528288, 5632354.645585861988366 ], [ 4349299.003854763694108, 5631703.509276947006583 ], [ 4347789.584694319404662, 5633015.627334929071367 ] ] ] } },
{ "type": "Feature", "properties": { "id": 61, "geometry_y": "POLYGON ((39.04672715038391 45.0937398553213, 39.05015528312179 45.10618876513713, 39.06714275887939 45.110316992510754, 39.08070210189909 45.10199781194689, 39.07727396916121 45.089547988294676, 39.060286493403616 45.08541825904183, 39.04672715038391 45.0937398553213))", "population": 11000.0, "Pedestrian traffic": 4400.0, "car traffic": 7500.0, "GiZScore": -0.054550900533671023 }, "geometry": { "type": "Polygon", "coordinates": [ [ [ 4346661.783524626865983, 5636290.999759806320071 ], [ 4347043.401515379548073, 5638254.254126701503992 ], [ 4348934.438666578382254, 5638905.390435613691807 ], [ 4350443.857827023603022, 5637593.272377633489668 ], [ 4350062.23983626998961, 5635630.018010737374425 ], [ 4348171.202685072086751, 5634978.88170182518661 ], [ 4346661.783524626865983, 5636290.999759806320071 ] ] ] } },
{ "type": "Feature", "properties": { "id": 62, "geometry_y": "POLYGON ((39.03659594010208 45.11450733494993, 39.04002407283996 45.126951716426284, 39.057011548597565 45.131078441924814, 39.07057089161727 45.12276228782101, 39.06714275887939 45.11031699251075, 39.050155283121796 45.10618876513712, 39.03659594010208 45.11450733494993))", "population": 7000.0, "Pedestrian traffic": 3200.0, "car traffic": 1100.0, "GiZScore": -0.21791050904405032 }, "geometry": { "type": "Polygon", "coordinates": [ [ [ 4345533.982354934327304, 5639566.372184681706131 ], [ 4345915.600345687009394, 5641529.626551576890051 ], [ 4347806.637496886774898, 5642180.762860490940511 ], [ 4349316.056657331064343, 5640868.64480250980705 ], [ 4348934.438666578382254, 5638905.390435613691807 ], [ 4347043.401515380479395, 5638254.25412670057267 ], [ 4345533.982354934327304, 5639566.372184681706131 ] ] ] } },
{ "type": "Feature", "properties": { "id": 64, "geometry_y": "POLYGON ((39.01633351953843 45.156019629838, 39.019761652276316 45.16845495467929, 39.036749128033904 45.1725786764431, 39.050308471053626 45.164268575228675, 39.04688033831573 45.15183233655992, 39.02989286255814 45.147707112931585, 39.01633351953843 45.156019629838))", "population": 1000.0, "Pedestrian traffic": null, "car traffic": null, "GiZScore": -0.35934050703274206 }, "geometry": { "type": "Polygon", "coordinates": [ [ [ 4343278.380015549249947, 5646117.117034433409572 ], [ 4343659.998006301932037, 5648080.371401328593493 ], [ 4345551.035157500766218, 5648731.507710243575275 ], [ 4347060.454317946918309, 5647419.389652263373137 ], [ 4346678.836327193304896, 5645456.135285365395248 ], [ 4344787.799175994470716, 5644804.998976451344788 ], [ 4343278.380015549249947, 5646117.117034433409572 ] ] ] } },
{ "type": "Feature", "properties": { "id": 65, "geometry_y": "POLYGON ((39.11779881028851 45.0063964230876, 39.12122694302639 45.01886436019364, 39.13821441878399 45.022998898187154, 39.1517737618037 45.01466700096242, 39.14834562906582 45.002198150014706, 39.13135815330823 44.998062110133304, 39.11779881028851 45.0063964230876))", "population": 400.0, "Pedestrian traffic": 2800.0, "car traffic": 9500.0, "GiZScore": -0.37939371397658889 }, "geometry": { "type": "Polygon", "coordinates": [ [ [ 4354573.444515040144324, 5622528.528311233967543 ], [ 4354955.062505792826414, 5624491.782678130082786 ], [ 4356846.099656991660595, 5625142.918987044133246 ], [ 4358355.518817436881363, 5623830.800929062999785 ], [ 4357973.900826685130596, 5621867.546562166884542 ], [ 4356082.863675486296415, 5621216.410253251902759 ], [ 4354573.444515040144324, 5622528.528311233967543 ] ] ] } },
{ "type": "Feature", "properties": { "id": 66, "geometry_y": "POLYGON ((39.107667600006685 45.027195646663124, 39.11109573274457 45.03965905539757, 39.12808320850217 45.043792091504, 39.14164255152188 45.03546322076278, 39.138214418783996 45.02299889818715, 39.1212269430264 45.01886436019363, 39.107667600006685 45.027195646663124))", "population": 6500.0, "Pedestrian traffic": 9500.0, "car traffic": 21000.0, "GiZScore": 0.10007365999247798 }, "geometry": { "type": "Polygon", "coordinates": [ [ [ 4353445.643345347605646, 5625803.900736111216247 ], [ 4353827.261336100287735, 5627767.155103005468845 ], [ 4355718.298487299121916, 5628418.29141192138195 ], [ 4357227.717647745274007, 5627106.173353938385844 ], [ 4356846.099656992591918, 5625142.918987043201923 ], [ 4354955.062505792826414, 5624491.782678128220141 ], [ 4353445.643345347605646, 5625803.900736111216247 ] ] ] } },
{ "type": "Feature", "properties": { "id": 67, "geometry_y": "POLYGON ((39.09753638972486 45.04798731538401, 39.10096452246275 45.0604461957507, 39.11795199822035 45.064577729971646, 39.131511341240056 45.056251885710914, 39.12808320850217 45.043792091503995, 39.11109573274457 45.03965905539756, 39.09753638972486 45.04798731538401))", "population": 24000.0, "Pedestrian traffic": 19000.0, "car traffic": 27000.0, "GiZScore": -0.37923320806108057 }, "geometry": { "type": "Polygon", "coordinates": [ [ [ 4352317.842175655066967, 5629079.273160986602306 ], [ 4352699.460166408680379, 5631042.527527880854905 ], [ 4354590.49731760751456, 5631693.66383679676801 ], [ 4356099.916478052735329, 5630381.545778814703226 ], [ 4355718.298487299121916, 5628418.291411918587983 ], [ 4353827.261336100287735, 5627767.1551030036062 ], [ 4352317.842175655066967, 5629079.273160986602306 ] ] ] } },
{ "type": "Feature", "properties": { "id": 68, "geometry_y": "POLYGON ((39.08740517944304 45.068771429257474, 39.090833312180926 45.081225781262624, 39.10782078793852 45.08535581360045, 39.12138013095823 45.077032995815564, 39.11795199822035 45.064577729971646, 39.10096452246275 45.0604461957507, 39.08740517944304 45.068771429257474))", "population": 2400.0, "Pedestrian traffic": 1100.0, "car traffic": 500.0, "GiZScore": -0.47429123662282469 }, "geometry": { "type": "Polygon", "coordinates": [ [ [ 4351190.041005962528288, 5632354.645585861988366 ], [ 4351571.658996717073023, 5634317.899952756240964 ], [ 4353462.696147914975882, 5634969.036261672154069 ], [ 4354972.11530836019665, 5633656.918203691951931 ], [ 4354590.49731760751456, 5631693.66383679676801 ], [ 4352699.460166408680379, 5631042.527527880854905 ], [ 4351190.041005962528288, 5632354.645585861988366 ] ] ] } },
{ "type": "Feature", "properties": { "id": 74, "geometry_y": "POLYGON ((39.12808320850217 45.043792091504, 39.131511341240056 45.056251885710914, 39.14849881699765 45.06038372301749, 39.16205816001736 45.0520572680026, 39.15863002727948 45.039596559955235, 39.14164255152188 45.03546322076278, 39.12808320850217 45.043792091504))", "population": 0.0, "Pedestrian traffic": null, "car traffic": null, "GiZScore": -0.13805681549170257 }, "geometry": { "type": "Polygon", "coordinates": [ [ [ 4355718.298487299121916, 5628418.29141192138195 ], [ 4356099.916478052735329, 5630381.545778814703226 ], [ 4357990.95362925156951, 5631032.682087729685009 ], [ 4359500.372789696790278, 5629720.564029748551548 ], [ 4359118.754798944108188, 5627757.309662853367627 ], [ 4357227.717647745274007, 5627106.173353938385844 ], [ 4355718.298487299121916, 5628418.29141192138195 ] ] ] } },
{ "type": "Feature", "properties": { "id": 75, "geometry_y": "POLYGON ((39.11795199822035 45.064577729971646, 39.12138013095823 45.07703299581557, 39.138367606715825 45.08116333123849, 39.15192694973553 45.072839902700515, 39.14849881699765 45.06038372301748, 39.131511341240056 45.056251885710914, 39.11795199822035 45.064577729971646))", "population": 1700.0, "Pedestrian traffic": 4600.0, "car traffic": 20000.0, "GiZScore": -0.40389632356797001 }, "geometry": { "type": "Polygon", "coordinates": [ [ [ 4354590.49731760751456, 5631693.66383679676801 ], [ 4354972.11530836019665, 5633656.918203691951931 ], [ 4356863.152459559030831, 5634308.05451260600239 ], [ 4358372.571620004251599, 5632995.936454624868929 ], [ 4357990.95362925156951, 5631032.682087729685009 ], [ 4356099.916478052735329, 5630381.545778814703226 ], [ 4354590.49731760751456, 5631693.66383679676801 ] ] ] } }
]
}
